Wslr;Name;City;State;Address;Zip
102;HUGHES BEVERAGE COMPANY;ANNISTON AL;AL;310 WEST 16TH STREET;36201
104;HUGHES BEVERAGE COMPANY;ATTALLA AL;AL;311 SECOND AVENUE SW;35954
106;BIRMINGHAM BEVERAGE;BIRMINGHAM AL;AL;211 CITATION COURT;35209
110;UNITED DIST CO LLC;DOTHAN AL;AL;1158 JORDAN AVE;36303
112;GULF DIST CO OF MOBILE LLC;MOBILE AL;AL;3217 CRICHTON STREET;36607
114;MONTGOMERY BEVERAGE CO, INC;MONTGOMERY AL;AL;3181 SELMA HWY;36108
116;PREMIUM BEVERAGE COMPANY;OPELIKA AL;AL;1511 FIRST STREET;36801
118;ALLSTATE BEVERAGE COMPANY INC;MONTGOMERY AL;AL;130 6TH STREET;36104
120;SUPREME BEV CO INC-HUNTSVILLE;HUNTSVILLE AL;AL;2100A JACKSON AVE NW;35805
122;SUPREME BEV CO INC-MUS SHOALS;MUSCLE SHOALS AL;AL;106 W. AVALON;35661
124;SUPREME BEV CO INC-TUSCALOOSA;TUSCALOOSA AL;AL;2712 SOUTHSIDE DR;35401
126;ALABAMA CROWN DIST.-BIRMINGHA;ALABASTER AL;AL;1330 CORPORATE WOODS DR;35007
128;ALABAMA CROWN DIST. CO.-MOBIL;MOBILE AL;AL;4476 SHIPYARD RD.;36619
130;ALABAMA CROWN DIST-MONTGOMERY;MONTGOMERY AL;AL;402 TWAIN CURVE;36114
177;ADAMS BEVERAGES LLC;OPELIKA AL;AL;2800 WYNDHAM INDUSTRIAL DR;36804
208;ALLIANCE BEVERAGE DIST CO;PHOENIX AZ;AZ;1115 NORTH 47 AVENUE;85043
212;CRESCENT CROWN DIST. LLC;PHOENIX AZ;AZ;402 S 54TH PLACE;85034
214;FINLEY DIST. CO., INC.;TUCSON AZ;AZ;2104 S. EUCLID AVENUE;85713
220;FOUR PEAKS BREWERY-8TH STREET;TEMPE AZ;AZ;1340 8TH STREET #104;85281
240;(NA) VISTAR CORPORATION;PHOENIX AZ;AZ;2434 SOUTH 10TH STREET;85034
241;(NA) DOT FOODS INC;BULLHEAD CITY AZ;AZ;2565 LANDON DR;86429
302;GLAZER'S DISTRS OF ARK INC;NORTH LITTLE ROCK AR;AR;11101 SMITTY LANE;72117
306;PREMIUM BRANDS;FAYETTEVILLE AR;AR;1030 SOUTH RAZORBACK;72701
308;BURFORD DISTRIBUTING, INC.;FORT SMITH AR;AR;925 SOUTH H STREET;72901
310;THREE LAKES DISTRIBUTING CO.;HOT SPRINGS AR;AR;111 OVERTON STREET;71901
314;HARBOR DISTRIBUTING CO.;LITTLE ROCK AR;AR;1515 EAST FOURTH;72202
318;THREE RIVERS DISTRIBUTING LLC;PINE BLUFF AR;AR;2821 PORT ROAD;71601
320;GEORGE A. CAMPBELL & SON INC.;PINE BLUFF AR;AR;309 S MISSOURI ST;71601
322;BOLLS DISTRIBUTING COMPANY;TEXARKANA AR;AR;700 E. BROAD STREET;71854
324;WHITE RIVER BEVERAGE CO INC;WEST MEMPHIS AR;AR;#1 MCCAIN BLVD;72301
330;(NA) CORE-MARK FORREST CITY;FORREST CITY AR;AR;3400 COMMERCE ROAD;72335
338;ARKANSAS BEVERAGE SALES, INC.;HOT SPRINGS AR;AR;100 BUDWEISER LN;71901
350;GOLDEN EAGLE OF ARKANSAS INC;LITTLE ROCK AR;AR;1900 EAST 15TH ST;72202
360;ARKANSAS BEVERAGE SALES, INC.;MORRILTON AR;AR;8 SARDIS RD;72110
366;M K DISTRIBUTORS INC;PINE BLUFF AR;AR;310 SOUTH LINDEN STREET;71601
380;LUDWIG DIST CO INC;STUTTGART AR;AR;503 EAST 13TH ST;72160
400;ANHEUSER-BUSCH INC;FAIRFIELD CA;CA;3101 BUSCH DRIVE;94534
406;R & S BEVERAGE COMPANY;ADELANTO CA;CA;17500 ADELANTO RD;92301
410;(NA) CORE-MARK HAYWARD;HAYWARD CA;CA;31300 MEDALLION DRIVE;94544
411;(NA) CORE-MARK SACRAMENTO;WEST SACRAMENTO CA;CA;3030 MULVANY PLACE;95691
413;(NA) CORE-MARK LOS ANGELES;LOS ANGELES CA;CA;2311 EAST 48TH STREET;90058
414;(NA) CORE-MARK BAKERSFIELD;BAKERSFIELD CA;CA;200 CORE-MARK COURT;93307
415;VALLEY BEVERAGE DISTRIBUTORS;BLYTHE CA;CA;390 N EUCALYPTUS AVE;92225
416;PARALLEL PRODUCTS;RANCHO CUCAMONGA CA;CA;12281 ARROW RTE.;91739
417;(NA) CORE-MARK CORONA;CORONA CA;CA;353 MEYER CIRCLE;92879
418;(HB) DOT FOODS, INC.;MODESTO CA;CA;2200 NICKERSON DR;95358
419;MASTER ENVIRONMENTAL;RANCHO CUCAMONGA CA;CA;9357 RICHMOND PLACE;91730
420;(NA) NEXCOM CHINO;CHINO CA;CA;4250 EUCALYPTUS AVE;91710
422;(NA) WALMART.COM CA;CHINO CA;CA;6750 KIMBALL AVE;91708
434;HEIMARK DIST CO INC;INDIO CA;CA;82851 AVENUE 45;92201
504;WESTERN BEVERAGE DIST. CO.;DENVER CO;CO;4545 51ST AVENUE;80217
506;A & L COORS INC.;DURANGO CO;CO;131 ROCK POINT DR.;81302
508;COLORADO BEVERAGE DIST. INC.;GRAND JUNCTION CO;CO;2557 RIVER RD;81501
510;GEO RUTKEY INC.;LEADVILLE CO;CO;418 FRONT STREET;80461
512;PIONEER DISTRIBUTING;STERLING CO;CO;15611 TANYA STREET;80751
515;COLORADO EAGLE LLC;DURANGO CO;CO;796 SAWMILL ROAD;81301
530;(NA) CORE-MARK DENVER;AURORA CO;CO;3797 N. WINDSOR DRIVE;80011
602;HARTFORD DISTRIBUTORS, INC.;SOUTH WINDSOR CT;CT;140 NUTMEG RD S;06074
603;(NA) UNFI EAST DAYVILLE;DAYVILLE CT;CT;260 LAKE ROAD;06241
604;THE A GALLO CO OF LITCHFIELD;LITCHFIELD CT;CT;85 THOMASTON RD;06759
605;(NA) WALGREENS-DAYVILLE;DAYVILLE CT;CT;500 FORBES RD;06241
606;STAR DISTRIBUTORS, INC.;WEST HAVEN CT;CT;10 EDER ROAD;06516
608;F&F DISTRIBUTORS, INC.;NEW LONDON CT;CT;31 EASTERN AVENUE;06320
610;ROGO DISTRIBUTORS;EAST HARTFORD CT;CT;65 ROBERTS STREET;06108
612;G&G BEVERAGE DIST INC;YALESVILLE CT;CT;207 CHURCH STREET;06492
616;CONNECTICUT BEVERAGE CO.;ORANGE CT;CT;32 ROBINSON BLVD;06477
618;NORTHEAST BEVERAGE CORP OF CT;ORANGE CT;CT;32 ROBINSON BLVD.;06477
620;A. GALLO & COMPANY;LITCHFIELD CT;CT;85 THOMASTON ROAD;06759
621;CRAFT BEER GUILD DISTR OF CT;NORTH HAVEN CT;CT;352 SACKETT POINT ROAD;06473
624;CONNECTICUT DISTRIBUTORS INC;STRATFORD CT;CT;333 LORDSHIP BLVD;06615
903;(NA) UNFI EAST SARASOTA;SARASOTA FL;FL;6272 MCINTOSH ROAD;34238
905;MARGARITAVILLE - PANAMA CITY;ORLANDO FLORIDA;FL;7272 KINGSPOINTE PARKWAY #650;32819
907;MARGARITAVILLE - ORLANDO;ORLANDO FLORIDA;FL;7272 KINGSPOINTE PARKWAY #650;32819
909;MARGARITAVILLE - MYRTLE BEACH;ORLANDO FLORIDA;FL;7272 KINGSPOINTE PARKWAY #650;32819
911;MARGARITAVILLE - MOHEGAN SUN;ORLANDO FLORIDA;FL;7272 KINGSPOINTE PARKWAY #650;32819
918;CHAMPION BRANDS, INC.;JACKSONVILLE FL;FL;5571 FLORIDA MINING BLVD S;32257
920;GOLD COAST BEVERAGE;LAKE WORTH FL;FL;201 S. EAST COAST ST.;33460
922;GOLD COAST BEV. DORAL;DORAL FL;FL;10055 NW 12TH STREET;33172
924;CONE DISTRIBUTING INC.;OCALA FL;FL;500 NW 27TH AVENUE;34475
926;SCHENCK COMPANY BEVERAGE;ORLANDO FL;FL;3964 SHADER RD;32808
928;S.R. PERROTT DISTRIBUTORS;ORMOND BEACH FL;FL;4 N. PERROTT DRIVE;32174
930;GOLDRING GULF DISTRIBUTING;MILTON FL;FL;8245 OPPORTUNITY DR;32583
931;N NECTARS C/O TROPICAL SHIPPIN;MEDLEY FL;FL;9505 NW 108TH AVE;33178
932;GOLD COAST BEV. POMPANO;POMPANO BEACH FL;FL;1751 NW 12TH AVE;33069
934;J. J. TAYLOR DIST. TAMPA BAY;TAMPA FL;FL;5102 SOUTH 16TH AVENUE;33619
940;CONE DISTRIBUTING;TALLAHASSEE FL;FL;3214 W THARPE ST;32303
942;WILLIAM THIES & SONS;FORT PIERCE FL;FL;5020 GLADES ROAD;34981
944;REPUBLIC NAT DIST CO DEERFIELD;DEERFIELD BEACH F;FL;441 SW 12TH AVENUE;33442
948;REPUBLIC NAT DIST CO JCKSNVLLE;JACKSONVILLE FL;FL;9423 NORTH MAIN STREET;32218
950;(NA) CORE-MARK TAMPA;TAMPA FL;FL;9020 KING PALM DRIVE;33619
951;(NA) WALMART.COM FL;DAVENPORT FL;FL;5100 NORTH RIDGE TRAIL;33897
952;GOLD COAST BEV. MIAMI;HOMESTEAD FL;FL;1000 PARK OF COMMERCE BLVD;33035
954;REPUBLIC NAT DIST CO TAMPA;TAMPA FL;FL;4901 SAVARESE CIRCLE N.;33634
958;SCHENCK COMPANY BEVERAGE;ROCKLEDGE FL;FL;5440 SCHENCK AVENUE;32955
962;GOLD COAST BEV.-HOMESTEAD;HOMESTEAD FL;FL;1000 PARK OF COMMERCE BLVD;33035
995;EAGLE BRANDS SALES (DRAUGHT);MIAMI FL;FL;3400 NW 74TH AVE;33122
996;EAGLE BRANDS SALES;HOMESTEAD FL;FL;1000 PARK OF COMMERCE BLVD;33035
1002;(NA) UNFI EAST ATLANTA;ATLANTA GA;GA;100 LAKEVIEW COURT SW;30336
1004;(NA) KEHE DOUGLASVILLE;DOUGLASVILLE GA;GA;1851 RIVERSIDE PKWY;30135
1005;(NA) WALMART.COM GA;ATLANTA GA;GA;6055 SOUTH FULTON PKWY;30349
1015;B & B BEVERAGE CO;COLUMBUS GA;GA;6401 W HAMILTON PARK DR;31909
1018;UNITED DISTRIBUTORS INC;ALBANY GA;GA;1105 ALBANY CT;31707
1020;GEORGIA CROWN DISTRIBUTING C;COLUMBUS GA;GA;7 CROWN CIRCLE;31907
1022;JACKSON BEVERAGE;GRIFFIN GA;GA;915 SOUTH PINE HILL ROAD;30224
1024;UNITED DISTRIBUTORS, INC.;MACON GA;GA;206 7TH ST;31201
1026;NORTHEAST SALES DISTRIBUTING;NORCROSS GA;GA;1400 BEAVER RUIN ROAD;30093
1028;NORTH GEORGIA DIST CO LLC;ROME GA;GA;3 VILLA DR NW;30165
1030;GEORGIA CROWN DISTRIBUTING CO;MC DONOUGH GA;GA;100 GEORGIA CROWN DR;30253
1032;UNITED DISTRIBUTORS, INC.;SAVANNAH GA;GA;770 KING GEORGE BLVD.;31419
1034;UNITED DISTRIBUTORS, INC.;SMYRNA GA;GA;5500 UNITED DR SE;30082
1036;NORTHEAST SALES DISTRIBUTING;WINDER GA;GA;840 RONALD WOOD ROAD;30680
1038;BEVERAGE SOUTH INC;AUGUSTA GA;GA;1815 WILKINSON RD;30904
1040;TRIANGLE WHOLESALERS INC;MIDLAND GA;GA;7000 JAMESSON ROAD;31820
1042;GENERAL WHOLESALE COMPANY;ATLANTA GA;GA;615 STONEHILL DRIVE;30336
1044;GENERAL WHOLESALE COMPANY;AUGUSTA GA;GA;813 FIFTH STREET;30901
1046;BETTER BRANDS OF SOUTH GEORGI;ALBANY GA;GA;1116 SEMINOLE LN;31707
1048;FLINT BEVERAGE;ALBANY GA;GA;1021 WORTH STREET;31705
1050;MID-GEORGIA SALES COMPANY;MACON GA;GA;4100 SAN CARLOS DRIVE;31206
1054;MACON BEVERAGE COMPANY;MACON GA;GA;4375 SAN CARLOS DRIVE;31206
1060;(NA) CORE-MARK ATLANTA;SMYRNA GA;GA;4820 N CHURCH LANE;30080
1102;ODOM NORTHWEST BEVERAGES CO;COEUR D ALENE ID;ID;3858 N SCHREIBER WAY;83815
1104;HAYDEN BEVERAGE;BOISE ID;ID;1445 COMMERCE;83705
1108;ODOM NORTHWEST BEVERAGES CO;LEWISTON ID;ID;3010 MAIN ST;83501
1112;GRAYSON BEVERAGE;POCATELLO ID;ID;3034 GARRETT WAY;83201
1116;GOLDEN EAGLE SALES;IDAHO FALLS ID;ID;5478 S. HEYREND DRIVE;83402
1118;SPIRIT DIST.;BOISE ID;ID;5656 MORRIS HILL ROAD;83706
1120;BILL JONES DISTRIBUTORS, INC.;SAGLE ID;ID;61 BOTTLE BAY ROAD;83860
1211;R.J. DISTRIBUTING CO INC;EAST PEORIA IL;IL;410 HIGH POINT LANE;61611
1213;(NA) KEHE FOOD;ROMEOVILLE IL;IL;900 NORTH SCHMIDT RD;60446
1214;CHICAGO BEVERAGE SYSTEMS, LLC;CHICAGO IL;IL;441 N. KILBOURN AVE.;60624
1218;KOERNER DISTRIBUTING, INC.;CARTERVILLE IL;IL;10074 SAMUEL ROAD;62918
1222;EUCLID BEVERAGE, LTD;GALESBURG IL;IL;1201 ENTERPRISE AVENUE;61401
1224;VESCI INC.;GRANITE CITY IL;IL;3469 HIGHWAY 111;62040
1226;BLUE RIBBON PRODUCTS CO.;JOLIET IL;IL;2410 MCDONOUGH ST;60436
1228;LOUIS GLUNZ BEER, INC.;LINCOLNWOOD IL;IL;7100 NORTH CAPITOL DRIVE;60712
1230;BURKE BEVERAGE INC.;MCCOOK IL;IL;4900 S. VERNON AVE;60525
1232;EUCLID BEVERAGE, LTD;NORTH AURORA IL;IL;200 OVERLAND DR;60542
1238;ACM DISTRIBUTING CO., INC.;STREATOR IL;IL;406 IOWA AVE;61364
1240;SCHAMBERGER BROS. INC.;VILLA PARK IL;IL;101 E. HILL STREET;60181
1242;SKOKIE VALLEY BEVERAGE CO.;WHEELING IL;IL;199 SHEPARD AVENUE;60090
1244;HAYES BEER DISTRIBUTING CO.;ALSIP IL;IL;12160 S CENTRAL AVENUE;60803
1246;ROBERT CHICK FRITZ INC;BELLEVILLE IL;IL;2351 MASCOUTAH AVE;62220
1248;L & V DISTRIBUTING;CRYSTAL LAKE IL;IL;8108 PYOTT RD.;60039
1250;ELGIN BEV. CO.;ELGIN IL;IL;1685 FLEETWOOD DR.;60123
1252;MATTHEWS DISTRIBUTING CO INC;FREEPORT IL;IL;1750 S. WALNUT AVENUE;61032
1256;FRED LOSCH BEVERAGE CO;LAKE VILLA IL;IL;436 PARK AVE;60046
1258;KLOSS DISTRIBUTING CO., INC.;GURNEE IL;IL;1333 NORTHWESTERN AVE;60031
1262;(HB) DOT FOODS, INC.;MT. STERLING IL;IL;1 DOT WAY;62353
1263;(NA) SAFEWAY INC;GURNEE IL;IL;3818 GRANDVILLE AVE;60031
1264;BAUMGARTEN DISTRIBUTING CO.IN;PEORIA IL;IL;1618 W DETWEILLER DRIVE;61615
1265;(NA)COSTCO DIST CENTER MIDWEST;MORRIS IL;IL;3800 N DIVISION ST;60450
1266;MISSISSIPPI BELLE DIST. CO.;QUINCY IL;IL;2724 NORTH 30TH ST;62305
1268;EUCLID BEVERAGE, LTD;PERU IL;IL;20 UNYTITE DR;61354
1270;CENTRAL BEVERAGE;BROADVIEW IL;IL;2601 SOUTH 25TH AVENUE;60155
1272;SPECIALTY IMPORTS;PEORIA IL;IL;725 S W WASHINGTON ST;61601
1304;MONARCH BEVERAGE COMPANY;INDIANAPOLIS IN;IN;9347 EAST PENDLETON PIKE;46236
1306;(NA) UNFI EAST GREENWOOD;GREENWOOD IN;IN;655 COMMERCE PKWY EAST DR;46143
1307;(NA) KEHE BLOOMINGTON;BLOOMINGTON IN;IN;225 DANIEL'S WAY;47404
1309;(NA) WALMART.COM IN;PLAINFIELD IN;IN;9590 ALL POINTS PARKWAY;46168
1318;ORANGE COUNTY BEVERAGE CO INC;FRENCH LICK IN;IN;7980 WEST HUNTER'S RUN DR;47432
1322;KNOX COUNTY BEVERAGE CO.;VINCENNES IN;IN;2409 CHESTNUT STREET;47591
1324;ALLIED BEVERAGE COMPANY INC;HAUBSTADT IN;IN;17111 BIG CYNTHIANA RD;47639
1328;CAVALIER DISTRIBUTING;INDIANAPOLIS IN;IN;1650 WALES AVE;46218
1330;(NA) PEYTON NORTHERN DIST.;BLUFFTON IN;IN;1111 S ADAMS STREET;46714
1368;L C NADORFF & SON INC;NEW ALBANY IN;IN;206 BUSCH PL;47150
1402;(NA) UNFI EAST IOWA CITY;IOWA CITY IA;IA;2340 HEINZ ROAD;52240
1404;KABRICK DIST CO OF BRITT INC;BRITT IA;IA;212 5TH ST NW;50423
1410;FLECK SALES COMPANY;WEST BURLINGTON IA;IA;2204 WEST MOUNT PLEASANT ST;52655
1414;FLECK SALES COMPANY;CEDAR RAPIDS IA;IA;11125 HIGHLIFE COURT SW;52404
1416;IOWA BEVERAGE SYSTEMS, INC.;DES MOINES IA;IA;2115 NE 58TH AVENUE;50313
1418;FLECK SALES;ELDRIDGE IA;IA;1181 EAST FRANKLIN STREET;52748
1420;UNITED BEVERAGE;MASON CITY IA;IA;1603 SOUTH PIERCE AVENUE;50401
1428;GLAZER'S DISTRIBUTORS OF IOWA;SIOUX CITY IA;IA;2505 MURRAY STREET;51111
1430;UNITED BEVERAGE INC.;WATERLOO IA;IA;2604 WEST AIRLINE HIGHWAY;50703
1434;FORT DODGE DISTRIBUTING;MARSHALLTOWN IA;IA;1006 SOUTH 14TH AVENUE;50158
1436;H & F DISTRIBUTING;MARSHALLTOWN IA;IA;1006 S 14TH AVE;50158
1438;BLUFF'S BEVERAGE COMPANY;COUNCIL BLUFFS IA;IA;1410 5TH AVE;51501
1440;MATTHEWS DISTRIBUTING COMPANY;DUBUQUE IA;IA;2459 KERPER BOULEVARD;52001
1442;JOHNSON BROTHERS BEVERAGE;SPENCER IA;IA;3404 W MILWAUKEE ST.;51301
1446;GLAZER'S MIDWEST;URBANDALE IA;IA;4377 NW 112TH STREET;50322
1461;KABRICK DIST CO MASON CITY INC;MASON CITY IA;IA;1809 S BENJAMIN AVE;50401
1502;STANDARD BEVERAGE CORPORATION;WICHITA KS;KS;2526 E 36TH STREET N CIRCLE;67219
1506;STANDARD BEVERAGE CORPORATION;LENEXA KS;KS;14415 W 106TH STREET;66215
1563;FLINT HILLS BEV LLC (OSAGE);OSAGE CITY KS;KS;132 WEST MARKET ST;66523
1577;SENECA WHOLESALE CO INC;SENECA KS;KS;36 SOUTH 8TH STREET;66538
1583;STRATHMAN SALES CO INC;TOPEKA KS;KS;4235 SW BURLINGAME RD;66609
1602;PDI OF ASHLAND, INC.;ASHLAND KY;KY;2747 GREENUP AVE;41101
1603;SMITH BROTHERS DISTRIBUTING CO;BARDSTOWN KY;KY;1207 N 3RD ST;40004
1605;SMITH BROTHERS DISTRIBUTING CO;BOWLING GREEN KY;KY;930 SEARCY WAY;42103
1610;(NA) CORE-MARK KENTUCKY;LEITCHFIELD KY;KY;1055 SALT RIVER ROAD;42754
1616;PARALLEL PRODUCTS;LOUISVILLE KY;KY;1620 BERNHIME LANE;40210
1638;BLUEGRASS BEVERAGE LLC;HOPKINSVILLE KY;KY;307 SEQUOYA ST;42240
1662;CLARK DISTRIBUTING COMPANY;BARDSTOWN KY;KY;401 GLENWOOD DRIVE;40004
1664;CLARK DISTRIBUTING COMPANY INC;VERSAILLES KY;KY;104 FIELDVIEW DR;40383
1718;CRESCENT CROWN DISTRBUTING LLC;NEW ORLEANS LA;LA;5900 ALMONASTER AVENUE;70126
1720;GLAZER'S DISTRS OF LOUISIANA;SAINT ROSE LA;LA;111 RIVERBEND DR;70087
1802;PINE STATE BEVERAGE COMPANY;GARDINER ME;ME;100 ENTERPRISE AVENUE;04345
1804;CENTRAL DISTRIBUTORS, INC.;LEWISTON ME;ME;15 FOSS RD;04240
1806;AROOSTOOK BEVERAGE COMPANY;PRESQUE ISLE ME;ME;52 RICE STREET;04769
1808;NAPPI DISTRIBUTORS;PORTLAND ME;ME;235 PRESUMPSCOT STREET;04103
1811;CRAFT BEER GUILD DIST OF ME;WESTBROOK ME;ME;15 SAUNDERS WAY, UNIT 300;04092
1906;BOND DISTRIBUTING COMPANY;BALTIMORE MD;MD;1220 BERNARD DRIVE;21223
1907;(HB) DOT FOODS, INC.;WILLIAMSPORT MD;MD;16301 ELLIOTT PARKWAY;21795
2004;A&E DISTRIBUTORS, INC.;STERLING MA;MA;13 CHOCKSETT ROAD;01564
2006;MERRIMACK VALLEY DIST.CO.,INC;DANVERS MA;MA;50 PRINCE ST;01923
2008;BURKE DISTRIBUTING CORP.;RANDOLPH MA;MA;89 TEED DRIVE;02368
2009;UNITED LIQUORS LLC;BRAINTREE MA;MA;175 CAMPANELLI DR;02185
2010;COMMERCIAL DIST. CO., INC.;WESTFIELD MA;MA;46 S BROAD ST;01085
2012;ATLAS DISTRIBUTING INC.;AUBURN MA;MA;44 SOUTHBRIDGE ST.;01501
2030;(NA) CORE-MARK NEW ENGLAND;WHITINSVILLE MA;MA;355 MAIN STREET;01588
2102;TRI-COUNTY BEVERAGE;DEARBORN MI;MI;14301 PROSPECT;48126
2104;ALLIANCE BEVERAGE COMPANY;ST JOSEPH MI;MI;200 HAWTHORNE AVE;49085
2106;JOHNSON DISTRIBUTING COMPANY;ESCANABA MI;MI;1710 NORTH 28TH STREET;49829
2108;OAK DISTRIBUTING COMPANY INC;FLINT MI;MI;538 KELSO STREET;48506
2114;ANDERSON DISTRIBUTING COMPANY;JACKSON MI;MI;144 WEST PORTER STREET;49202
2116;SILVER FOAM DIST COMPANY INC;JACKSON MI;MI;3200 COOPER ROAD;49201
2118;IMPERIAL BEVERAGE COMPANY;KALAMAZOO MI;MI;3825 EMERALD DRIVE;49001
2120;HENRY A FOX SALES COMPANY;KENTWOOD MI;MI;4494 36TH STREET SE;49512
2122;MCCABE DISTRIBUTING COMPANY;LAURIUM MI;MI;110 KEARSARGE ST;49913
2124;KENT BEVERAGE COMPANY;LUDINGTON MI;MI;950 EAST MELENDY STREET;49431
2126;JOZAITIS DISTRIBUTING COMPANY;MENOMINEE MI;MI;426 THIRD STREET;49858
2128;CUSTER BEER COMPANY;MONROE MI;MI;1065 NORTH TELEGRAPH ROAD;48162
2130;LAKESIDE BEVERAGE;SAINT CLAIR MI;MI;5407 GRATIOT AVE;48079
2132;TRI-COUNTY BEVERAGE;WARREN MI;MI;2651 EAST TEN MILE ROAD;48091
2136;ALLIANCE BEVERAGE COMPANY;GRAND RAPIDS MI;MI;4490 60TH STREET SE;49512
2138;O&W INC.;YPSILANTI MI;MI;3003 WILLIAM AVE.;48198
2140;MODERN BEVERAGE CO., INC.;HOLLAND MI;MI;400 CENTER ST;49423
2142;DAN HENRY DIST.;LANSING MI;MI;5500 AURELIUS RD;48911
2144;KENT BEVERAGE COMPANY INC.;MANISTEE MI;MI;1355 PINE CREEK ROAD;49660
2146;CHIPPEWA BEVERAGE CO;MT PLEASANT MI;MI;210 W PICKARD ST;48858
2148;BAYSIDE BEVERAGE CORP.;PETOSKEY MI;MI;5692 US 131 SOUTH;49770
2150;GERRY'S DISTRIBUTING CO.;PORT HURON MI;MI;2021 16TH ST;48060
2152;WICKSALL DIST. INC.;TRAVERSE CITY MI;MI;2325 SYBRANT RD;49684
2154;ARBOR BEVERAGE COMPANY;ANN ARBOR MI;MI;265 PARKLAND PLAZA;48103
2156;NATE WINE INC.;DOWAGIAC MI;MI;56902 WOODHOUSE STREET;49047
2158;B & B BEER DISTRIBUTOR CO.;GRAND RAPIDS MI;MI;505 BALL AVE NE;49503
2160;POWERS DIST. CO.;ORION MI;MI;3700 GIDDINGS RD;48359
2162;PAW PAW WINE DIST.;KALAMAZOO MI;MI;2400 RAVINE ROAD;49004
2164;FABIANO BROTHERS;BAY CITY MI;MI;1885 BEVANDA CT.;48706
2166;RAVE & ASSOCIATES;ANN ARBOR MI;MI;260 METTY DRIVE;48013
2168;WARD BEVERAGE;MARQUETTE MI;MI;1915 ENTERPRISE STREET;49855
2170;CLASSIC WINES;LANSING MI;MI;3503 W ST JOSEPH;48917
2172;DRAVES DIST CO;BAD AXE MI;MI;630 E WOODWORTH;48413
2204;STARKOVICH DISTRIBUTING;VIRGINIA MN;MN;119 S 14TH AVE;55792
2206;ROHLFING OF BRAINERD, INC.;BRAINERD MN;MN;923 WRIGHT STREET;56401
2208;ROHLFING OF DULUTH, INC.;DULUTH MN;MN;1 SOUTH 24TH AVENUE WEST;55806
2210;DAHLHEIMER DISTRIBUTING COMP;MONTICELLO MN;MN;3360 CHELSEA ROAD WEST;55362
2214;MCKINNON COMPANY INC;GRAND FORKS ND;MN;1002 SOUTH 48TH STREET;58201
2217;DOLL DISTRIBUTING LLC;WORTHINGTON MN;MN;500 INDUSTRIAL LN;56187
2222;BREAKTHRU BEVERAGE;SAINT PAUL MN;MN;475 PRIOR AVE N;55104
2224;REPLENISHMENT SOLUTIONS LLC;SAINT CLOUD MN;MN;4610 RUSAN ST N;56303
2228;BEVERAGE WHOLESALERS INC;MARSHALL MN;MN;610 ERIE RD;56258
2232;BERGSETH BROS CO INC;FARGO ND;MN;1211 47TH STREET NORTH;58102
2234;BETTER BRANDS, INC.;DULUTH MN;MN;4305 AIRPARK BLVD.;55811
2236;DAY DISTRIBUTING COMPANY;MAPLE PLAIN MN;MN;5901 HWY 12;55359
2238;NEEDHAM DIST. CO.;STILLWATER MN;MN;6080 LAKE ELMO AVE. N;55082
2240;CHAS. A. BERNICK, INC;WAITE PARK MN;MN;801 SUNDIAL DRIVE;56387
2248;MAHNICH DISTRIBUTING CO. INC.;EVELETH MN;MN;P.O. BOX 709;55734
2316;MITCHELL DELTA DISTRIBUTING;SHANNON MS;MS;227 CDF BOULEVARD;38868
2317;MITCHELL DISTRIBUTING-TUPELO;SHANNON MS;MS;227 CDF BOULEVARD;38868
2320;F&F DISTRIBUTING;BILOXI MS;MS;211 MAGNOLIA STREET;39530
2322;HAWKINS DISTRIBUTING COMPANY;GREENVILLE MS;MS;1101 S BROADWAY ST;38701
2324;MARASCALCO DISTRIBUTING CO;GREENWOOD MS;MS;720 HIGHWAY 82 WEST;38930
2326;CLARK BEVERAGE GROUP;SOUTHAVEN MS;MS;5645 PEPPER CHASE DR;38671
2328;CAPITAL CITY BEVERAGE;JACKSON MS;MS;920 WEST COUNTYLINE ROAD;39213
2330;MAGNOLIA BEVERAGE COMPANY;MERIDIAN MS;MS;2668 SAINT ANDREWS STREET;39301
2332;BLUFF CITY DISTRIBUTORS;NATCHEZ MS;MS;101 PASSBACH STREET;39120
2334;CLARK BEVERAGE GROUP;STARKVILLE MS;MS;110 MILEY DRIVE;39759
2336;BETTER BRANDS DISTRIBUTING CO;WEST POINT MS;MS;919 INDUSTRIAL ACCESS RD;39773
2338;STOKES DISTRIBUTING;HATTIESBURG MS;MS;12 STOKES DRIVE;39401
2346;F.E.B. DISTRIBUTING CO.;GULFPORT MS;MS;12155 INTRAPLEX PKWY;39503
2416;MAJOR BRANDS, INC;ST LOUIS MO;MO;6701 SOUTHWEST AVENUE;63143
2418;KOHLFELD DISTRIBUTING;JACKSON MO;MO;4691 EAST JACKSON BLVD;63755
2420;NAUSER BEVERAGE CO;COLUMBIA MO;MO;6000 PARIS ROAD;65202
2422;FECHTEL BEV. & SALES, INC.;JEFFERSON CITY MO;MO;425 W. ELM STREET;65101
2424;THE BEER COMPANY - WESTERN DI;JOPLIN MO;MO;2802 S. PRIGMORE;64804
2426;LLOYD DISTRIBUTING CO., INC.;KIRKSVILLE MO;MO;23731 STATE HIGHWAY 11;63501
2428;GRELLNER SALES & SERVICE INC.;ROLLA MO;MO;13210 DILLON OUTER ROAD;65401
2430;HEART OF AMERICA DIST INC;SEDALIA MO;MO;1510 WEST HENRY STREET;65301
2432;PREMIUM BEVERAGE SALES;SPRINGFIELD MO;MO;2855 S AUSTIN;65807
2434;CENTRAL STATES BEVERAGE CO;KANSAS CITY MO;MO;14220 WYANDOTTE;64145
2438;SUMMIT DISTRIBUTING;EARTH CITY MO;MO;3201 RIDER TRL S;63045
2440;GLAZER'S;ST. CHARLES MO;MO;ONE GLAZER WAY;63301
2502;BRIGGS DISTRIBUTING;BILLINGS MT;MT;3545 HESPER RD;59102
2504;MOUNTAIN COUNTRY DISTRIBUTING;BOZEMAN MT;MT;1715 NORTH ROUSE;59715
2506;SUMMIT BEVERAGE;BUTTE MT;MT;1005 SOUTH MONTANA;59701
2508;GLASGOW DISTRIBUTING, INC.;GLASGOW MT;MT;725 RAILROAD ALY;59230
2510;GUSTO DISTRIBUTING;GREAT FALLS MT;MT;501 CRESCENT CIRCLE;59404
2516;FUN BEVERAGE;KALISPELL MT;MT;175 SCHOOL HOUSE LOOP;59901
2518;BLUE ROCK DISTRIBUTING COMPANY;SIDNEY MT;MT;501 9TH AVENUE;59270
2522;BRONKENS DISTRIBUTING;BOZEMAN MT;MT;707 EAST PEACH;59715
2524;MOUNTAIN COUNTRY DISTRIBUTING;HELENA MT;MT;2705 AIRPORT ROAD;59601
2526;SUMMIT BEVERAGE;MISSOULA MT;MT;3305 GREAT NORTHERN WAY;59808
2602;NEBRASKA WINE AND SPIRITS;OMAHA NE;NE;4444 SOUTH 94TH STREET;68127
2604;DIETRICH DISTRIBUTING;ALLIANCE NE;NE;104 LARAMIE;69301
2606;MURPHY DISTRIBUTING;BEATRICE NE;NE;801 DORSEY STREET;68310
2608;PREMIER MIDWEST BEVERAGE CO;OMAHA NE;NE;10367 S 134TH STREET;68138
2610;NEBRASKALAND DISTRIBUTORS;GRAND ISLAND NE;NE;4845 JUERGEN RD;68801
2612;STATE DISTRIBUTING COMPANY;LINCOLN NE;NE;400 WEST INDUSTRIAL LAKE DR;68528
2616;ARROWHEAD DIST. CO.;NORTH PLATTE NE;NE;640 NORTH WILLOW STREET;69101
2618;JOHNSON BROS OF NEBRASKA LLC;OMAHA NE;NE;9320 J STREET;68127
2702;SOUTHERN WINE & SPIRITS;LAS VEGAS NV;NV;8400 SOUTH JONES BLVD.;89139
2704;SOUTHERN WINE & SPIRITS;SPARKS NV;NV;1170 S ROCK BLVD;89502
2706;BREAKTHRU BEVERAGE NEVADA BEER;NORTH LAS VEGAS NV;NV;1849 W CHEYENNE AVE;89032
2707;MARGARITAVILLE - LAS VEGAS;HENDERSON NEVADA;NV;7390 EASTGATE ROAD SUITE 150;89011
2708;NEW WEST DISTRIBUTING INC.;SPARKS NV;NV;325 E NUGGET AVE SUITE 101;89431
2709;MARGARITAVILLE - GLENDALE;HENDERSON NEVADA;NV;7390 EASTGATE ROAD SUITE 15;89011
2711;MARGARITAVILLE - WAIKIKI;HENDERSON NEVADA;NV;7390 EASTGATE ROAD SUITE 15;89011
2712;SIERRA WINE & SPIRITS;SPARKS NV;NV;84 CONEY ISLAND DRIVE;89431
2802;BAYSIDE DISTRIBUTING;BRENTWOOD NH;NH;277 RT. 125;03833
2803;(NA) UNFI EAST CHESTERFIELD;CHESTERFIELD NH;NH;71 STOW DRIVE;03443
2804;AMOKSEAG BEVERAGES LLC;BOW NH;NH;510 HALL STREET;03304
2808;AMOSKEAG DIST.;HOOKSETT NH;NH;4 BROOKSIDE WEST;03106
2813;NEW HAMPSHIRE DISTRIBUTORS INC;CONCORD NH;NH;65 REGIONAL DR;03301
2853;GREAT STATE BEVERAGES INC;HOOKSETT NH;NH;1000 QUALITY DR;03106
2855;REDHOOK-CATAQUA PUBLIC HOUSE;PORTSMOUTH NH;NH;35 CORPORATE DRIVE;03801
2864;CLARKE DISTRIBUTORS INC;KEENE NH;NH;472 WINCHESTER ST;03431
2902;HUB CITY DISTRIBUTING COMPANY;LAWRENCEVILLE NJ;NJ;6 PRINCESS ROAD;08648
2906;WARREN DISTRIBUTORS CO SOUTH;HAMMONTON NJ;NJ;200 S ROUTE 73;08037
2910;PEERLESS BEVERAGE CO LLC;UNION NJ;NJ;1000 FLORAL AVENUE NORTH;07083
2912;SHORE POINT DISTRIBUTING CO.;FREEHOLD NJ;NJ;183 THREE BROOKS RD;07728
2913;(NA) UNFI EAST HOWELL;HOWELL NJ;NJ;433 OAK GLEN ROAD;07731
2914;LA PICIRILLO INC;NEWARK NJ;NJ;10-12 RICHARDS STREET;07105
2915;(NA) RAINFOREST DISTRIBUTION;BAYONNE NJ;NJ;20 PULASKI ST, SUITE A;07002
2916;HUNTERDON BREWING COMPANY;PHILLIPSBURG NJ;NJ;45 HOWARD STREET;08865
3001;PREMIER DISTRIBUTING CO;ALBUQUERQUE NM;NM;4321 YALE BLVD NORTH EAST;87107
3008;ADMIRAL BEVERAGE CORPORATION;ALBUQUERQUE NM;NM;3980 PRINCE ST SE;87105
3010;PREMIER DISTRIBUTING CO;CLOVIS NM;NM;1017 SANTA FE AVE;88101
3012;JOE G. MALOOF & COMPANY;SANTA FE NM;NM;7 PASEO DE RIVER ST;87507
3014;NATIONAL DISTRIBUTING COMPANY;ALBUQUERQUE NM;NM;5920 OFFICE BLVD NE;87109
3023;PREMIER DISTRIBUTING-FARMINGTN;FARMINGTON NM;NM;1200 TROY KING R;87401
3030;(NA) CORE-MARK ALBUQUERQUE;ALBUQUERQUE NM;NM;123 MONTANO RD NW, ST A;87107
3035;PREMIER DISTRIBUTING CO;GALLUP NM;NM;3534 SANOSTEE DR;87301
3044;PREMIER DISTRIBUTING CO;LAS CRUCES NM;NM;380 ALLIANCE DR.;88007
3082;PREMIER DISTRIBUTING CO;SANTA FE NM;NM;2680 SAWMILL RD;87505
3102;DECRESCENTE DISTRIBUTING CO;MECHANICVILLE NY;NY;211 NORTH MAIN STREET;12118
3104;SPIRIT AND SANZONE DIST CO INC;EAST SYRACUSE NY;NY;6495 FLY RD;13057
3107;CRAFT BEER GUILD OF NY, LLC;NEW PALTZ NY;NY;12-14 SOUTH PUTT CORNERS RD;12561
3108;SPIRIT AND SANZONE DIST CO INC;AMSTERDAM NY;NY;7 VERBRASKA AVE;12010
3110;FINGER LAKES BOTTLING CO INC;AUBURN NY;NY;2181 ELLIS DR;13021
3111;MANHATTAN BEER DISTRIBUTORS;BROOKLYN NY;NY;2 ATLANTIC AVE PIER 7;11201
3113;(NA) UNFI EAST HUDSON VALLEY;MONTGOMERY NY;NY;525 NEELYTOWN ROAD;12549
3114;MINCOLLA DISTRIBUTING CORP;BINGHAMTON NY;NY;178 BROAD AVENUE;13904
3116;MANHATTAN BEER DISTRIBUTORS;BRONX NY;NY;400 WALNUT AVENUE;10454
3118;MANHATTAN BEER DISTRIBUTORS;BROOKLYN NY;NY;5700 AVENUE D;11203
3122;MANHATTAN BEER DISTRIBUTORS;SUFFERN NY;NY;20 DUNNIGAN DRIVE;10901
3124;SPIRIT AND SANZONE DIST CO INC;MARCY NY;NY;9396 STATE ROUTE 49;13403
3126;AJ MISSERT, INC.;OGDENSBURG NY;NY;1001 CHAMPLAIN STREET;13669
3130;JOHN G. RYAN, INC.;PINE CITY NY;NY;14 KENT ROAD;14871
3134;WRIGHT WISNER DIST CORP;ROCHESTER NY;NY;3165 BRIGHTON HENRIETTA TOWN L;14623
3136;DOLDO BROTHERS, INC.;WATERTOWN NY;NY;22888 NYS ROUTE 12;13601
3138;MANHATTAN BEER DISTRIBUTORS;WYANDANCH NY;NY;2 WASHINGTON AVENUE;11798
3140;WINDMILL DISTRIBUTING COMPANY;BROOKLYN NY;NY;2 ATLANTIC AVENUE;11201
3142;ARTHUR R GREN CO INC;JAMESTOWN NY;NY;1886 MASON DRIVE;14701
3150;MCCRAITH BEVERAGE INC.;NEW YORK MILLS NY;NY;22 BURRSTONE ROAD;13417
3152;A.L. GEORGE, INC.;LIVERPOOL NY;NY;7655 EDGECOMB DRIVE;13088
3154;C. H. WRIGHT DIST. CORP.;LEROY NY;NY;3 WRIGHT AVENUE;14482
3156;ROCHESTER BEER AND BEVERAGE;ROCHESTER NY;NY;16 MARWAY CIRCLE;14624
3158;HIGH PEAKS DIST LLC;SARANAC LAKE NY;NY;1016 NY STATE ROUTE 3;12983
3160;CERTO BROTHERS DIST CO;WEST SENECA NY;NY;2500 N AMERICA DR;14224
3162;A.L. GEORGE, INC.;BINGHAMTON NY;NY;1 LINK DRIVE;13904
3164;OAK BEVERAGES, INC.;BLAUVELT NY;NY;ONE FLOWER LANE;10913
3166;BOENING BROTHERS, INC.;LINDENHURST NY;NY;1098 ROUTE 109;11757
3168;NORTZ DISTRIBUTING CO.;LOWVILLE NY;NY;5507 WATER STREET;13367
3170;B.E. WRIGHT DISTRIBUTING CORP;WATERLOO NY;NY;2261 MOUND RD;13165
3172;BENTGES DISTRIBUTORS;SILVER CREEK NY;NY;ROUTES 5 & 20;14136
3174;A BEER LOVER'S PARADISE;CANANDAIGUA NY;NY;30 MUAR ST;14424
3176;ALL STAR BEVERAGE INC;YONKERS NY;NY;821 NEPPERHAN AVE;10703
3178;GARAL WHOLESALERS LTD;WEST BABYLON NY;NY;55 KEAN STREET;11704
3180;GASKO & MEYER;LAKE HUNTINGTON NY;NY;6636 ROUTE 52;12752
3182;SKI BEVERAGE;BROOKLYN NY;NY;169 GARDNER AVE;11237
3198;(HB) HARNEY & SONS TEA CORP;MILLERTON NY;NY;5723 ROUTE 22;12546
3202;SKYLAND DISTRIBUTING COMPANY;ASHEVILLE NC;NC;1 OVERLAND INDUSTRIAL BLVD;28806
3206;EMPIRE DIST OF NORTH CAROLINA;CHARLOTTE NC;NC;5417 WYOMING DRIVE;28273
3208;AMERICAN PREMIUM BEVERAGE;COLFAX NC;NC;5241 NATIONAL CENTER DRIVE;27235
3210;HEALY WHOLESALE;FAYETTEVILLE NC;NC;4021 DISTRIBUTION DRIVE;28311
3212;UNITED BEVERAGES OF NC LLC;SALISBURY NC;NC;385 AIRPORT RD;28147
3216;MIMS DISTRIBUTING COMPANY;RALEIGH NC;NC;8605 EBENEZER CHURCH RD;27617
3218;COASTAL BEVERAGE COMPANY;POLLOCKSVILLE NC;NC;160 HUGHES FARM ROAD;28573
3220;COASTAL BEVERAGE COMPANY;FARMVILLE NC;NC;3973 SOUTH FIELDS STREET;27828
3222;COASTAL BEVERAGE COMPANY;WILMINGTON NC;NC;461 CORPORATE DR;28401
3224;COASTAL BEVERAGE COMPANY;ELIZABETH CITY NC;NC;888 FOREST PARK RD;27909
3226;LONG BEVERAGE INC;RALEIGH NC;NC;10500 WORLD TRADE BLVD;27617
3228;BENNETT DISTRIBUTING CO;SALISBURY NC;NC;320 CIRCLE M DRIVE;28147
3230;CUNNINGHAM WHOLESALE CO.;CHARLOTTE NC;NC;901 BERRY HILL ROAD;28208
3232;RUDISILL ENTERPRISES, INC.;GASTONIA NC;NC;2733 E. OZARK AVE.;28054
3236;ONSLOW BEVERAGE COMPANY, INC.;JACKSONVILLE NC;NC;2709 COMMERCE ROAD;28546
3240;ATLANTIC SHORES DISTRIBUTORS;WILMINGTON NC;NC;6707 NETHERLANDS DRIVE;28405
3242;EMPIRE DISTRIBUTORS;ARDEN NC;NC;10 WALDON DR;28704
3244;CAROLINA PREMIUM BEVERAGE;CONCORD NC;NC;151 ODELL SCHOOL ROAD;28027
3246;SAM ZAHRAN & SONS, INC.;FAYETTEVILLE NC;NC;212 RANKIN STREET;28301
3248;I.H. CAFFEY DISTRIBUTING - GS;GREENSBORO NC;NC;8749 WEST MARKET STREET;27409
3252;MUTUAL DISTRIBUTING;RALEIGH NC;NC;2233 CAPITAL BLVD.;27604
3260;(NA) CORE-MARK CAROLINA;SANFORD NC;NC;1144 BROADWAY ROAD;27332
3302;BERGSETH BROS CO INC;FARGO ND;ND;1211 47TH STREET NORTH;58102
3308;JEROME DISTRIBUTING, INC.;BISMARCK ND;ND;3420 MIRIAM AVENUE;58501
3310;SCHWAN WHOLESALE COMPANY, INC;DEVILS LAKE ND;ND;221 3RD ST SE;58301
3312;JEROME DISTRIBUTING, INC.;DICKINSON ND;ND;455 23RD AVE. E.;58601
3314;MCKINNON COMPANY INC.;GRAND FORKS ND;ND;1002 SOUTH 48TH STREET;58201
3324;BEVERAGE WHOLESALERS INC;FARGO ND;ND;701 4TH AVENUE NORTH;58102
3401;COMMENWEALTH, INC. (CBA3);CINCINNATI OH;OH;4637 INTERSTATE DRIVE;45246
3410;(NA) CORE-MARK OHIO;GLENWILLOW OH;OH;30300 EMERALD VALLEY PARKWAY;44139
3413;CLASSIC BRANDS;CHILLICOTHE OH;OH;656 HOSPITAL RD;45601
3420;THE COLUMBUS DIST CO INC;COLUMBUS OH;OH;4949 FREEWAY DRIVE E;43229
3434;HEIDELBERG DIST CO;COLUMBUS OH;OH;3801 PARKWEST DRIVE;43228
3438;HEIDELBERG DISTRIBUTING CO;INDEPENDENCE OH;OH;9101 EAST PLEASANT VALLEY ROAD;44131
3440;GOODMAN BEVERAGE CO INC;LORAIN OH;OH;1930 WEST 19TH STREET;44052
3442;MID-OHIO WINE COMPANY;NORWALK OH;OH;15 EAST WATER STREET;44857
3448;TRI COUNTY WHOLESALE DIST INC;AUSTINTOWN OH;OH;425 VICTORIA RD SUITE A;44515
3450;TRAMONTE DISTRIBUTING CO;AKRON OH;OH;1267 S. MAIN STREET;44301
3453;DELMAR DISTRIBUTING;WALDO OH;OH;6829 WALDO DELAWARE RD;43356
3454;SUPERIOR BEVERAGE GROUP;GLENWILLOW OH;OH;31031 DIAMOND PARKWAY;44139
3461;MATESICH DISTRIBUTING CO;NEWARK OH;OH;1190 E MAIN ST;43055
3464;SOUTHEAST BEVERAGE COMPANY;ATHENS OH;OH;771 W. UNION ST.;45701
3466;SUPERIOR BEVERAGE CO., INC;AUSTINTOWN OH;OH;425 VICTORIA ROAD;44515
3468;KERR WHOLESALE CO., INC;CHILLICOTHE OH;OH;353 DOUGLAS AVE.;45601
3470;HILL DISTRIBUTING CO.;COLUMBUS OH;OH;830 DISTRIBUTION DR;43204
3472;A.B.C. DISTRIBUTING COMPANY;DEFIANCE OH;OH;8431 STATE ROUTE 66 NORTH;43512
3476;FAME BEVERAGE COMPANY;MASSILLON OH;OH;255 WARMINGTON RD SE;44646
3478;SUPERIOR BEVERAGE;MENTOR OH;OH;7333 CORPORATE BLVD.;44060
3480;BOBBY FISHER, INC.;SPRINGFIELD OH;OH;2024 SELMA PIKE;45505
3482;MERCER BEVERAGE COMPANY;SAINT HENRY OH;OH;221 N WALNUT ST;45883
3486;KLEPPERS OF TIFFIN;TIFFIN OH;OH;1045 CALDWELL AVE;44883
3488;METROPOLITAN DIST. CO.;TOLEDO OH;OH;911 NORTH SUMMIT STREET;43604
3490;R L LIPTON DISTRIBUTING;MAPLE HEIGHTS OH;OH;5900 PENNSYLVANIA AVE;44137
3527;RUHL DISTRIBUTING INC;GUTHRIE OK;OK;1923 RUHL DR;73044
3532;QUALITY BEVERAGE COMPANY;TULSA OK;OK;6833 READING PLACE;74115
3555;ANHEUSER-BUSCH SALES OF OK;OKLAHOMA CITY OK;OK;1700 BEECHWOOD AVE;73149
3603;(NA)KEHE TREE OF LIFE PORTLAND;PORTLAND OR;OR;9555 NE ALDERWOOD ROAD;97220
3604;ECHANIS DISTRIBUTING COMPANY;ONTARIO OR;OR;121 SW 19TH AVENUE;97914
3606;GRAYBEAL DISTRIBUTING CO;PENDLETON OR;OR;301 N. WEST 57TH DRIVE;97801
3610;COLUMBIA DISTRIBUTING CO;PORTLAND OR;OR;6840 NORTH CUTTER CIRCLE;97217
3612;P & E DISTRIBUTORS;BAKER CITY OR;OR;1320 7TH STREET;97814
3616;MID COLUMBIA DIST.;HOOD RIVER OR;OR;1110 1/2 PINE STREET;97031
3618;COLUMBIA DIST (MEDFORD);MEDFORD OR;OR;501 AIRPORT ROAD;97504
3622;COLUMBIA DISTRIBUTING (BEND);BEND OR;OR;20735 HIGH DESERT LN;97701
3624;COLUMBIA DIST(SPRINGFIELD);SPRINGFIELD OR;OR;4011 INDUSTRIAL ST;97478
3628;(HB)COGO NORTHWEST DIST LLC;HOOD RIVER OR;OR;3610 CENTRAL VALE DRIVE;97031
3630;(NA) CORE-MARK PORTLAND;PORTLAND OR;OR;13551 S.E. JOHNSON;97222
3666;HODGEN DISTRIBUTING;PENDLETON OR;OR;4340 WESTGATE;97801
3702;(NA) UNFI EAST YORK;YORK PA;PA;225 CROSS FARM LANE;17406
3703;(NA) FRESH FOODS MANUFACTURING;WASHINGTON PA;PA;601 MEADOWLANDS BLVD;15301
3704;(NA) KEHE LEIHIGH VALLEY;BREINIGSVILLE PA;PA;860 NESTLE WAY;18031
3710;(NA) CORE-MARK PENNSYLVANIA 1;WILKES-BARRE PA;PA;100 WEST END ROAD;18703
3711;(NA) WALMART.COM PA;BETHLEHEM PA;PA;3215 COMMERCE CENTER BLVD;18015
3714;4508 CITY LINE BEVERAGES INC;PHILADELPHIA PA;PA;3680 S. GALLOWAY STREET;19148
3722;ERIE BEER CO INC;ERIE PA;PA;1341 LIBERTY ST;16502
3726;BANKO BEVERAGE COMPANY;ALLENTOWN PA;PA;5001 CRACKERSPORT RD;18104
3728;GLENWOOD BEER DISTRIBUTORS;ERIE PA;PA;2177 W GRANVIEW BLVD;16509
3730;W & L SALES COMPANY, INC;HARRISBURG PA;PA;4050 INDUSTRIAL ROAD;17110
3734;DURDACH BROTHERS, INC;PAXINOS PA;PA;MAIN STREET;17860
3736;MULLER INC;PHILADELPHIA PA;PA;2800 GRANT AVENUE;19114
3738;WILSON-MCGINLEY INC.;PITTSBURGH PA;PA;85 36TH STREET;15201
3740;UNITED BEVERAGE OF NEPA, LLC;PITTSTON PA;PA;635 SOUTH MAIN STREET;18640
3742;EAGLE DISTRIBUTING COMPANY;READING PA;PA;850 LAUREL STREET;19602
3746;SHANGY'S;ALLENTOWN PA;PA;6813 RUPPSVILLE ROAD;18106
3764;GOETTLER DISTRIBUTING, INC;BUTLER PA;PA;153 HINDMAN ROAD;16001
3770;GREENSBURG BEV. INC;GREENSBURG PA;PA;1584 ROSEYTOWN ROAD;15601
3776;MORELLI & SONS, INC.;NEW CASTLE PA;PA;1025 S. MILL ST;16101
3778;ORIGLIO BEVERAGE, INC.;PHILADELPHIA PA;PA;3000 MEETING HOUSE ROAD;19154
3780;BANKO DIST CO -PLUMSTEADSVILL;PLUMSTEADVILLE PA;PA;6041-6061 EASTON ROAD;18949
3784;ALL STAR DIST. COMPANY;READING PA;PA;1000 PATRIOT PARKWAY;19612
3786;L.T. VERRASTRO INC.;OLD FORGE PA;PA;700 MOOSIC RD;18518
3790;LOGAN BEVERAGE, INC;TYRONE PA;PA;150 W. 14TH. ST.;16686
3792;CRESCENT BEER DISTRIBUTOR;MOUNT JEWETT PA;PA;3570 ROUTE 219;16740
3794;ALFRED M. LUTHERAN DIST. INC.;WEST MIFFLIN PA;PA;1130 LEBANON ROAD;15122
3796;UNIVERSAL PROJECTS, INC.;WRIGHTSVILLE PA;PA;100 MIFFLIN DRIVE;17368
3798;POTTSVILLE WHOLESALER BEVERAGE;POTTSVILLE PA;PA;WESTWOOD ROAD RR4;17901
3802;C & C DISTRIBUTORS;WEST GREENWICH RI;RI;119 HOPKINS HILL ROAD;02817
3804;HORIZON BEVERAGE;WEST GREENWICH RI;RI;121 HOPKINS HILL ROAD;02817
3808;HORIZON BEVERAGE;CRANSTON RI;RI;45 SHARPE DRIVE;02920
3812;CRAFT BEER GUILD OF RI LLC;CRANSTON RI;RI;20 AVERY ROAD;02910
3902;CAROLINA BEER COMPANY INC;ANDERSON SC;SC;447 EAST SHOCKLEY FERRY ROAD;29624
3903;(NA) UNFI RICHBURG;RICHBURG SC;SC;578B L&C DISTRIBUTION CTR;29729
3904;BEVERAGE SOUTH OF AIKEN LLC;COLUMBIA SC;SC;715 BLUFF ROAD;29201
3906;HENRY J LEE DISTRIBUTORS;SUMMERVILLE SC;SC;315 MARYMEADE DR;29483
3908;YAHNIS COMPANY;COLUMBIA SC;SC;715 BLUFF ROAD;29201
3910;YAHNIS COMPANY;CONWAY SC;SC;1864 HUSTED ROAD;29526
3912;YAHNIS COMPANY;FLORENCE SC;SC;1440 N SCHLITZ;29501
3914;COMER DISTRIBUTING COMPANY;ROCK HILL SC;SC;110 CARMEL RD;29730
3916;GENERAL WHOLESALE CO OF SC INC;SPARTANBURG SC;SC;360 S DANIEL MORGAN AVE;29306
3918;PIEDMONT BEVERAGE;WEST COLUMBIA SC;SC;3150 CHARLESTON HIGHWAY;29172
3920;SOUTHERN WINE & SPIRITS;COLUMBIA SC;SC;7600 RICHARD STREET;29209
3930;GREENCO BEVERAGE CO., INC.;GREENVILLE SC;SC;10 METTS STREET;29609
3934;CAPITAL WINE & BEVERAGE;WEST COLUMBIA SC;SC;3150 CHARLESTON HIGHWAY;29172
3938;HENRY J LEE DISTRIBUTORS;BEAUFORT SC;SC;779 ROBERT SMALLS PARKWAY;29906
4002;FISHER BEVERAGE, INC.;RAPID CITY SD;SD;3636 SEGER DRIVE;57701
4004;DAKOTA BEVERAGE COMPANY;SIOUX FALLS SD;SD;605 SOUTH WAYLAND AVE;57103
4006;FAMOUS BRANDS;SIOUX FALLS SD;SD;1111 SOUTH CLIFF AVENUE;57105
4008;PORTER DISTRIBUTING COMPANY;MITCHELL SD;SD;212 SOUTH LANGDON;57301
4010;JEROME BEVERAGE, INC.;PIERRE SD;SD;620 S. ROOSEVELT AVE;57501
4012;CARLSON DISTRIBUTING CO., INC;SIOUX FALLS SD;SD;101 NORTH HARLEM;57104
4014;WHITLEY CENTRAL DIST.;WINNER SD;SD;721 NORTH MAIN;57580
4020;QUALITY BRANDS OF SOUTH DAKOTA;CHAMBERLAIN SD;SD;100 WEST 249TH STREET;57325
4091;BEAL DISTRIBUTING INC;SIOUX FALLS SD;SD;4815 N NORTHVIEW AVE;57107
4109;TRISTAR BEVERAGE LLC;CLARKSVILLE TN;TN;2059 WILMA RUDOLPH BLVD;37040
4110;TRISTAR BEVERAGE LLC;COOKEVILLE TN;TN;3353-A WILLIAMS ENTERPRISE DR;38506
4120;CHEROKEE DISTRIBUTING CO;CHATTANOOGA TN;TN;1305 BROAD STREET;37402
4122;AJAX DISTRIBUTING COMPANY INC;CLARKSVILLE TN;TN;330 WARFIELD BLVD;37043
4124;SEC ENTERPRISES;COOKEVILLE TN;TN;2128 BURTON BRANCH ROAD;38506
4128;CHEROKEE DISTRIBUTING COMPANY;JOHNSON CITY TN;TN;308 LAFE COX DRIVE;37604
4130;CHEROKEE DISTRIBUTING CO.;KNOXVILLE TN;TN;200 MILLER MAIN CIR;37919
4134;DET DISTRIBUTING COMPANY;NASHVILLE TN;TN;301 GREAT CIRCLE ROAD;37228
4136;RMG INC/MID-SOUTH DISTRIBUTING;TULLAHOMA TN;TN;400 SOUTH ANDERSON STRE;37388
4138;R.S. LIPMAN BROTHERS INC;NASHVILLE TN;TN;412 GREAT CIRCLE ROAD;37228
4140;CLYCE DIST. CO.;JOHNSON CITY TN;TN;206 LAFE COX DRIVE;37604
4142;AS BARBARO;MEMPHIS TN;TN;5020 TUGGLE ROAD;38118
4144;TENNESSEE CROWN DIST;CHATTANOOGA TN;TN;3875 N HAWTHORNE ST;37406
4163;AJAX TURNER CO INC;LA VERGNE TN;TN;4010 CENTREPOINTE WAY;37086
4173;CARDIN DISTRIBUTING CO INC;PULASKI TN;TN;1219 W COLLEGE ST;38478
4193;L & H DISTRIBUTING CO INC;TULLAHOMA TN;TN;1309 N WASHINGTON ST;37388
4202;(NA) UNFI LANCASTER;LANCASTER TX;TX;2100 DANIELDALE ROAD;75134
4203;(NA) KEHE FLOWERMOUND;FLOWER MOUND TX;TX;101 ENTERPRISE DRIVE;75028
4204;(NA) KEHE TEXAS;DALLAS TX;TX;4024 ROCK QUARRY ROAD;75211
4205;(NA) COSTCO DIST CENTER TEXAS;DALLAS TX;TX;3730 MOUNTAIN CREEK PKWY;75236
4206;(NA) WALMART.COM TX;FORT WORTH TX;TX;5300 WESTPORT PARKWAY;76177
4219;DEL PAPA DISTRIBUTING CO INC;ANGLETON TX;TX;1407 E CEDAR ST;77515
4226;MIKESKA DISTRIBUTING CO;TEMPLE TX;TX;1000 WEST ADAMS;76504
4249;L & F DISTRIBUTORS LLC;LAREDO TX;TX;410 CROSSROADS AVE;78045
4250;KEG 1 O'NEAL LLC;FREDERICKSBURG TX;TX;2595 W US HWY 290;78624
4254;KEG 1 O'NEAL LLC;MINERAL WELLS TX;TX;200 SW 5TH ST;76067
4256;WICHITA BEER DISTRIBUTING;WICHITA FALLS TX;TX;5353 KELL BLVD;76310
4258;ANDREWS DISTRIBUTING COMPANY;CORPUS CHRISTI TX;TX;254 JUNIOR BECK DRIVE;78405
4260;GLAZER'S WHOLESALE DRUG CO;SAN ANGELO TX;TX;2030 A LOOP 306;76904
4262;ANDREWS DISTRIBUTING CO.;ALICE TX;TX;36 S JOHNSON ST;78405
4264;GEORGE DISTRIBUTORS INC;AMARILLO TX;TX;501 NORTH ARTHUR;79107
4268;WRIGHT DISTRIBUTING COMPANY;BASTROP TX;TX;509 HIGHWAY 71 WEST;78602
4274;KRISTEN DISTRIBUTING COMPANY;BRYAN TX;TX;8301 NORTH HWY 6;77807
4276;ANDREWS DISTRIBUTING COMPANY;ALLEN TX;TX;1300 ANDREWS PARKWAY;75002
4277;ANDREWS DISTRIBUTING COMPANY;FORT WORTH TX;TX;1701 PHARR STREET;76102
4278;FRIO DISTRIBUTING;DEL RIO TX;TX;3801 E HIGHWAY 90;78840
4279;ANDREWS DISTRIBUTING COMPANY;FORT WORTH TX;TX;500 NORTHEAST LOOP 820;76106
4280;ANDREWS DISTRIBUTING COMPANY;DALLAS TX;TX;2730 IRVING BLVD;75207
4282;FISHER59;DENTON TX;TX;5050 WEST UNIVERSITY DR;76207
4286;PRICE DISTRIBUTING COMPANY;ENNIS TX;TX;1212 SOUTH CLAY;75119
4288;MILLER DIST OF FORT WORTH;FORT WORTH TX;TX;1701 PHARR STREET;76102
4290;DIENST DISTRIBUTING COMPANY;LA MARQUE TX;TX;3001 GULF FREEWAY;77568
4292;FAUST DISTRIBUTING COMPANY;HOUSTON TX;TX;10025 MARKET STREET RD;77029
4294;HDC DISTRIBUTING, LTD;HOUSTON TX;TX;7100 HIGH LIFE DRIVE;77066
4296;SOUTHERN DISTRIBUTING COMPANY;LAREDO TX;TX;220 GUADALUPE;78040
4302;CARLSON DISTRIBUTING COMPANY;WEST VALLEY UT;UT;2449 S 6755 W STE A;84128
4310;(NA) CORE-MARK SALT LAKE CITY;SALT LAKE CITY UT;UT;1635 S 5070 WEST, SUITE B;84104
4402;BAKER DISTRIBUTING CORP-SOUTH;NORTH CLARENDON VT;VT;395 NORTH SHREWSBURY RD;05759
4404;CALMONT BEVERAGE;BARRE VT;VT;308 INDUSTRIAL LANE;05641
4406;BAKER DISTRIBUTING CORP-NORTH;COLCHESTER VT;VT;130 ORION DRIVE;05446
4504;CIRCLE SALES INC.;BLACKSTONE VA;VA;301 NORTH BROWN;23824
4506;LAWRENCE DISTRIBUTING COMPANY;DANVILLE VA;VA;545 OLD MAYFIELD ROAD;24541
4508;VIRGINIA DISTRIBUTING COMPANY;LYNCHBURG VA;VA;3245 FOREST BROOK ROAD;24501
4510;GWYN DISTRIBUTING COMPANY;MARION VA;VA;236 HIGH STREET;24354
4512;TRI-CITIES BEVERAGE CORP.;NEWPORT NEWS VA;VA;612 INDUSTRIAL PARK DRIVE;23608
4514;CARY WHOLESALE INC;NELSONIA VA;VA;15383 LANKFORD HIGHWAY;23414
4518;BLUE RIDGE BEVERAGE CO INC;SALEM VA;VA;4446 BARLEY DRIVE;24153
4526;ASSOCIATED DISTRIBUTORS;CHESAPEAKE VA;VA;401 WOODLAKE DRIVE;23320
4528;KOZAK BEVERAGES INC;PETERSBURG VA;VA;1201 COMMERCE STREET;23803
4532;PREMIUM DIST OF VIRGINIA, LLC;CHANTILLY VA;VA;15001 NORTHRIDGE DRIVE;20151
4534;FREEMAN BEVERAGE COMPANY;FALMOUTH VA;VA;30 BARON PARK ROAD;22405
4536;BLUE RIDGE BEVERAGE INC.;ABINGDON VA;VA;18177 OAK PARK DR;24210
4538;LOVELAND DISTRIBUTING CO.;RICHMOND VA;VA;2290 DABNEY ROAD;23230
4540;DIXIE BEVERAGE COMPANY;WINCHESTER VA;VA;2705 S. PLEASANT VALLEY RO;22601
4542;BLUE RIDGE BEVERAGE;SOUTH BOSTON VA;VA;2525 HOUGHTON AVENUE;24592
4544;BLUE RIDGE BEVERAGE;WAYNESBORO VA;VA;349 SOUTH OAK LANE;22980
4546;CHESBAY DISTRIBUTING COMPANY;CHESAPEAKE VA;VA;3928 COOK BLVD.;23323
4548;RAPPAHANNOCK WHOLESALE CORP;FREDERICKSBURG VA;VA;51 COMMERCE PARKWAY;22406
4550;BLUE RIDGE BEVERAGE COMPANY;LYNCHBURG VA;VA;3245 FOREST BROOK RD;24501
4552;SPECIALTY BEVERAGE, INC.;SANDSTON VA;VA;5401 EUBANK ROAD;23150
4556;VALLEY DISTRIBUTING CORP.;SALEM VA;VA;4488 ELMWOOD LANE;24153
4560;HOP & WINE BEVERAGE LLC;LORTON VA;VA;8390 J TERMINAL ROAD;22079
4562;FREDERICKSBURG DISTRIBUTING CO;FREDERICKSBURG VA;VA;51 COMMERCE PARKWAY;22406
4602;(NA) UNFI AUBURN;AUBURN WA;WA;22 30TH ST NE #102;98002
4603;(NA) UNFI RIDGEFIELD;RIDGEFIELD WA;WA;7909 SOUTH UNION RIDGE PKWY;98642
4609;PIONEER BEVERAGE INC;CLE ELUM WA;WA;111 E RAILROAD ST;98922
4610;(NA) CORE-MARK SPOKANE;SPOKANE VALLEY WA;WA;4007 N INDUSTRIAL PARK 1ST ST;99216
4612;JANSEN DISTRIBUTING CO INC;ELLENSBURG WA;WA;415 NORTH RAILROAD AVENUE;98926
4630;FRIENDLY DISTRIBUTORS, INC.;EVERETT WA;WA;101 EAST MARINE VIEW DRIVE;98201
4632;COLUMBIA DISTRIBUTING;KENT WA;WA;20301 59TH PLACE SOUTH;98032
4642;ALASKA DISTRIBUTORS COMPANY;SEATTLE WA;WA;4201 6TH AVENUE SOUTH;98108
4646;MARINE VIEW BEVERAGE INC.;TUMWATER WA;WA;3166 COUGAR LANE SW;98512
4650;YOUNG'S COLUMBIA OF VANCOUVER;VANCOUVER WA;WA;3006 NE 112TH AVE;98682
4698;KING BEVERAGE INC;UNION GAP WA;WA;94 W VALLEY MALL BLVD;98903
4699;KING BEVERAGE INC;PASCO WA;WA;5515 N INDUSTRIAL WAY;99301
4704;MERCER WHOLESALE COMPANY;BLUEFIELD WV;WV;RT 21-BYPASS GRASSY BRANCH RD;24701
4708;CORLEY DISTRIBUTING COMPANY;MABSCOTT WV;WV;2 WEST WHITESTICK STREET;25871
4710;MARTIN DISTRIBUTING COMPANY;MARTINSBURG WV;WV;528 W RACE ST;25401
4712;ATOMIC DISTRIBUTING COMPANY;HUNTINGTON WV;WV;435 SEVENTH AVENUE;25701
4716;WINE BEV MERCHANTS OF WV INC;WEIRTON WV;WV;3 SPRINGS DR AT COVE HILL ROAD;26062
4718;NORTH CENTRAL DISTRIBUTORS IN;BRIDGEPORT WV;WV;ROUTE 131 NORTH;26330
4722;CAPITOL BEVERAGE COMPANY;CHARLESTON WV;WV;60 PILSNER PLACE;25312
4724;STATE DISTRIBUTING COMPANY;CLARKSBURG WV;WV;ROUTE 58, ANMOORE ROAD;26301
4726;ANDERSON DISTRIBUTORS;LOGAN WV;WV;98 RIVERVIEW AVE, BOX 1088;25601
4732;RALPH'S BEER DISTRIBUTOR, INC;MORGANTOWN WV;WV;724 POWELL AVE;26505
4734;BLUE RIDGE BEVERAGE;MORGANTOWN WV;WV;64 DISTRIBUTOR DR.;26501
4736;RIDGELEY DISTRIBUTORS INC;RIDGELEY WV;WV;RR. 2, BOX 529A;26753
4738;STEEL CITY DISTRIBUTORS, INC.;WEIRTON WV;WV;202 GREENLAWN BLVD.;26062
4740;MCCANN DISTRIBUTING;WHEELING WV;WV;4141 JACOB ST;26003
4807;(NA) UNFI EAST PRESCOTT;NORTH PRESCOTT WI;WI;1101 DEXTER STREET;54021
4809;(NA) UNFI EAST RACINE;STURTEVANT WI;WI;3138 HIGHWAY H;53177
4814;BEER CAPITOL DIST INC.;SUSSEX WI;WI;W222 N5700 MILLER WAY;53089
4818;KAY BEER DISTRIBUTING INC.;DE PERE WI;WI;1881 COMMERCE DRIVE;54115
4820;OSBORN DISTRIBUTING CO.;DELAVAN WI;WI;1700 MOUND ROAD;53115
4824;H & M DISTRIBUTING CO.;MADISON WI;WI;5105 W. CLAYTON RD.;53711
4838;NORTHWEST BEVERAGES, INC.;SUPERIOR WI;WI;1606 NORTH 6TH STREET;54880
4840;GENERAL BEER NORTHWEST, INC.;CHIPPEWA FALLS WI;WI;2200 LAKE VIEW DR;54729
4902;WESTERN DISTRIBUTING COMPANY;CASPER WY;WY;747 E E ST;82601
4908;METZ BEVERAGE COMPANY;SHERIDAN WY;WY;300 NORTH CUSTER STREET;82801
4916;SDK CO., INC.;JACKSON WY;WY;855 W SNOW KING AVE;83001
5103;BILL'S DISTRIBUTING INC.;AUBURN WA;AK;3815 W VALLEY HWY N;98001
5301;AMBROS INC;HAGATNA GUAM;3Z;185 DULCE NOMBRE DE MARIA DR;96910
5304;BETTER BRANDS;WAIPAHU HI;HI;94-501 KAU STREET;96797
5386;ANHEUSER-BUSCH SALES OF HAWAII;KAILUA KONA HI;HI;75-5563 KAUHOLA ST;96740
5387;ANHEUSER-BUSCH SALES OF HAWAII;AIEA HI;HI;99-877 IWAENA ST;96701
5388;ANHEUSER-BUSCH SALES OF HAWAII;KEAAU HI;HI;16-211 WILLIAMA PLACE;96749
5389;ANHEUSER-BUSCH SALES OF HAWAII;KAHULUI MAUI HI;HI;169 KALEPA PL;96732
5390;ANHEUSER-BUSCH SALES OF HAWAII;LIHUE KAUAI HI;HI;2955 WAAPA RD;96766
5392;HONOLULU FREIGHT SERVICES;HONOLULU HI;HI;933A NORTH NIMITZ HWY;96817
5901;PT SARINAH (PERSERO);SINGAPORE 150167;3D;GEDUNG SARINAH LT 10 JL MH;00000
5904;GRAY MACKENZIE AND PARTNERS;ABU DHABI U.A.E.;2E;\N;00000
5907;OMAN UNITED AGENCIES LLC;OMAN;4H;\N;00000
5921;INBEV BELGIUM BVBA/SPRL;ANTWERP BELGIUM;6D;WAREHOUSE POLAND QUAY 718;00000
5929;DIST. METEPEC;METEPEC;8T;BARRIO DEL ESPIRITU SANTO;\N
5949;ALLIED LIQUOR MERCHANTS LTD;E.TAMAKI AUCKLAND, N;3F;CORNER HARRIS RD & TI RAKAU DR;99999
5959;PEGASUS SUPPLY SOLUTIONS;MARRICKVLE AUSTRALIA;4M;71-73 RAILWAY PARADE;00000
5960;SOUTH PACIFIC DISTRIBUTORS INC;TAFUNA AMERICA SOMOA;3A;PO BOX 1344;96799
5963;LCBO;ONTARIO;8X;DURHAM WAREHOUSE;00000
5970;HIROSHI JOHANNES;KOSRAE, FM;3Z;P O BOX 195;96944
5974;DMC ENTERPRISES;MAJURO, MH;3Z;P.O. BOX 1404;96960
5981;BLACK SAND CO.;POHNPEI, FM;3Z;P O BOX 831;96941
5985;DW IMPORTS, LTD;TRUK, FM;3Z;P O BOX 157;96942
5987;ABAMAKORO TRADING LTD;\N;3K;\N;\N
5991;SHIMBROS INT'L INC;KOROR PALAU;3Z;P O BOX 1553;96940
6002;AMBEV COLUMBIA SAS;BUENAVENTURA COLUMBI;9E;DIAMSA CODIGO 18201;\N
6003;ARMY & AIRFORCE EXCH FT BUCHAN;PUERTO RICO;PM;FT BUCHANAN;00000
6005;IMPORT LCBO LONDON WAREHOUSE;LONDON ON N6A4V3;8X;955 WILTON GROVE ROAD;\N
6008;NAVY EXCHANGE;ROOSEVELT RDS PUERTO;PM;201 BEV WHSE BLDG 1790;RICO
6010;US COAST GUARD EXCHANGE;SAN JUAN PR;PM;0;00000
6011;CORPORACION DE SUPERMERCADOS;SAN JOSE COSTA RICA;8P;1.3 KMS E. EMPAQUES SANTA ANA;10901
6013;DIPO S.A.;HEREDIA COSTA RICA;8P;350MTS ESTE DEL HOTEL MARRIOT;40101
6018;SOBRAGA;LIBREVILLE;0P;ZONE INDUSTRIELLE OWENDO;BP487
6019;IVOIRIENNE DE DISTRIBUTION;ABIDJAN IVORY COAST;0U;RUE DE LA GLACIERE - ZONE 3;01304
6020;DIST DE CERV MODELO EN EL NTE;TAMAULIPAS;8T;BLVD TOR MATAMOROS 5200 OTE;27000
6021;LAS CERV MODELO DEL BAJIO;CELAYA;8T;AV MEX-JAPON 100 CD INDUSTRIAL;38010
6022;LAS CERV MODELO DEL EDO MEX;METEPEC;8T;METEPEC-ZACANGO 2 BAR ESP STO;52140
6023;LAS CERV DE MEXICO EN ACAPULCO;ACAPULCO;8T;AV CUAUHTEMOC 196 LA BOCANA;39640
6024;DIST DE TABASCO;VILLAHERMOSA;8T;CARR VILLAHERMOSA-CARD K 5 R/A;86280
6025;LAS CERV MODELO DEL ALTIPLANO;TLAXCALA;8T;TREBOL CAR TLAX TEXMELUCAN-AP;90160
6026;LAS CERV MODELO DEL SURESTE;MERIDA;8T;CALLE 14 #70-1 COL CHUMINOPOLI;97158
6027;LAS CERV MODELO EN VER;VERACRUZ;8T;BLVD INST TEC K 264 NVA MINA N;96734
6028;WISHING STAR COMPANY;TARAWA KIRIBATI;3Z;PO BOX 555;\N
6029;SAG DELICIAS;CHIHUAHUA;8T;CARRETERA FEDERAL CHIHUAHUA;33000
6030;SAG CUAUHTEMOC;CHIHUAHUA;8T;CAR CHIH A LA JUNTA KM 108+400;31500
6031;SAG NUEVO CASAS GRANDES;CHIHUAHUA;8T;CONSTITUCION Y LERDO 2609 CTRO;31700
6032;SAG PARRAL;HIDALGO DEL PARRAL;8T;KM 5 CARR VIA CORTA CHIHUAHUA;31150
6033;SAG CAMARGO PARRAL;CHIHUAHUA;8T;C LIBERTAD 603 CTRO CD CAMARGO;33759
6034;SAG JIMENEZ;CHIHUAHUA;8T;A MARIANO JIMENEZ 2108 C LOPEZ;33980
6035;SAG CUENCAME;DURANGO;8T;CARR ZAC K0+500 C LIB CUENCAME;35800
6036;SAG VICENTE GUERRERO T;DURANGO;8T;CARR DGO ZAC KM 15 VICENTE GRO;34892
6037;SAG SALTILLO;NUEVO LEON;8T;CARR SALTILLO-MTY KM 6.5 APODA;25206
6038;SAG PARRAS;COAHUILA;8T;EVARISTO MADERO S/N PARRAS FTE;27870
6039;SAG SABINAS HIDALGO;NUEVO LEON;8T;CAR NAC 845 C CTRO SABINAS HGO;26748
6040;SAG CHINA;NUEVO LEON;8T;HIDALGO #102 CHINA;67050
6041;SAG MONTEMORELOS;NUEVO LEON;8T;LIBERTAD 437 NTE MONTEMORELOS;65710
6042;SAG ALDAMA;ZACATECAS;8T;CAR FED 49 KM 125 JUAN ALDAMA;89670
6043;SAG SANTIAGO PAPASQUIARO;DURANGO;8T;CAR TEPEHUANES K 5 SANTIAGO;34639
6044;SAG STA MARIA DEL ORO;DURANGO;8T;P 20/30 22 A STA MARIA D ORO;35690
6045;MAGOR BREWERY;WILCRICK GB;2I;NP26 3RA;00000
6046;BAHAMIAN BREWERY & BEVERAGE CO;FREEPORT GRND BAHAMA;8B;QUEENS HWY, PO BOX F-42409;\N
6047;TPW INC;LAREDO TX;8T;834 UNION PACIFIC BLVD;78045
6048;FRONTERA - EL PASO;EL PASO TEXAS;8T;8700 CASTNER DR;79907
6049;FRONTERA - NOGALES;NOGALES AZ;8T;1560-B NORTH INDUSTRIAL PARK;85621
6050;FRONTERA - CALEXICO;CALEXICO CA;8T;1778 ZINETTA ROAD SUITE B1-B2;92231
6051;AB INBEV UK LIMITED;LUTON LU1 3LS UK;2I;500 CAPABILITY GREEN;N
6052;S.A. INBEV BELGIUM N.V.;LEUVEN BELGIUM;6D;BROUWERIJPLEIN 1 B-3000;N
6054;JIMMYS WINES AND SPIRITS 7;NASSAU BAHAMAS;8B;CO MB EXPRESS;\N
6055;LAS CERVEZAS MODELO DEL SURSTE;MERIDA YUCATAN MEXIC;8T;CALLE 12 282 X31 DIAGONAL;97165
6056;COMPANIA CERVECERA DEL TROPICO;TUXTEPEC OA MEXICO;8T;BLVD ANTONINO FERNANDEZ RODRIG;68365
6057;ABI JAPAN KK-E COMMERCE;TOKYO JAPAN;5J;SHIBUYA, SHIBUYA-KU 3-5-7;\N
6058;AB INBEV (SHANGAI) SALES CO;SHANGHAI CHINA;5E;268 MIDDLE XIZANG ROAD;00000
6059;AMBEV SA - LOUVEIRA;LOUVEIRA SAO PAULO;9C;RUA ATILIO BISCUALOA,1831-GL1;\N
6060;F. JOAO PESSOA;JOAO PESSOA PERNAMBU;9C;AV DR. WALTER BELIAN, 2230;00000
6061;F. PONTA GROSSA;PONTA GROSSA PARANA;9C;ROD BR 376,SN-KM 462 SSUL;00000
6062;NEPAL OVERSEAS MKT CO PVT LTD;KATHMANDU NEPAL;5P;VALLEY SHOPPING PLAZA;44600
6063;ARTESANAS DE MALTA Y CEBADA;TIJUANA BAJA CA MEX;8T;BLVDFUNDADORES NO 2951 COL JUA;22040
6064;VICTORIA;TRUGANINA AUSTRALIA;3X;11-17 DISTRIBUTION DRIVE;03029
6065;NEW SOUTH WALES;ROSEHILL AUSTRALIA;3X;5 DEVON STREET;02142
6066;WESTERN AUSTRALIA;WELSHPOOL AUSTRALIA;3X;51-53 KEWDALE ROAD;06159
6067;QUEENSLAND;HEATHWOOD AUSTRALIA;3X;COMER STRADBROKE & MORTEN ST;04006
6073;SABANA SECA MINI MART;NAV STA SABANA SECA;PM;BLDG 146;00635
6075;SOUTH AUSTRALIA;PENFIELD AUSTRALIA;3X;LOT 22, SHORT ROAD;05121
6076;USCG AIR STA BORINQUEN NAFA;AGUADILLA PR;PM;NAFA;00000
6078;NURMINEN LOGISTICS SVCS OY;HELSINK FINLAND;6J;24 SATAMAKAARI;00980
6079;AMBEV COLOMBIA S.A.S;BOGOTA COLUMBIA;9E;CALLE 90 NO 12-28;00000
6080;AMBEV COLUMBIA S.A.S;CARTAGENA COLUMBIA;9E;KM9 VIA MAMONAL BODEGA D-9;00000
6081;OTM LOGISTICA TOTAL;BOGOTA COLUMBIA;9E;20-21 CODIGO 2853`;00000
6082;COL OTM S.A.S;BOGOTA COLUMBIA;9E;20-21 CODIGO 2853;00000
6083;GKE FREIGHT PTE LTD;SINGAPORE SINGAPORE;5S;39 BENOI ROAD #06-01;\N
6084;CERVECERIA Y MALTERIA QUILMES;QUILMES ARGENTINA;9A;AV12 DE OCTUBRE 100 Y GRAN;01878
6086;LH INDO PTE LTD;SINGAPORE SINGAPORE;5S;05-12TOWR 4 67 JALAN BUKIT MER;\N
6087;TURNING POINT BREWERY;DELTA BC;8X;465 FRASERVIEW PLACE;00000
6088;ARTESANAS DE MALTA Y CEBADA;TIJUANA MEXICO;8T;BLVD FUNDADORES NO 2951 COL JU;22040
6089;RC IMPORTS FREE ZONE LTD;BENQUE VIEJO BELIZE;8D;GEORGE PRICE HIGHWAY;00501
6090;CAMDEN TOWN BREWERY;LONDON ENGLAND;7K;55-59 WILKEN STREET MEWS;00000
6091;LUBRITRADE TRADING PTE LTD;SINGAPORE SINGAPORE;5S;408 N BRIDGE RD #04-01;00000
6092;FNC SA;MONTEVIDEO URUGUAY;9O;ENTRE RIOS 1060;11800
6093;RETAIL LOGISTICS LLC;DUBAI UAE;4M;PO BOX 61274;00000
6094;EGYPT AIR TAX FREE SHOPS;CAIRO EGYPT;0M;AIRPORT ROAD SHERATON AL MATAR;11432
6095;SOUTH AFRICAN BREWERIES LTD;SPRINGFIELD PARK SA;1N;227 INANDA ROAD;04051
6096;SOUTH AFRICAN BREWERIES LTD;OTTERY SOUTH AFRICA;1N;16 NEW OTTERY ROAD;07808
6097;LA PAZ, BOLIVIA;LA PAZ BOLIVIA;9B;CHUQUISACA N121 CHALLAPAMPA;00421
6098;BAVARIA & CIA S C A.;BOGOTA COLOMBIA;9E;CRA 19A 82-29 OF 301;\N
6099;DFASS DISTRIBUTION LLC;MIAMI FL;FL;320 N.E. 187TH STREET;33179
6100;UNION DE CERVECERIAS PERUANAS;LIMA PERU;9L;AV. NICOLAS AYLLON 3986;15026
6101;CEDIS SODISA MONTERREY;MONTERREY NL;8T;CARRETERA MONTERREY NUEVO;66613
6102;CEDIS SODISA TIJUANA;P IND EL BAJIO TECAT;8T;CARRETERA TIJUANA-TECATE KM140;21503
6103;BIRRA DEL BORGO;LAZIO ITALY;6P;BORGOROSE RIETI;02021
6104;LAEM CHABANG FREE TRADE ZONE;THAILAND BANGKOK;5X;PROVINCE 20230 THAILAND;20230
6106;CERVECERIA HONDURENA SA DE CV;SAN PEDRO SULA;8S;PROLONGACIN 3RA AVENIDA;00086
6107;LA CONSTANCIA, LTDA. DE C.V.;SAN SALVADOR EL SALV;8Q;AVENIDA INDEPENDENCIA 526;\N
6108;PNL - MAURITIUS;LES PAILLES MAURIT;A1;MICHAEL LEAL AVENUE;00000
6109;TOP BRANDS INTERNATIONAL;COLON PANAMA;8V;BODEGA 6 SECTION D 4 ALTOS;00000
6110;TOP BRANDZ DISTRIBUTORS;EAST COAST DEMERARA;9J;40 GOEDVERWAGTING ROAD;00000
6111;MONTREAL PROD-DC;LASALLE QUEBEC;8X;50 RUE LABATT;00000
6112;AFRICAN & EASTERN LLC OMAN;MUSCAT OMAN;4H;RUWI PC 112 MUSCAT OMAN;00000
6113;BAHRAIN MARITIME & MERCANTILE;SITRA BAHRAIN;4A;12 SHAIKH JABER AL AHMED 828;00000
6114;GULF BEVERAGES FZE C/O GAC LOG;DUBAI UTD ARAB EMIR;4M;JEBEL FREE ZONE NEAR GATE 4;00000
6115;KGA LOGISTIK;KARISKOGA SWEDEN;6Z;VERKSTADSGATAN 1 PORT R;69180
6116;HAUGEN-GRUPPPEN AS DENMARK;HVIDOVRE DENMARK;6H;JERNHOLMEN 49;02650
6117;NEMA INC;DULUTH GA;GA;2750 BRECKINRIDGE BLVD STE 100;30096
6118;UNIVERSAL BEVERAGES PVT LTD;KATHMANDU NEPAL;5P;VALLEY SHOPPING PLAZA;44600
6120;DISTRIBUIDORA LA FLORIDA;HEREDIA COSTA RICA;8P;250 S DE CERVECERIA COST RICA;40803
6122;B FERNANDEZ & HNOS INC;BAYAMON PUERTO RICO;PR;URB IND LUCHETTI 305 RD#5;00961
6123;CC1 BEER DISTRIBUTORS INC;BAYAMON PUERTO RICO;PR;CARR. #174 LOTE 107;00960
6125;CERVECERIA CHILE S.A.;SANTIAGO CHILE;CI;EDUARDO FREI MONTAIVA 9600;00000
6126;DISTRIBUIDORA COMERCIAL GROUP;PANAMA PANAMA;8V;VIA ESPANA LAS SABANAS EDIFICI;00507
6128;SOUTH PACIFIC DISTRIBUTORS LTD;APIA SAMOA;3Q;PO BOX 2288;00000
6129;KING'S ENTERPRISES N.V.;PARAMARIBO SURINAME;9M;HOEK FREDERIK DERBY & GEME 73;12630
6130;AFRICAN & EASTERN;MINA SALMAN BAHRAIN;4A;PO BOX 49 BLDG 165 BLK 343;00000
6131;ARUBA TRADING COMPANY NV;ORANJESTAD ARUBA;9R;WESTSTRAAT 17;00000
6132;OMAR ALI BALSHARAF TRADING EST;RIYADH SAUDI ARABIA;4J;MAIN MALIK FAHAD STREET;11497
6133;LHA FOOD & BEVERAGES PTE LTD;SINGAPORE SINGAPORE;5S;27 UBI CRESCENT #03-00;\N
6134;CERVECERIA CHILE S A;QUILICURA CHILE;CI;AVE PRESDT FREI MONTALVA 9600;00000
6135;CERVECERIA Y MALTERIA QUILMES;QUILMES ARGENTINA;9A;AV12 DE OCTUBRE 100 Y GRAN;01878
6136;KGA LOGISTIK AB;OREBRO SWEDEN;6Z;BISTAGATAN 8-10;70227
6137;S.A. INBEV BELGIUM N.V.;LEUVEN BELGIUM;6D;BROUWERIJPLEIN 1 B-3000;N
6138;INBEV BELGIUM BVBA/SPRL;ANTWERP BELGIUM;6D;WAREHOUSE POLAND QUAY 718;00000
6139;MAGOR BREWERY;WILCRICK GB;2I;NP26 3RA;00000
6140;AB INBEV UK LTD - GWENT;GWENT GB;2I;MAGOR;\N
6141;ACCRA BREWERY LIMITED;ACCRA GHANA;0R;GRAPHIC ROAD-AGBOBLOSHIE;\N
6142;AB INBEV (SHANGHAI) SALES CO;SHANGHAI CHINA;5E;268 MIDDLE XIZANG ROAD;00000
6143;ORIENTIAL BREWERY;SEOUL KOREA;5T;8F,YEONGDONG - DAERO;06164
6144;BAVARIA S.A.;BOGOTA COLOMBIA;9E;CRA 19A 82-29 OF 301;\N
6145;ABI JAPAN KK-E COMMERCE;TOKYO JAPAN;5J;SHIBUYA, SHIBUYA-KU 3-5-7;\N
6146;HORINVEST HOLDING CO LTD;KOWLONG HONG KONG;5H;STE 3009 30/F, TOWER 1;\N
6147;TANZANIA BREWERIES LTD;DAR ES SALAAM,TANZIA;1R;PLOT 79, UHURU STREET, ILALA;\N
6148;MLG WAREHOUSE;LERMA;8T;CALLE S/N 105,B10,LA BOMBA;52000
6149;INBEV BELGIUM NV/SA (PRIME);ANTWERP BELGIUM;6D;WAREHOUSE POLAND QUAY 718;00000
6151;GEODIS (BRISBANE);BRISBANE AUSTRALIA;3X;95 RAUBERS RD NORTHGATE QUEENS;04013
6152;CERVEJAS DE MOCAMBIQUE, SA;MAPUTO MOZAMBIQUE;1N;RUA DO JARDIM;01329
6159;AAA FREIGHT SERVICES LLC;DUBAI;4M;JEBEL ALI FREE ZONE, PO BOX;00000
6163;AB INBEV EFES JSC;KLIN;5U;MOSKOVSKAYA STREET, 28;14160
6164;AMBEV S.A. F. CDR EXTREMA;EXTREMA;9C;ROD FERNAO DIAS S/N KM 947.5 -;37640
6170;INTRODRINK GMBH;DUBENDORF;9Y;ALTE LANDSTRASSE 12;08600
6171;FELIPE MOTTA S.A;PANAMA;MZ;AVENIDA DOMINGO DAZ;\N
6172;BACCHUS WINES AS;VESTBY/NORWAY;6T;TORVUTTAKET 26;N1540
6174;SADA AL LAYL FOR GEN. TRA. LTD;ERBIL/IRAQ;4C;AINKAWA, GAZNA ROAD;\N
6175;SKANLOG OY;TURKU/FINLAND;6J;KARSAMAENTIE 78;20360
6177;AMBEV SA - LOUVEIRA;LOUVEIRA SAO PAULO;9C;RUA ATILIO BISCUALOA,1831-GL1;\N
6178;VICTORIA;TRUGANINA AUSTRALIA;3X;11-17 DISTRIBUTION DRIVE;03029
6180;SOUTH AFRICAN BREWERIES LTD;SANDTON;1N;PO BOX 782178;02146
6181;TRANSMED WAREHOUSE DIP;DUBAI/UTD.ARAB EMIR.;4M;DIP;01604
6182;INDUSTRIAS DEL ATLANTICO S.A.;TECULUTAN ZACAPA GUA;8R;KM 122 RUTA AL ATLANTICO ZONA;00000
6183;FELIPE MOTTA S.A;PANAMA;MZ;AVENIDA DOMINGO DAZ;\N
6184;B&S GLOBAL BONDED PURCHASE B.V;DODRECHT/NETHERLANDS;9Y;RIJKSSTRAATWEG 7 3316 EE;03301
6185;SKANLOG NORWAY;OSLO/NORWAY;6T;ULVENVEIEN 111;N0212
6186;CERVECERIA NACIONAL S.A.;GUAYAQUIL /ECUADOR;9F;KM. 16,5 VA A DAULE;90101
6187;CERVECERIA PARAGUAYA S A;YPANE CENTRAL;9K;RUTA VILLETA KM 30;02660
6188;DAVE STREIFFER CO., INC;HOUSTON TX;4M;5610 ARMOUR DRIVE;77020
6189;MILLETT DUTY FREE;NEW ORLEANS LA;4M;500 NORTH CORTEZ;70119
6191;CARISAM INTERNATIONAL CORP;MIAMI FL;4M;10900 NW 27TH ST;33172
6193;KOLLARAS TRADING COMPANY;ALBION PARK AUSTRALI;3X;9 DURGADIN DRIVE;A527
6196;LOENDERSLOOT;ROOSENDAAL;9Y;KOOLREEF 7;04700
6197;AAA LOGISTICS;DUBAI;9W;JEBEL ALI FREE ZONE;26188
6198;NILE BREWERIES LIMITED;NJERU UGANDA;1U;YUSUF LULE RD;\N
6200;B. FERNANDEZ & HNOS., INC.;BAYAMON;PR;URB. INDUSTRIAL LUCHETTI 305 C;00961
6201;BAHAMIAN BREWERY & BEVERAGE CO;FREEPORT GRND BAHAMA;8B;QUEENS HWY, PO BOX F-42409;00000
6202;WEST INDIES CORP;ST THOMAS U S VIRGIN;8N;12-14 CONTANT ST;00802
6203;WEST INDIES CORP;CHRISTIANSTED ST CRO;8N;PETER'S REST;00820
6204;DIPO S.A.;HEREDIA COSTA RICA;8P;350MTS ESTE DEL HOTEL MARRIOT;40101
6601;26TH ASG RESALE WHSE ATTN IN;APO AE;M1;PATTON BARRACKS BLDG 141;09102
6602;MIL TRAFFIC MGMT CMD EASTERN A;BAYONNE NJ;M1;MTE-ITEL WOODLAND INN;07002
6603;100TH ASB CENT WHSE;APO AE 09114;M1;GRAFENWOEHR UNIT 28130 BLDG244;00000
6701;UDG PUSAN PORT KOREA;MTMC TERMINAL PUSAN;M6;PORT OPERATION PUSAN;96259
6702;AMERICAN EMBASSY SEOUL KOREA;SEOUL KOREA;M6;82 SEJOUNGRO CHOUNGRO-KU;00000
6703;DDRW SAN JOAQUIN SITE;RECEIVING BLDG 330 L;M6;RFC-O-CONUS (OSAN) CENTRAL;95331
6704;3DK MOTBA OFFCR IN CHARGE;OAKLAND CA;M5;NAV MATL TRAN OFC W AREA REP;94626
6705;MWR-SC MWR SUPPORT CENTER;APO AP;M6;ACCOUNTABLE OFF(NAF)UNIT#15183;96258
6706;YOKOTA ENLISTED CLUB;APO AP;M5;BLDG 2066;96328
6707;NAVY EXCH WEST COAST DIST CTR;CHINO CA;M5;#033 MWR4250 EUCALYPTUS AVE;91710
6708;ARMY & AIR FORCE EXCH;MISAWA JAPAN;M5;0;00000
6710;MWR FUND NAF ATSUGI;FPO AP 96306-1220;M5;PSC 477 BOX 20;00000
6711;ADC ATLANTA GEN MERCH;FOREST PARK GA;M6;4700 NORTH 15TH STREET;30297
6902;RDD 176 TP3 HXYAAA AAFES;HX9CHW AAFES HONDURA;MJ;CR4 PUERTOS CORTES;00000
6903;AAFES OAKLAND DIST CTR;OAKLAND ARMY BASE (K;MM;BLDG 803 (TRANSSHIPMENT);94626
6906;JOHNSTON ISLAND;APO AP 96558;ML;RECREATIONAL LOUNGE ACTIVITIES;00000
6907;MARISOURCE(MIDWAY ISL)ATTN T.H;OAKLAND CA;M0;1505 E 14TH STREET;94606
6908;NAVY EXCHANGE;GUANTANAMO BAY CUBA;MC;BLDG 875;00000
6909;WATER FREIGHT DIV BLDG 250;NORFOLK, VA;M8;NAVAL SUPPLY CENTER;23511
6911;NEW WAREHOUSE LOCATION 980;US NAVAL STA PSC 451;M8;NEX BAHRAIN WAREHOUSE;00000
6913;MARINE CORPS EXCHANGE;MARINE CORPS EXCHANG;MC;PO BOX 1834;00000
6916;EURPAC WAREHOUSE SALES;SAN DIEGO CA;8Z;9586 DISTRIBUTION AVE STE M&N;92121
6932;RAYTHEON SUPPORT SVCS CO;PORT CANAVERAL FL;FL;US ARMY OUTPORT BLDG 1063;32920
6977;AL-GHORA MFO SITE;SINAI PENINSULA EGYP;MW;BLDG #6 CAMERON STATION;00000
6992;AAFES-AMERICAN SAMOA;TAFUNA AMERCAN SAMOA;M8;#1 AIRPORT ROAD;96799
10102;BAMA BUDWEISER OF ANNISTON;ANNISTON AL;AL;1609 FRANK AKERS RD;36207
10121;BIRMINGHAM BUD DIST CO INC;BIRMINGHAM AL;AL;141 INDUSTRIAL DR;35211
10125;SHOALS DISTRIBUTING INC;MUSCLE SHOALS AL;AL;100 COMMERCE ST;35661
10126;VALLEY BUDWEISER INC;DECATUR AL;AL;3424 VALLEY AVE SW;35603
10139;GADSDEN BUD DIST CO INC;ATTALLA AL;AL;200 JD SMITH DR;35954
10143;TURNER BEVERAGE CO INC;HUNTSVILLE AL;AL;1935 MAX-LUTHER DRIVE;35811
10168;BAMA BUDWEISER OF SHELBY CNTY;HARPERSVILLE AL;AL;2400 HIGHWAY 280;35078
10194;ADAMS BEVERAGES LLC;TUSCALOOSA AL;AL;6000 GROVER BURCHFIELD DR;35401
10202;ROMER BEVERAGE COMPANY;KINGMAN AZ;AZ;2908 E ANDY DEVINE AVE;86401
10216;HENSLEY & CO FLAGSTAFF;FLAGSTAFF AZ;AZ;1850 E BUTLER AVE;86001
10220;GOLDEN EAGLE -MOBILITY (TEMPE);TEMPE AZ;AZ;1618 W 12TH PLACE;85281
10230;FOUR PEAKS BREWERY-HOP KNOT;TEMPE AZ;AZ;2401 S WILSON STREET;85282
10256;HENSLEY & CO BUCKEYE;BUCKEYE AZ;AZ;26815 W BASELINE RD;85326
10257;HENSLEY & CO CASA GRANDE;CASA GRANDE AZ;AZ;1000 N JEFFERSON AVE;85122
10260;HENSLEY & CO DISTRIBUTORS;PHOENIX ARIZONA;AZ;3849 W CLARENDON AVENUE;85019
10261;HENSLEY & CO PHOENIX;PHOENIX AZ;AZ;4201 NORTH 45TH AVE;85031
10275;HENSLEY & CO CHANDLER;CHANDLER AZ;AZ;2555 N NEVADA STREET;85225
10285;HENSLEY & CO PRESCOTT;PRESCOTT VALLEY AZ;AZ;10201 E VALLEY ROAD;86314
10300;ARKANSAS WSLR SUPPORT CENTER;PINE BLUFF (WSC) AR;AR;1210 W. 3RD AVENUE;71601
10327;MCBRIDE DISTRIBUTING CO INC;FAYETTEVILLE AR;AR;2849 S SCHOOL AVE;72701
10388;EAGLE DIST OF TEXARKANA;TEXARKANA AR;AR;45 GLOBE AVE;71854
10400;DELTA SIERRA BEVERAGE LLC;SAN ANDREAS CA;CA;709 POOL STATION ROAD;95249
10401;DEPENDABLE COMPANIES INC;CARSON(G&D WHSE) CA;CA;800 EAST 230TH STREET;90745
10403;MARKSTEIN BEVERAGE CO;SAN MARCOS CA;CA;505 S PACIFIC ST;92069
10421;CRAFT BEER GUILD DIST OF LA;CERRITOS CA;CA;13211 166TH STREET;90703
10422;BORBA LLC C/O SEREC OF CALIF;CITY OF INDUSTRY CA;CA;15351 E STAFFORD STREET;91744
10423;CRAFT BEER GUILD DIST OF CA;SAN DIEGO CA;CA;7825 TRADE ST, SUITE 110B;92121
10428;HANSEN BEVERAGE COMPANY;CORONA CA;CA;550 MONICA CIRCLE STE 201;92880
10461;NAVY EXCHANGE;MIRAMAR CALIFORNIA MZ310;CA;U S NAVAL AIR STA BLDG 257;\N
10475;A-B SALES OF SAN DIEGO;SAN DIEGO CA;CA;5959 SANTA FE ST;92109
10484;(NA) BLUE STAR REFRESHMENT SVC;FREMONT CA;CA;40800 ENCYCLOPEDIA CIRCLE;94538
10490;(NA) FIRST SOURCE LLC;PICO RIVERA CA;CA;8825 MERCURY LANE;90660
10492;(NA) WALGREENS WOODLAND;WOODLAND CA;CA;2370 E. MAIN ST.;95776
10494;(NA) WALGREENS MORENO;MORENO CA;CA;17500 PERRIS BLVD.;92551
10500;ANHEUSER BUSCH LLC;DENVER CO;CO;1455 E 62ND AVE;80216
10502;(NA) UNFI WEST DENVER;AURORA CO;CO;17901 EAST 4TH AVE;80011
10514;(NA) KEHE AURORA;AURORA CO;CO;2200 N HIMALAYA ROAD;80011
10515;HIGH COUNTRY BEVERAGE WEST;GRAND JUNCTION CO;CO;2530 HIGH COUNTRY CT;81501
10518;(NA) PEYTON'S FOUNTAIN;FOUNTAIN CO;CO;11025 CHARTER OAK RANCH RD;80817
10520;BRECKENRIDGE BREWERY-BRECKEN;BRECKENRIDGE CO;CO;600 SOUTH MAIN STREET;80424
10560;HIBALL-MACPAC FULFILLMENT;BROOMFIELD CO;CO;2275 W MIDWAY BLVD UNIT B;80020
10601;(NA) WALGREENS CONNECTICUT;WINDSOR CT;CT;80 INTERNATIONAL PARKWAY;06095
10640;HARTFORD DISTRIBUTORS INC;MANCHESTER CT;CT;131 CHAPEL RD;06042
10685;DWAN & COMPANY INC;TORRINGTON CT;CT;142 INDUSTRIAL LN;06790
10802;CAPITAL EAGLE INC;WASHINGTON DC;DC;2815 V STREET NE;20018
10903;CARROLL DISTRIBUTING CO;MELBOURNE FL;FL;1553 CHAD CARROLL WAY;32940
10904;FLORIDA DISTRIBUTING CO;ORLANDO FL;FL;3964 SHADER RD;32808
10906;DAYTONA BEVERAGES LLC;DAYTONA BEACH FL;FL;2275 MASON AVENUE;32117
10907;(NA) WALGREENS JUPITER;JUPITER FL;FL;15998 WALGREEN DR.;33478
10908;(NA) WALGREENS ORLANDO;ORLANDO FL;FL;2455 PREMIER ROW;32809
10910;PARALLEL PRODUCTS DADE CITY FL;DADE CITY FL;FL;15112 PACKING HOUSE DR;33523
10912;(NA) KEHE ST. AUGUSTINE;ELKTON FL;FL;4055 DEER PARK BLVD;32033
10913;(NA) COSTCO DIST CENTER (FL);WEST PALM BEACH FL;FL;5851 45TH ST;33407
10922;CITY BEVERAGES LLC;ORLANDO FL;FL;10928 FLORIDA CROWN DR;32824
10938;DOUBLE EAGLE DISTRIBUTING;DEERFIELD BEACH FL;FL;50 LOCK RD;33442
10976;STEPHENS DISTRIBUTING CO;FORT LAUDERDALE FL;FL;185 ANGLERS AVE;33312
10985;SILVER EAGLE DISTRIBUTORS LTD;HOMESTEAD FL;FL;1000 PARK OF COMMERCE BLVD;33035
10986;EAGLE BRANDS SALES;MIAMI FL;FL;3201 NW 72ND AVE;33122
11024;(NA) WALGREENS PENDERGRASS;PENDERGRASS GA;GA;350 RACO PARKWAY;30567
11045;(NA) COSTCO DIST CENTER (GA);UNION CITY GA;GA;4250 S FULTON PKWY;30349
11056;BIBB DISTRIBUTING CO;MACON GA;GA;6401 HAWKINSVILLE RD;31216
11201;GRANT IMPORTING & DIST;BROADVIEW IL;IL;2701 W 23RD STREET;60155
11206;LAKESHORE BEVERAGE (MARKHAM);MARKHAM IL;IL;2064 W 167TH ST;60428
11208;(NA) WALGREENS MT. VERNON;MT. VERNON IL;IL;5100 LAKE TERRACE NE;62864
11209;SUPERIOR BEVERAGE INC;MONTGOMERY IL;IL;1070 ORCHARD RD;60538
11222;KOERNER DISTRIBUTOR INC;EFFINGHAM IL;IL;1305 W WABASH;62401
11230;JOSEPH MULLARKEY DISTRIBUTORS;GLENVIEW IL;IL;2200 RIDGE DR;60025
11234;TOWN & COUNTRY DIST INC;ITASCA IL;IL;1050 ARDMORE AVE;60143
11249;HAYES BEER DIST COMPANY;ROCKFORD IL;IL;1819 ELMWOOD RD;61103
11319;CALUMET BREWERIES INC;HAMMOND IN;IN;6535 OSBORN AVENUE;46320
11356;NORTH VERNON BEVERAGE CO INC;NORTH VERNON IN;IN;ONE CURRY DRIVE INDUSTRIAL PRK;47265
11468;GOLDEN EAGLE DIST CO INC;MT PLEASANT IA;IA;500 GOLDEN EAGLE DR;52641
11500;KANSAS WSLR SUPPORT CTR;OSAGE CITY (WSC) KS;KS;120 BARCLAY;66523
11503;ARK VALLEY DISTRIBUTING INC;ARKANSAS CITY KS;KS;7748 2ND AVE, STROTHER FIELD;67005
11520;DEMO DISTRIBUTORS INC;EL DORADO KS;KS;202 W 5TH AVE;67042
11538;CITY BEVERAGE CO INC;HUTCHINSON KS;KS;2 SOUTH KIRBY;67501
11597;HOUSE OF SCHWAN INC;WICHITA KS;KS;3636 N COMOTARA ST;67226
11600;STANDARD SALES CO LP-LOUISVILL;LOUISVILLE KY;KY;4400 PRODUCE RD;40218
11609;BEER HOUSE DIST INC;ERLANGER KY;KY;3372 TURFWAY ROAD;41018
12000;AUGUST A BUSCH CO OF MASS INC;MEDFORD MA;MA;440 RIVERSIDE AVE;02155
12003;CRAFT BEER GUILD DISTRIBUTING;EVERETT MA;MA;170 MARKET STREET;02149
12012;COLONIAL WHOLESALE BEV;NORTH DARTMOUTH MA;MA;970 OLD REED ROAD;02747
12102;EASTOWN DISTRIBUTORS CO;HIGHLAND PARK MI;MI;14400 OAKLAND AVE;48203
12104;ALPENA BEVERAGE COMPANY;ALPENA MI;MI;1313 KLINE ROAD;49707
12106;(NA) LIPARI FOODS LLC;WARREN MI;MI;26661 BUNERT ROAD;48089
12119;WEST SIDE BEER DISTRIBUTING;ROMULUS MI;MI;28100 GORSUCH AVE;48174
12122;FABIANO BROTHERS, INC.;DETROIT MI;MI;1600 MODERN ST;48203
12144;(NA) COSTCO VAN BUREN-DRY;VAN BUREN TWP MI;MI;5860 BELLEVILLE RD;48111
12154;PETITPREN INC;CLINTON TOWNSHIP MI;MI;44500 N GROESBECK HWY;48036
12165;HUBERT DISTRIBUTORS INC;PONTIAC MI;MI;1200 AUBURN AVE;48342
12167;EARL SMITH DIST CO;PORT HURON MI;MI;1717 BEARD ST;48060
12195;DANIEL L JACOB & CO INC;YPSILANTI MI;MI;4900 CARPENTER RD;48197
12200;OZBURN-HESSEY LOGISTICS;GRANITE CITY IL;IL;119 INDUSTRIAL DR;62040
12212;(NA) LIFE TIME FITNESS, INC.;CHANHASSEN MN;MN;2410 GAPLIN COURT;55317
12224;D & D BEER CO;LITTLE FALLS MN;MN;15615 HWY 27;56345
12236;NORRI DISTRIBUTING CO;VIRGINIA MN;MN;8409 ENTERPRISE DR N;55792
12339;SOUTHERN BEVERAGE COMPANY INC;HATTIESBURG MS;MS;6992 US HIGHWAY 49;39402
12340;SOUTHERN BEVERAGE COMPANY INC;LAUREL MS;MS;103 CENTRAL AVE;39440
12344;SOUTHERN BEVERAGE COMPANY INC;RICHLAND MS;MS;1939 DAVIS JOHNSON DR;39218
12345;SOUTHERN BEVERAGE COMPANY INC;MAGEE MS;MS;799 INDUSTRIAL PARK DRIVE;39111
12362;MITCHELL BEVERAGE MERIDIAN INC;MERIDIAN MS;MS;100 49TH AVE;39307
12390;SOUTHERN BEVERAGE COMPANY;VICKSBURG MS;MS;1480 HIGHWAY 61 NORTH;39183
12398;SOUTHERN BEVERAGE COMPANY INC;YAZOO CITY MS;MS;600 S INDUSTRIAL PKWY;39194
12400;BUSCH CREATIVE SERVICES;ST LOUIS MO;MO;5240 OAKLAND AVE;63110
12448;GOLDEN EAGLE DISTRIBUTING CO;KIRKSVILLE MO;MO;1401 S OSTEOPATHY AVE;63501
12806;CRAFT BEER GUILD DISTR NH;PORTSMOUTH NH;NH;4 CUTTS ST. #4;03801
13072;L & F DISTRIBUTORS LLC;ROSWELL NM;NM;2200 N ATKINSON AVE;88201
13104;(NA)HARNEY & SONS TEA-DUTCHESS;MILLERTON NY;NY;6075 ROUTE 22;12546
13106;T J SHEEHAN DIST INC;LIVERPOOL NY;NY;225 COMMERCE BLVD;13088
13108;(NA) HARNEY & SONS-HUDSON;HUDSON NY;NY;128 NORTH 2ND STREET;12534
13111;RUCH DISTRIBUTORS INC;ALBANY NY;NY;10 ENTERPRISE DRIVE;12204
13131;BARTYZEL INC;AMSTERDAM NY;NY;ONE GENESEE LANE;12010
13198;SARATOGA EAGLE SALES & SERVICE;SARATOGA SPRINGS NY;NY;45 DUPLAINVILLE RD;12866
13203;TRYON DISTRIBUTING CO;CHARLOTTE NC;NC;4701 STOCKHOLM CT;28273
13250;RA JEFFREYS DIST CO LUMBERTON;LUMBERTON NC;NC;797 CATON RD;28360
13400;ANHEUSER-BUSCH INC BLDG #19;COLUMBUS OH;OH;700 SCHROCK ROAD;43229
13404;KNALL BEVERAGE INC.;BROOKLYN OH;OH;4550 TIEDEMAN RD.;44144
13405;(NA) WALGREENS PERRYSBURG;PERRYSBURG OH;OH;28727 OREGON ROAD;43551
13406;ESBER BEVERAGE COMPANY;CANTON OH;OH;2217 BOLIVAR ROAD, SW;44706
13408;SUPERIOR BEVERAGE GROUP;COLUMBUS OH;OH;871 INGLESIDE AVE;43215
13411;STAGNARO DISTRIBUTING;CINCINNATI OH;OH;351 WILMER AVENUE;45226
13423;BONBRIGHT DISTRIBUTORS;DAYTON OH;OH;1 ARENA PARK DRIVE;45417
13426;HEIDELBERG DIST CO - DAYTON;MORAINE OH;OH;3601 DRYDEN RD;45439
13432;BROWN DISTRIBUTING CO;NEWARK OH;OH;51 SWANS RD;43055
13451;ANHEUSER-BUSCH SALES OF LIMA;LIMA OH;OH;3535 SAINT JOHNS RD;45804
13478;HEIDELBERG DISTRIBUTING CO;SPRINGFIELD OH;OH;4020 DAYTON ROAD;45502
13561;BELLE POINT BEV INC - POTEAU;POTEAU OK;OK;112 KERR AVE;74953
13600;HIBALL-WYMORE TRANSFER;CLACKAMAS OR;OR;12651 SE CAPPS ROAD;97015
13602;(NA) COGO NORTHWEST DIST LLC;PORTLAND OR;OR;12550 NE MARX STREET;97230
13704;WILLIAM C KNAUER INC;LANCASTER PA;PA;660 DELP ROAD;17601
13705;(NA) WALGREENS NAZARETH RFC;EASTON PA;PA;3850 PROLOGIS PARKWAY SUITE B;18045
13706;T. VERRASTRO BEER DISTRIBUTOR;WEST HAZLETON PA;PA;126 N BROAD ST;18202
13708;ACE BEVERAGE;EYNON PA;PA;203 BETTY STREET;18403
13716;BEER MART INC;READING PA;PA;301 MORGAN TOWN ROAD;19611
13718;TANZOS BEER AND SODA INC;NORTHAMPTON PA;PA;2006 CENTER STREET;18067
13720;VECENIE'S DISTRIBUTING COMPANY;PITTSBURGH PA;PA;10 SHERIDAN ST.;15209
13722;GRETZ BEER COMPANY;DOYLESTOWN PA;PA;4171 STONEY LANE;18901
13724;SERENA A KIRCHNER INC.;LANCASTER PA;PA;2740 CHARLESTON ROAD;17603
13733;WILSBACH DISTRIBUTORS INC;HARRISBURG PA;PA;905 KATIE CT;17109
13739;K E PLETCHER INC;STATE COLLEGE PA;PA;330 W AARON DRIVE;16801
13742;STOCKERTOWN BEVERAGE;BETHLEHEM PA;PA;310 STOKE PARK RD;18017
13755;LINGLE DISTRIBUTING, INC;LEWISTOWN PA;PA;95 E HALE ST;17044
13762;GALLI BEER DISTRIBUTING;NEW KENSINGTON PA;PA;800 ANDERSON STREET;15068
13793;MID-STATE BEVERAGE CO;WILLIAMSPORT PA;PA;1805 E THIRD ST;17701
13797;BREWERY PRODUCTS CO;YORK PA;PA;1017 N SHERMAN STREET;17402
13901;(NA) WALGREENS ANDERSON;WILLIAMSTON SC;SC;101 ALLIANCE PARKWAY;29697
14028;ELLWEIN BROTHERS DISTRIBUTING;HURON SD;SD;655 18TH ST NW;57350
14100;BORBA C/O HARDY BOTTLING;MEMPHIS TN;TN;5151 EAST RAINES ROAD;38118
14102;(NA) PEYTON SOUTHEAST WHSE 87;CLEVELAND TN;TN;160 GOLDSTAR DR SW;37311
14200;TEXAS DISTRIBUTION CENTER;WACO, TX;TX;1701 EXCHANGE PARKWAY;76712
14205;GLAZER'S WHOLESALE DIST;FARMERS BRANCH TX;TX;2001 DIPLOMAT DR;75234
14210;COORS OF LONGVIEW, INC.;LONGVIEW TX;TX;2002 EAST COTTON STREET;75602
14211;(NA) WALGREENS WAXAHACHIE;WAXAHACHIE TX;TX;710 OVILLA ROAD;75167
14212;GREAT PLAINS DISTRIBUTORS LP;LUBBOCK TX;TX;5701 EAST HIGHWAY 84;79404
14214;GLAZER'S WHOLESALE DRUG CO;MCALLEN TX;TX;2000 REDBUD;78504
14216;LONE STAR DISTRIBUTING;MEXIA TX;TX;111 MAIN STREET;76667
14218;PERMIAN BASIN DISTRIBUTING INC;ODESSA TX;TX;3909 SO COUNTY ROAD 1290;79765
14220;PINEYWOODS BEVERAGE LLC;NACOGDOCHES TX;TX;6003 NORTH ST;75965
14222;HALO DISTRIBUTING COMPANY;SAN ANTONIO TX;TX;200 LOMBRANO;78207
14224;WRIGHT DISTRIBUTING COMPANY;TAYLOR TX;TX;901 SOUTH MAIN STREET;76574
14226;KEG 1 ONEAL LLC;TEMPLE TX;TX;2062 ENTERPRISE ROAD;76504
14232;GLAZER'S WHOLESALE DRUG CO;WACO TX;TX;2525 TEXAS CENTRAL PKWY;76712
14234;GLAZER'S OF ABILENE;ABILENE TX;TX;4101 AMARILLO STREET;79602
14236;GLAZER'S WHL. CO - ABILENE;ABILENE TX;TX;4101 AMARILLO STREET;79602
14238;CAPITOL WRIGHT DISTRIBUTING;MANOR TX;TX;10095 E HWY 290;78653
14242;ROYAL HILL COMPANY;CONROE TX;TX;130 S. TRADE CENTER PARKWAY;77385
14244;GLAZER'S WHLSE CO. - EL PASO;EL PASO TX;TX;7801 TRADE CENTER BLVD;79912
14246;GLAZER'S WHLSE DRUG CO.;FARMERS BRANCH TX;TX;2001 DIPLOMAT DRIVE;75234
14248;ANDREWS DISTRIBUTING COMPANY;FORT WORTH TX;TX;2550 MCMILLAN PARKWAY;76137
14250;CARSON DISTRIBUTING;KERRVILLE TX;TX;1095A JUNCTION HWY;78028
14252;GLAZER'S WHLSE CO.-LONGVIEW;LONGVIEW TX;TX;1604 E WHALEY ST;75601
14254;NORTH CENTRAL BEV. LTD (DBA F;MINERAL WELLS TX;TX;ROUTE 4 6100 TRAVIS ST;76067
14256;GLI DISTRIBUTING INC.;SAN ANTONIO TX;TX;803 S. MEDINA STREET;78207
14258;ELDER DISTRIBUTING CO.;VICTORIA TX;TX;8316 LONE TREE ROAD;77905
14260;WRIGHT DISTRIBUTING COMPANY;NEW BRAUNFELS TX;TX;1509 N IH 35;78130
14267;STANDARD SALES CO LP-LUBBOCK;LUBBOCK TX;TX;408 E HUNTER ST;79403
14288;EAGLE DIST OF TEXARKANA TX LLC;TEXARKANA TX;TX;3902 GAZOLA STREET;75501
14300;A-B INC % NAT'L DIST SYSTEMS;CITY LIMITS UT (RAIL;UT;431 N NEIL ARMSTRONG RD;84116
14404;CRAFT BEER GUILD DISTR VT LLC;COLCHESTER VT;VT;948 HERCULES DR;05446
14500;ANHEUSER-BUSCH INC;WILLIAMSBURG VA;VA;7795 POCAHONTAS TRAIL;23185
14543;(NA) NEXCOM SUFFOLK;SUFFOLK VA;VA;1000 KENYON COURT;23434
14617;MIDWAY BEVERAGE;MOSES LAKE WA;WA;6347 PATTON BLVD, NE;98837
14697;COLUMBIA DISTRIBUTING CO INC;WENATCHEE WA;WA;255 APPLEYARD DR;98801
14800;BORBA C/O CENTURY FOODS INTL;SPARTA WI;WI;400 CENTURY COURT;54656
14802;(NA) WALGREENS WINDSOR;WINDSOR WI;WI;4400 STATE ROAD 19;53598
14805;PEHLER DISTRIBUTING INC;ARCADIA WI;WI;700 S CLYDESDALE DR;54612
14818;PARK RIDGE DISTRIBUTING INC;EAU CLAIRE WI;WI;1245 CONTINENTAL DR;54701
14823;C J W INC;RACINE WI;WI;2437 CHICORY RD;53403
15112;WHITE MOUNTAIN BEVERAGE LLC;RENTON WA;AK;3215 LIND AVE SW;98057
15113;WHITE MOUNTAIN BEVERAGE LLC;ANCHORAGE AK;AK;6307 ARCTIC SPUR RD;99518
15114;WHITE MOUNTAIN BEVERAGE LLC;FAIRBANKS AK;AK;945 ELIZABETH ST;99709
15300;WIDMER BROTHERS BREWING - KONA;KAILUA-KONA HAWAII;HI;75-5629 KAUKINI HIGHWAY;96740
15348;US COAST GUARD EXCHANGE;HONOLULU HI;HI;400 SAND ISLAND PARKWAY;96819
15901;FNC S.A.;MONTEVIDEO URUGUAY;9O;ENTRE RIOS 1060 - CP 11700;00000
15903;AMBROS INC;HAGATNA GUAM;3Z;185 DULCE NOMBRE DE MARIA DR.;96910
15904;TURKS ISLANDS IMPORTERS LTD;GRAND TURK B WEST IN;9U;FRONT ST;\N
15911;BURNS HOUSE LIMITED;NASSAU BAHAMAS;8B;JOHN F KENNEDY DRIVE;\N
15916;CAYMAN DISTRIBUTORS LTD;GRAND CAYMAN, B.W.I.;8F;266 EASTERN AVENUE;\N
15917;WEST INDIES CORP;ST THOMAS U S VIRGIN;8N;12-14 CONTANT ST;00802
15918;PLAYA LIQUOR & BOTTLING CO NV;ORANJESTAD ARUBA N A;9R;ENGELANDSTRAAT #5;\N
15922;WEST INDIES CORP;CHRISTIANSTED ST CRO;8N;PETER'S REST;00820
15923;VIVA GLOBAL LTD;NAIROBI KENYA;0V;EDEN SQR WESTLANDS RD 6TH FLR;00000
15940;MARITIME & MERCANTILE LLC;DUBAI UAE;5G;C/O DUBAI EXPRESS LLC/FREIGHT;00000
15943;BAHRAIN MARITIME & MERCANTILE;BAHRAIN;4A;0;00000
15949;BURNS HOUSE LIMITED;FREEPORT GRAND BAHAM;8B;QUEENS HIGHWAY;\N
15954;TICO CARE OF TROPICAL SHIPPING;MEDLEY FL;9V;9505 NORTH WEST 108TH AVE;33178
15963;ASIA BREWERY INC;AYALA AVE MAKATI CITY;3H;6TH FLOOR ALLIED BANK CENTER;\N
15972;KUSTERS TRADING COMPANY;WILLEMSTAD CURACAO;9Q;KAMINDA ANDREW J.E. KUSTER#3;00000
15975;PREMIUM BEVERAGES PTY LTD;SYDNEY AUSTRALIA;3X;PREM BEV ADELAIDE(VIA MELBOURN;\N
15976;BURY WAREHOUSE;BURY EDMONDS SUFFOLK;2I;WESTGATE STREET;\N
15977;OLD SPECKLED HEN HALL;BURY EDMONDS SUFFOLK;2I;KEMPSON WAY MORETON HALL IND;00000
15978;DHL EXEL;BURY ST EDMUNDS IP31;2I;SUMNER RD SHEPHERD GROVE IND;2BG
15982;CERVECERIA MODELO DEL NOROESTE;CIUDAD OBREGON;8T;CARRETERA FEDERAL NO 15;85090
15997;MARIANAS PACIFIC DISTRBTRS INC;GUALORAE SAIPAN MP;3Z;P O BOX 965;96950
15998;TRIPLE J WHOLESALE;EBEYE, MH;3Z;PO BOX 5190;96970
16002;B FERNANDEZ & HNOS INC;BAYAMON PR;PR;305CARRETERA5 URBN INDLUCHETTI;00961
16014;CC1 BEER DISTRIBUTORS INC;BAYAMON PR;PR;CARR. #174 LOTE 107;00960
16302;ARMY & AIR FORCE EXCH;PANAMA;MZ;PO BOX 660261;00000
16303;ARMY & AIR FORCE EXCH;QUATAR;N1;SITE 3;00000
16404;ARMY & AIR FORCE EXCH;WRIGHTSTOWN NJ;9V;MCGUIRE AFB;00000
16602;A & AF EXCHANGE;ENGLAND;M4;PO BOX 660261;00000
16603;EXCHANGE GERMERSHEIM DC;GERMERSHEIM GERMANY;M1;LINGENFELDERSTR. BLDG 7977;76726
16608;A & AF EXCHANGE;TURKEY;MM;XYZ;99999
16612;65 SVS/TOP OF THE ROCK CLUB;APO AE;M9;UNIT 8010;09720
16616;104TH ASG REG WHSE BLDG 638;63457 HANAU-GROSSA-;M1;DEPOT STR GROSSAUHEIM KASERNE;UHEIM
16618;NAS SIGONELLA MWR FUND RRR;FPO AE 09627-3390;M2;WHSE BLDG 230 PSC 812 BOX 3390;\N
16690;AAFES WEST COAST DIST CTR;FRENCH CAMP CA;M1;BLDG 550A 700 EAST ROTH ROAD;95231
16702;ARMY & AIR FORCE EXCH;JAPAN;M5;\N;\N
16703;ARMY & AIR FORCE EXCH;KOREA;M6;\N;\N
16704;ARMY & AIR FORCE EXCH;OKINAWA;M7;\N;\N
16709;NAVY EXCHANGE CENTER AUB;AUBURN WA;MQ;2801 "C" ST SW BLDG 3 DOOR 75;98001
16710;N68539 NKW NAVAL SUP FACILITY;DIEGO GARCIA BIOT;MV;MWR, BLDG. #798;\N
16711;NEX SHIP STORE;DIEGO GARCIA;MV;NAVAL SUPPORT FACILITY;00000
16712;WCDC W COAST DC BLD550AXDKILP;FRENCH CAMP CA;4C;700 E ROTH RD SHARPE ARMY DPT;95231
16713;DDDC AFFES - DAN DANIEL DC;NEWPORT NEWS VA;5A;231 ENTERPRISE DR;23603
16714;GUAM MAIN STORE UNIT 14032;APO, AP;3J;ANDERSEN AFB GUAM;96543
16715;AAFES - AMERICAN SAMOA;AMERICAN SAMOA;9U;\N;\N
16910;EURPAC-WAPPOO BUSINESS PARK;CHARLESTON SC;8Z;1023 WAPPOO ROAD #18A;29407
16915;EURPAC-ASHLAND SELF STORAGE;ATLANTIC BEACH FL;8Z;1089 ATLANTIC BEACH BLVD #11;32233
16920;EURPAC-SHURGARD MINI STGE D-19;BREMERTON WA;8Z;4505 AUTO CENTER WAY;98312
16922;ARMY & AIR FORCE EXCHANGE;CONFIDENTIAL;9C;CONFIDENTIAL AREA;00000
20161;BUDWEISER-BUSCH DIST CO INC;MOBILE AL;AL;1050 E I65 SERVICE RD N;36617
20162;BUDWEISER-BUSCH DIST CO INC;LOXLEY AL;AL;16430 BLACK DEVINE RD;36551
20200;ARIZONA WHOLESALER SUPPORT CEN;PHOENIX (WSC) AZ;AZ;4201 N 45TH AVENUE;85031
20282;III COUNTIES DIST CO INC;SAFFORD AZ;AZ;812 S 11TH AVE;85546
20285;HENSLEY & CO TUCSON;TUCSON AZ;AZ;705 EAST AJO WAY;85713
20288;SOUTHERN ARIZONA DISTRIBUTING;BISBEE AZ;AZ;20 COCHISE ROW;85603
20359;A & B DISTRS INC OF ARKANSAS;LOWELL AR;AR;1200 FEDERAL WAY;72745
20402;THE WINE GROUP;RIPON CA;CA;17000 E HIGHWAY 120;95366
20403;(NA) UNFI ROCKLIN;ROCKLIN CA;CA;1101 SUNSET BLVD;95765
20404;(NA) UNFI WEST GILROY;GILROY CA;CA;6351 CAMERON BLVD;95020
20406;PFLUG PACKAGING AND FULFILLMEN;LATHROP CA;CA;17500 SHIDELER PARKWAY;95330
20407;(NA) UNFI WEST MORENO VALLEY;MORENO VALLEY CA;CA;22150 GOLDENCREST DR.;92553
20408;(NA) KEHE CHINO;CHINO CA;CA;6810 BICKMORE AVE;91708
20409;(NA) KEHE NORCAL;STOCKTON CA;CA;4650 NEWCASTLE ROAD;95125
20423;M E FOX & COMPANY INC;SAN JOSE CA;CA;128 COMPONENT DRIVE;95131
20428;MARKSTEIN BEV CO OF UNION CITY;UNION CITY CA;CA;2900 VOLPEY WAY;94587
20444;MATAGRANO INC SAN FRANCISCO;S SAN FRANCISCO CA;CA;440 FORBES BLVD;94080
20445;BOTTOMLEY DISTRIBUTING CO INC;MILPITAS CA;CA;755 YOSEMITE DR;95035
20458;MARKSTEIN SALES COMPANY;ANTIOCH CA;CA;1645 DRIVE IN WAY;94509
20460;ANHEUSER-BUSCH SALES BAY AREA;OAKLAND CA;CA;8380 PARDEE DR;94621
20472;DBI BEVERAGE - SAN JOAQUIN;STOCKTON CA;CA;1401 SOUTH FRESNO AVE;95206
20494;MATAGRANO INC;S SAN FRANCISCO CA;CA;440 FORBES BLVD;94080
20499;COUCH DISTRIBUTING CO INC;WATSONVILLE CA;CA;104 LEE RD;95076
20520;BRECKENRIDGE BREWERY-LITTLETON;LITTLETON CO;CO;2920 BREWERY LN;80120
20792;N.K.S.DISTRIBUTORS INC;NEW CASTLE DE;DE;399 CHURCHMANS RD;19720
20793;N-K-S DISTRIBUTORS INC MILFORD;MILFORD DE;DE;759 E MASTEN CIR;19963
20900;SADDLE CREEK REPACK SITE;LAKELAND FL;FL;3010 SADDLE CREEK ROAD;33801
20903;CARROLL DISTRIBUTING CO;ROCKLEDGE FL;FL;270 BARNES BLVD;32955
20906;DAYTONA BEVERAGES LLC;DELAND FL;FL;1290 E INTERNATIONAL SPEEDWAY;32724
20910;VEZA SUR BREWING CO;MIAMI FL;FL;1378 NW 22ND ST;33142
20922;WAYNE DENSCH INC;SANFORD FL;FL;2900 W 1ST ST;32771
20925;J J TAYLOR DISTRIBUTING;FORT MYERS FL;FL;2040 PARK 82ND DR;33905
20948;THE LEWIS BEAR COMPANY;EBRO FL;FL;6484 DOG TRACK RD;32437
20950;THE LEWIS BEAR COMPANY;PENSACOLA FL;FL;6120 ENTERPRISE DR;32505
20951;THE LEWIS BEAR COMPANY;FORT WALTON BEACH FL;FL;656 LOVEJOY ROAD NW;32548
20952;THE LEWIS BEAR COMPANY;DEFUNIAK SPRINGS FL;FL;127 MONTGOMERY CIRCLE;32433
21005;CADBURY SCHWEPPES;COLLEGE PARK GA;GA;6000 FELDWOOD ROAD;30349
21052;SOUTHERN CROWN PARTNERS LLC;VIDALIA GA;GA;1906 TRANSUS DR;30474
21075;SOUTHERN CROWN PARTNERS LLC;GARDEN CITY GA;GA;1320 US HIGHWAY 80 W;31408
21200;ANHEUSER-BUSCH INC;GRANITE CITY IL;IL;#6 KONZEN CT;62040
21202;DONNEWALD DISTRIBUTING CO;GODFREY IL;IL;1000 WEST HOMER M ADAMS PKWY;62035
21203;LAKESHORE BEVERAGE (CHICAGO);CHICAGO IL;IL;4841 SO CALIFORNIA AVE;60632
21214;LAKESHORE BEVERAGE (BLMNGTON);BLOOMINGTON IL;IL;1105 E LAFAYETTE ST;61701
21221;DONNEWALD DISTRIBUTING CO;GREENVILLE IL;IL;2100 SAMUEL W ANDREWS DR;62246
21222;DONNEWALD DISTRIBUTING CO;EFFINGHAM IL;IL;1408 EAST FAYETTE AVENUE;62401
21225;ARONDELLI & CO.;CHRISTOPHER ILLINOIS;IL;850 WEST HIGHWAY 14;62822
21228;GREY EAGLE DISTRIBUTORS;BELLEVILLE IL;IL;#1 BUSCH BLVD;62223
21233;PIZZINI DISTRIBUTING CO;EDWARDSVILLE IL;IL;7277 MARINE ROAD;62025
21261;VENEGONI DISTRIBUTING INC;CARBONDALE IL;IL;105 DILLINGER RD;62901
21270;BREWERS DISTRIBUTING CO;PEORIA IL;IL;2421 W TOWNLINE RD;61615
21300;PRI-PAK, INC.;LAWRENCEBURG IN;IN;2000 SCHENLEY PLACE;47025
21400;IOWA ALCOHOLIC BEV DIV (WSC);ANKENY IA;IA;1918 S E HULSIZER AVENUE;50021
21419;IOWA ALCOHOLIC BEVERAGES DIV;ANKENY IA;IA;1918 SE HULSIZER RD;50021
21479;L & L DISTRIBUTING CO INC;SIOUX CITY IA;IA;2101 MURRAY ST;51111
21481;DOLL DISTRIBUTING LLC;SPENCER IA;IA;419 E 2ND ST;51301
21522;STANDARD BEVERAGE CORP;LAWRENCE KS;KS;2300 LAKEVIEW;66044
21523;CRAWFORD SALES COMPANY;FORT SCOTT KS;KS;16 SOUTH HILL STREET;66701
21525;EAGLE BEVERAGE CORPORATION;FRONTENAC KS;KS;250 N CAYUGA ST;66763
21703;SOUTHWEST BEVERAGE CO INC;ALEXANDRIA LA;LA;3630 EXPANSION ST;71302
21719;GLAZER'S CO OF LOUISIANA;SHREVEPORT LA;LA;909 W 62ND ST;71106
21736;SOUTHWEST BEVERAGE CO INC;LEESVILLE LA;LA;108 E FRANKLIN ST;71446
21906;LEGENDS LTD;BALTIMORE MD;MD;8901-A YELLOW BRICK RD;21237
22000;ANHEUSER-BUSCH, INC;DEVENS, MA;MA;235 BARNUM;01432
22005;SCS FOR MEDFORD;FOXBORO MA;MA;208 NORTH STREET;02035
22100;ANHEUSER-BUSCH INC;HOWELL, MI;MI;1199 AUSTIN CT;48843
22125;TOM RYAN DISTRIBUTING CO INC;FLINT MI;MI;3302 KENT ST;48503
22152;FLORAL CITY BEVERAGE INC;MONROE MI;MI;720 HUBER DR;48162
22164;MAIN BEVERAGE CO;OWOSSO MI;MI;202 S LANSING ST;48867
22170;VIRTUE CIDER PRODUCTION;FENNVILLE MI;MI;2170 62ND STREET;49408
22200;ANHEUSER-BUSCH INC;COON RAPIDS, MN;MN;11225 XEON ST.;55448
22244;JJ TAYLOR DISTR CO OF MN, INC;MINNEAPOLIS MN;MN;701 INDUSTRIAL BLVD NE;55413
22303;MITCHELL BEVERAGE GULF COAST;GULFPORT MS;MS;12100 INTRAPLEX PKWY;39503
22400;HIBALL - DAIRY FARMERS OF AMER;CABOOL MO;MO;950 METRECAL ST;65689
22423;MULLALLY DISTRIBUTING CO INC;CUBA MO;MO;HWY 19 AND I44;65453
22432;SOARING EAGLE DISTRIBUTING;DESLOGE MO;MO;319 N STATE ST;63601
22438;GREY EAGLE DISTRIBUTORS;MARYLAND HEIGHTS MO;MO;2340 MILLPARK DR;63043
22442;H W HERRELL DISTRIBUTING CO;IMPERIAL MO;MO;1002 WHITE ST;63052
22444;LOHR DISTRIBUTING CO INC;SAINT LOUIS MO;MO;1100 S 9TH ST;63104
22450;MISSOURI EAGLE LLC-JOPLIN;JOPLIN MO;MO;3121 ENTERPRISE AVE;64801
22498;MISSOURI EAGLE LLC-WASHINGTON;WASHINGTON MO;MO;423 W INDUSTRIAL PARK DR;63090
22500;MONTANA WHLSR SUPPORT CTR;BUTTE, MT;MT;3941 WYNNE AVENUE;59701
22600;NEBRASKA WHSLR SUPPORT CTR;LINCOLN (WSC) NE;NE;5840 N 70TH ST;68507
22659;EAGLE DISTR INC (NORFOLK);FREMONT NE;NE;1100 SOUTH BUD BLVD;68025
22800;ANHEUSER-BUSCH INC;MERRIMACK NH;NH;221 DANIEL WEBSTER HIGHWAY;03054
22900;NEW JERSEY WHSLR SUPPORT CTR;DEPTFORD (WSC) NJ;NJ;1320 HURFFVILLE ROAD;08096
22901;HARRISON BEVERAGE CO;PLEASANTVILLE NJ;NJ;6812 DELILAH RD;08232
22905;KUEHNE AND NAGEL;CRANBURY NJ;NJ;324 HALF ACRE RD, SUITE B;08512
22920;TOPPOP;MARLTON NJ;NJ;4 EAST STOW ROAD UNIT 8;08053
22930;KONRAD BEER DISTRIBUTOR INC;DEPTFORD NJ;NJ;1320 HURFFVILLE RD;08096
22986;RITCHIE & PAGE DIST CO INC;ROBBINSVILLE NJ;NJ;175 NEW CANTON WAY;08691
23100;ANHEUSER-BUSCH INC;BALDWINSVILLE NY;NY;2780 BRUNDAGE RD;13027
23105;ROCCO J TESTANI INC;BINGHAMTON NY;NY;29 PHELPS ST;13901
23110;AINSLEY SUPERIOR WAREHOUSE;BALDWINSVILLE NY;NY;2735 BRUNDAGE RD;13027
23125;SENECA BEVERAGE CORP;ELMIRA NY;NY;2085 LAKE RD;14903
23161;NORTHERN EAGLE BEVERAGES INC;ONEONTA NY;NY;41 BROWNE STREET;13820
23201;BUDWEISER OF ASHEVILLE INC;FLETCHER NC;NC;255 RUTLEDGE RD;28732
23205;BUDWEISER OF SYLVA;SYLVA NC;NC;2651 SKYLAND DR;28779
23430;BEERCO;FOSTORIA OH;OH;22116 WASH TWP RD 218 & SR 12;44830
23441;GLAZER'S DIST OF OHIO;COLUMBUS OH;OH;4800 POTH ROAD;43213
23442;THE HAMMER COMPANY (GLAZER'S);STREETSBORO OH;OH;9450 ROSEMONT DR;44241
23460;CITY BEVERAGE CO;DEFIANCE OH;OH;8283 STATE ROUTE 66 N;43512
23486;TREU HOUSE OF MUNCH INC;NORTHWOOD OH;OH;8000 ARBOR DR;43619
23502;BUDWEISER DISTRIBUTING CO (OK);AMARILLO TX;OK;100 S PHILADELPHIA ST;79104
23559;A & B DISTRS INC OF MUSKOGEE;MUSKOGEE OK;OK;3901 TULL AVE;74403
23570;ANHEUSER-BUSCH SALES OF OK;OKLAHOMA CITY OK;OK;1700 BEECHWOOD AVE;73149
23600;CRAFT BREW ALLIANCE;PORTLAND OR;OR;929 N RUSSELL;97227
23601;WIDMER BROTHERS BREWERY;PORTLAND OR;OR;929 N RUSSELL ST;97227
23605;WYMORE TRANSFER - CBA;CLACKAMAS OR;OR;12651 SE CAPPS RD;97015
23700;ALLEN DISTRIBUTION;CARLISLE PA;PA;670 ALLEN ROAD;17015
23706;ALLENTOWN BEVERAGE CO (OLD);ALLENTOWN PA;PA;1249 N QUEBEC ST;18103
23721;PENN BEER SALES & SERVICE;ALLENTOWN PA;PA;1249 N QUEBEC ST;18109
23762;PENN BEER SALES & SERVICE;HATFIELD PA;PA;2801 TOWNSHIP LINE RD;19440
23764;PENN BEER SALES & SERVICE;PHILADELPHIA PA;PA;401 DOMINO LN;19128
23771;WESTY BEER DISTRIBUTOR, INC;CAMP HILL PA;PA;420 SAINT JOHNS CHURCH RD;17011
23912;SOUTHERN CROWN PARTNERS LLC;CHARLESTON SC;SC;1600 CHARLESTON REGIONAL PKWY;29492
23914;PEARLSTINE DISTRIBUTORS INC;CHARLESTON SC;SC;1600 CHARLESTON REGIONAL PKWY;29492
24097;JOHN A CONKLING DIST CO INC;YANKTON SD;SD;44414 SD HIGHWAY 50;57078
24100;STARBUCKS COFFEE COMPANY;LEBANON TN;TN;1009 HIXSON BLVD;37090
24200;TEXAS DISTRIBUTION CENTER (LP);LAPORTE TX;TX;1902 S 16TH STREET;77571
24202;BUDWEISER DISTRIBUTING COMPANY;AMARILLO TX;TX;100 S PHILADELPHIA ST;79104
24204;(NA) WALGREENS HOUSTON RFC;HOUSTON TX;TX;1805 GREENS RD.;77032
24208;GIGLIO DIST. COMPANY;BEAUMONT TX;TX;155 S M L KING JR PKWY;77701
24214;REPUBLIC BEVERAGE COMPANY;HOUSTON TX;TX;8045 N. COURT ROAD;77040
24220;M & S DISTRIBUTING INC.;LA GRANGE TX;TX;5230 WEST STATE HWY 71;78945
24222;GILLIS DISTRIBUTING;TERRELL TX;TX;100 METRO DRIVE;75160
24263;L & F DISTRIBUTORS LLC ALPINE;ALPINE TX;TX;2307 W HIGHWAY 90;79830
24264;STANDARD SALES CO LP-ODESSA;ODESSA TX;TX;200 JOHN BEN SHEPPARD PKWY;79761
24302;BALD EAGLE BEVERAGE COMPANY;CEDAR CITY UT;UT;904 AVIATION WAY;84720
24320;MARTY'S DISTRIBUTING CO INC;LOGAN UT;UT;345 SOUTHWEST ST;84321
24326;GENERAL DISTRIBUTING CO;MOAB UT;UT;2059 SOUTH PLATEAU ROAD;84532
24338;WASATCH DISTRIBUTING CO INC;OGDEN UT;UT;2057 RULON WHITE BLVD;84404
24340;GENERAL DISTRIBUTING CO;WELLINGTON UT;UT;1440 E MAIN ST;84542
24348;BIG FOUR DISTRIBUTING INC;PROVO UT;UT;304 EAST 900 SOUTH;84606
24376;GENERAL DISTRIBUTING CO;SALT LAKE CITY UT;UT;5350 AMELIA EARHART DR;84116
24383;TOOELE BEVERAGE CO INC;TOOELE UT;UT;121 E 1280 NORTH;84074
24396;C & H DISTRIBUTING CO;VERNAL UT;UT;1272 E 500 SOUTH;84078
24400;VT SPRITS C/O ST JOHNSBRY PAPR;ST JOHNSBURY VT;VT;136 BAY STREET;05819
24500;ICELANDIC GLACIAL;RICHMOND VA;VA;500 DEEPWATER TERMINAL ROAD;23234
24600;REDHOOK ALE BREWERY;SEATTLE WA;WA;3400 PHINNEY AVE N;98103
24605;REDHOOK BREWLAB;SEATTLE WA;WA;714 EAST PIKE STREET;98122
24804;WDI LLC;APPLETON WI;WI;3010 N ZUEHLKE DR;54911
24827;DEAN DISTRIBUTING INC;GREEN BAY WI;WI;1215 ONTARIO RD.;54311
24944;WESTERN WYOMING BEVERAGES INC;EVANSTON WY;WY;100 INDEPENDENCE NORTH;82930
24974;WESTERN WYOMING BEVERAGES INC;ROCK SPRINGS WY;WY;100 RELIANCE RD;82901
25300;CBA KONA;KAILUA-KONA HI;HI;74-5588 PAWAI PLACE;96740
25904;KHALIFA ALGOSAIBI COLD STORES;DAMMAM 31411 SAUDI A;4J;DAMMAM-DHAHARAN HIGH WAY;00000
25909;TIS WORLDWIDE MKTG (1997) CO;N KLONGTOEY WATTANA;5X;17 SUKHUMVIT1 (RUENRUDEE);10110
25910;CHATHA IMPEX CO LTD;PHNOM PENH CAMBODIA;3W;NO46 RUE 190 SANGKAT BEOUNG;\N
25917;SUTL CORPORATION PTE LTD;02A-13/21 SINGAPORE;9X;32 SOMPANJANG DISTRIPARK BLK 1;\N
25928;COMET WHSE & DIST SERV LTD;BURNABY BC V5J 5L1;8X;7595 LOWLAND DRIVE;\N
25945;SUNRISE WHOLESALE EBEYE;EBEYE, MH;3Z;P O BOX 5689;96970
25994;NANLIEN INTERNATIONAL CORP;E.RD TAIPEI TAIWAN R;5W;12F 560 SEC 4 CHUNG HSIAO;00105
26105;NAVY EXCHANGE;GUAM;MH;\N;\N
26617;NAVY EXCHANGE;ICELAND;MK;0;00000
26618;FLEET & INDUST. SUPPLY CENTER;NORFOLK VA;MP;OCN TERM CEP201 9248 VIRGINIA;23511
26619;NAVY EXCHANGE;ROTA SPAIN;M3;0;00000
26621;NAVY EXCHANGE;NAPLES ITALY;M2;0;00000
26622;NAVY EXCHANGE;SIGONELLA SICILY;M2;0;00000
26711;MWR ATSUGI;ATSUGI JAPAN;M5;\N;\N
26712;NAVY EXCHANGE;SASEBO JAPAN;M5;\N;\N
26713;NAVY EXCHANGE;YOKOSUKA JAPAN;M5;\N;\N
26714;M C A F EXCHANGE;IWAKUNI, JAPAN;M5;\N;\N
26719;NAVY EXCHANGE;NORTH WEST CAPE AUST;31;0;00000
26926;NAVY SHIP STORES;BAHRAIN;M8;\N;00000
30134;ADAMS BEVERAGES LLC;DOTHAN AL;AL;3116 JOHN D ODOM RD;36303
30166;BAMA BUD OF MONTGOMERY INC;MONTGOMERY AL;AL;1700 EMORY FOLMAR BLVD.;36110
30183;BAMA BUDWEISER OF SELMA INC;SELMA AL;AL;112 CRAIG INDUSTRIAL PARK;36701
30192;HORN BEVERAGE COMPANY INC;TROY AL;AL;104 INDUSTRIAL BLVD;36081
30248;ROMER BEVERAGE COMPANY;LAKE HAVASU AZ;AZ;5040 WHELAN DR;86404
30295;ROMER BEVERAGE OF YUMA, LLC;YUMA AZ;AZ;536 E 20TH ST;85365
30400;BIAGI BROS WAREHOUSE;BENICIA CA;CA;650 STONE RD;94510
30414;ALFORD DISTRIBUTING COMPANY;IMPERIAL CA;CA;344 CROWN CT;92251
30420;HARBOR DISTRIBUTING;ANAHEIM CA;CA;1625 SO. LEWIS STREET;92805
30424;W. A. THOMPSON;BARSTOW CA;CA;25538 W. MAIN STREET;92311
30428;HARALAMBOS BEVERAGE CO.;EL MONTE CA;CA;2300 PELLISSIER PLACE;91734
30438;W. A. THOMPSON;LANCASTER CA;CA;45819 N. DIVISION STREE;93584
30448;BAY AREA DISTRIBUTING;RICHMOND CA;CA;1061 FACTORY ST;94801
30455;PACIFIC BEVERAGE CO;SANTA MARIA CA;CA;900 FAIRWAY DR;93455
30457;PACIFIC BEVERAGE COMPANY;OXNARD CA;CA;401 DEL NORTE BLVD.;93030
30466;MESA DISTRIBUTING CO INC;SAN DIEGO CA;CA;8870 LIQUID COURT;92121
30492;PACIFIC BEVERAGE CO;SANTA BARBARA CA;CA;5305 EKWILL ST;93111
30495;SUN VALLEY BEVERAGE INC;YUMA AZ;CA;536 E 20TH ST;85365
30500;ANHEUSER-BUSCH INC;FORT COLLINS CO;CO;2351 BUSCH DR;80524
30700;FORDHAM BREWING COMPANY;DOVER DE;DE;1284 MC D DRIVE;19901
30900;ANHEUSER-BUSCH INC;JACKSONVILLE FL;FL;111 BUSCH DRIVE;32218
30910;MIRIAM METZGER;NORTH MIAMI BEACH FL;FL;3745 NE 171 STREET SUITE 70;33160
30920;JACKSONVILLE DC;JACKSONVILLE FL;FL;1 DISTRIBUTION CENTER DRIVE;32218
30922;CITY BEVERAGES LTD PARTNERSHIP;ORLANDO FL;FL;10928 FLORIDA CROWN DRIVE;32824
30958;TRI-EAGLE SALES;MIDWAY FL;FL;545 RIVER BIRCH RD;32343
31000;ANHEUSER-BUSCH INC;CARTERSVILLE GA;GA;100 BUSCH DR NE;30121
31010;WORLD DISTRIBUTION SERVICES;POOLER GA;GA;100 MORGAN LAKES BLVD;31332
31090;JOHNSON DISTRIBUTING CO;VALDOSTA GA;GA;4571 N VALDOSTA RD;31602
31200;GOOSE ISLAND BREWERY;CHICAGO IL;IL;603 N SACRAMENTO BLVD;60612
31225;B & G VENEGONI DIST INC;CHRISTOPHER IL;IL;850 HIGHWAY 14 W;62822
31301;HEDINGER BEVERAGE DIST;JASPER IN;IN;950 S SAINT CHARLES ST;47546
31325;WORKING DISTRIBUTORS INC;EVANSVILLE IN;IN;2800 DIEGO DR;47715
31507;DEMO DISTRIBUTORS INC;INDEPENDENCE KS;KS;709 N 20TH ST;67301
31545;WIL FISCHER DIST OF KS, LLC;LENEXA(KAN CITY) KS;KS;17501 W 98TH ST #1849;66219
31549;OMALLEY BEVERAGE OF KS INC;LAWRENCE KS;KS;2050 PACKER CT;66044
31566;CRAWFORD SALES COMPANY;OLATHE KS;KS;1377 S HAMILTON CIR;66061
31636;EDWARD UTLEY JR INC;HENDERSON KY;KY;453 US HWY 41A;42420
31666;STANDARD SALES COMPANY LP;OWENSBORO KY;KY;4221 AIRPARK DR;42301
31712;MOCKLER BEVERAGE COMPANY;BATON ROUGE LA;LA;11811 REIGER RD;70809
31804;MAINE DISTRIBUTORS;BANGOR ME;ME;5 COFFEY ST;04401
31891;VALLEY BEVERAGE;OAKLAND ME;ME;534 BELGRADE RD;04963
32000;SUFFOLK TRANSPORTATION CO INC;SHIRLEY MA;MA;100 AYER ROAD;01464
32001;CISCO BREWERS;NANTUCKET MA;MA;5 BARTLETT FARM ROAD;02554
32005;TIGHE WAREHOUSING & DIST.;WOBURN MA;MA;481 WILDWOOD AVE;01801
32104;ATLAS SALES INC;BATTLE CREEK MI;MI;2955 W COLUMBIA AVE;49015
32108;SOUTH END BEVERAGES INC;ST JOSEPH MI;MI;200 HAWTHORNE AVE;49085
32112;BUD DISTRIBUTING INC;DOWAGIAC MI;MI;52322 M-51 NORTH;49047
32128;WEST SIDE BEER DISTRIBUTING;GRAND RAPIDS MI;MI;5401 CORPORATE GROVE DR SE;49512
32140;MERVENNE BEVERAGE INC;HOLLAND MI;MI;4209 M-40;49423
32143;WEST SIDE BEER DISTRIBUTING;KALAMAZOO MI;MI;1480 S 11TH ST;49009
32148;LUDINGTON BEVERAGE CO INC;LUDINGTON MI;MI;816 N WASHINGTON AVE;49431
32156;TYLER SALES CO INC;MUSKEGON HEIGHTS MI;MI;2100 PARK STREET;49444
32200;COLD SPRING BREWING CO;COLD SPRING MN;MN;115 11TH STREET NE;56320
32210;COLD SPRING BREWING CO (CBA);COLD SPRING MN;MN;115 11TH STREET NE;56320
32352;SOUTHWEST DISTRIBUTORS INC;SUMMIT MS;MS;1036 GORDON-COVINGTON RD;39666
32366;SOUTHWEST DISTRIBUTORS INC;NATCHEZ MS;MS;101 HIGH ST;39120
32405;BAS BESSELINK;CLAYTON MO;MO;306 DEMUN AVENUE;63105
32406;RAYMOND HILL;ST LOUIS MO;MO;6439 PLYMOUTH AVE STE 108;63133
32408;KINKHORST BRUNSWICK DIST CO;BRUNSWICK MO;MO;1065 E BROADWAY ST;65236
32437;GOLDEN EAGLE DISTRIBUTING CO;HANNIBAL MO;MO;9669 HIGHWAY 168;63401
32441;COUNTY BEVERAGE COMPANY INC;LEES SUMMIT MO;MO;1290 SE HAMBLEN RD;64081
32459;MISSOURI EAGLE LLC-LEBANON;LEBANON MO;MO;242 HWY MM;65536
32463;UNITED BEVERAGE CO, LLC;KANSAS CITY MO;MO;1903 WOODLAND AVE;64108
32464;NORTH K C BEVERAGE CO INC;NORTH KANSAS CITY MO;MO;203 E 11TH AVE;64116
32465;KREY DISTRIBUTING COMPANY;SAINT PETERS MO;MO;150 TURNER BLVD;63376
32466;MISSOURI EAGLE LLC-NEVADA;NEVADA MO;MO;HIGHWAYS 71 & K;64772
32479;O'MALLEY BEVERAGE INC;ST JOSEPH MO;MO;1601 N WOODBINE RD;64506
32486;WIL FISCHER DISTRIBUTING CO;SPRINGFIELD MO;MO;3539 W FARM ROAD 142;65807
32496;GREAT RIVERS DIST CO INC;POMONA MO;MO;4232 ODC 1060;65789
32682;HIGH PLAINS BUDWEISER;SCOTTSBLUFF NE;NE;2810 AVENUE M;69361
32700;STARBUCKS COFFEE COMPANY;MINDEN NV;NV;2525 STARBUCKS WAY;89423
32711;NEVADA BEVERAGE CO;LAS VEGAS NV;NV;3940 W TROPICANA AVE;89103
32712;NEVADA BEVERAGE CO;LAS VEGAS NV;NV;4250 E CHEYENNE AVE;89115
32950;A-B SALES OF NEW JERSEY LLC;JERSEY CITY NJ;NJ;101 LINDEN AVE E;07305
32960;NORTHERN EAGLE BEVERAGE CO;CARLSTADT NJ;NJ;600 16TH ST;07072
32961;NORTHERN EAGLE BEV-E COAST WHS;ELIZABETH NJ;NJ;1140 POLARIS STREET;07201
33000;NEW MEXICO WHSLR SUPPORT CTR;ALBUQUERQUE (WSC) NM;NM;4321 YALE BLVD NORTH EAST;87107
33104;SANZO BEVERAGE CO INC;OLEAN NY;NY;3165 ROUTE 16 N;14760
33105;BLUE POINT BREWING CO. INC.;PATCHOGUE NY;NY;225 W. MAIN ST.;11722
33107;TRY-IT DISTRIBUTING CO INC;LANCASTER NY;NY;4155 WALDEN AVE;14086
33148;TRY-IT NORTH DIST INC;SANBORN NY;NY;6120 LENDELL DR;14132
33159;SANZO BEVERAGE CO INC;OLEAN NY;NY;3165 ROUTE 16 N;14760
33200;WESTERN NC WHSLR SUPPORT CTR;GREENSBORO (WSC) NC;NC;1620 FAIRFAX ROAD;27407
33210;STANDARD DISTRIBUTORS INC;GASTONIA NC;NC;1801 SPENCER MOUNTAIN RD;28054
33213;ADAMS BEVERAGES OF NC LLC;CHARLOTTE NC;NC;7505 STATESVILLE RD;28269
33237;R H BARRINGER DIST CO INC;HICKORY NC;NC;1613-B MAIN AVENUE DR NW;28601
33245;R H BARRINGER DIST CO INC;LINWOOD NC;NC;125 SEVEN OAKS DR;27299
33273;RA JEFFREYS DIST CO LUMBERTON;ROCKINGHAM NC;NC;226 AIRPORT ROAD;28379
33274;SILVER EAGLE LLC;SALISBURY NC;NC;425 AIRPORT ROAD;28147
33281;FOX DISTRIBUTING CO;SHELBY NC;NC;607 WEST GROVER ST;28150
33441;PDI OF IRONTON INC;IRONTON OH;OH;1322 S 2ND ST;45638
33496;R L LIPTON DISTRIBUTING LLC;AUSTINTOWN OH;OH;425 VICTORIA RD;44515
33500;ANHEUSER-BUSCH, INC;OKLAHOMA CITY, OK;OK;4701 WEST POINT BLVD.;73179
33600;WESTERN BEVERAGE COMPANY;PORTLAND OR;OR;18300 NE PORTAL WAY;97230
33620;LQD - BEND BREWERY;BEND OR;OR;62950 NE 18TH STREET;97701
33700;EASTERN PA WSLR SUPPORT CENTER;HARRISBURG, PA;PA;905 KATIE COURT;17109
33710;DEBLASIO BEVERAGE CO INC;CANONSBURG PA;PA;1 DEBLASIO DR;15317
33742;VON'S UNITED BEVERAGE INC;JOHNSTOWN PA;PA;675 GALLERIA DR EXT;15904
33768;FUHRER EAGLE SALES AND SERVICE;PITTSBURGH PA;PA;3100 E CARSON ST;15203
33787;LA RUSSE DISTRIBUTING CO INC;TARENTUM PA;PA;100 LA RUSSE BLVD;15084
33916;K W ASSOCIATES LLC;COLUMBIA SC;SC;825 BLUFF RD;29201
33917;B & B DISTRIBUTORS INC;ROCK HILL SC;SC;1600 PORTER RD;29730
33979;MIDCAROLINA BEVERAGE LLC;ORANGEBURG SC;SC;685 SPRINKLE AVE;29115
34100;COOKEVILLE TN REPACK CTR;COOKEVILLE TN;TN;3353-A ENTERPRISE DRIVE;38502
34200;KARBACH BREWERY;HOUSTON (KARBACH) TX;TX;2032 KARBACH STREET;77092
34206;BROWN DISTRIBUTING COMPANY LTD;AUSTIN TX;TX;8711 JOHNNY MORRIS RD;78724
34238;BROWN DISTRIBUTING COMPANY LTD;SAN MARCOS TX;TX;924 BUGG LANE;78666
34254;BEN E KEITH COMPANY;LLANO TX;TX;1604 BESSEMER AVE;78643
34271;STANDARD SALES CO LP-SAN ANGEL;SAN ANGELO TX;TX;3639 S JACKSON ST;76904
34284;MCLANE COMPANY;TEMPLE TX;TX;4747 MCLANE PARKWAY;76504
34286;BROWN DISTRIBUTING COMPANY LTD;TAYLOR TX;TX;14201 HWY 79;76574
34400;DRINKWORKS WILLISTON;WILLISTON VT;VT;687 MARSHALL AVE, SUITE 150;05495
34500;VIRGINIA DC;COLONIAL HEIGHTS VA;VA;1700 RUFFIN MILL RD;23834
34501;VIRGINIA DC (PRIME);COLONIAL HEIGHTS VA;VA;1700 RUFFIN MILL RD;23834
34600;REDHOOK ALE BREWERY;WOODINVILLE WA;WA;14300 N E 145TH STREET;98072
34712;SPRIGGS DISTR CO CENTRAL DIV;SOUTH CHARLESTON WV;WV;1 CHILDRESS PLACE;25309
34729;MOUNTAIN EAGLE INC;BEAVER WV;WV;559 INDUSTRIAL PARK RD;25813
34732;THE AMERICAN BEER COMPANY;SMOOT WV;WV;1665 SMOOT ROAD;24977
34734;SPRIGGS DISTR CO WEST DIV;HUNTINGTON WV;WV;140 3RD AVE W;25701
34765;SPRIGGS DISTR CO CENTRAL DIV;PARKERSBURG WV;WV;38 EAST DRY RUN ROAD;26104
34796;SPRIGGS DISTR CO WEST DIV;WILLIAMSON WV;WV;100 SYCAMORE PL., RT. 52 SO.;25661
34800;GNC-GALLO FULFILLMENT;RACINE WI;WI;3600 SOUTH MEMORIAL DR;53403
34848;S & S DISTRIBUTING INC;SPARTA WI;WI;2000 RILEY RD;54656
34854;WDI LLC;SUN PRAIRIE WI;WI;900 PROGRESS WAY;53590
34880;FLANIGAN DISTRIBUTING;STURGEON BAY WI;WI;5600 GORDON RD;54235
34911;QUALITY BRANDS DIST LLC;CASPER WY;WY;505 N CENTER ST;82601
34916;QUALITY BRANDS DIST LLC;CHEYENNE WY;WY;1111 DUNN AVE;82001
34948;SMITH BEVERAGES;LARAMIE WY;WY;105 E CLARK ST;82072
35906;GOMALAR S A, RAFAEL PEREZ DEL;MALDONADO, URUGUAY;9O;PUERTO ESQ., CALLE NUEVA;00000
35912;CHACALLI DE DECKER N.V.;B-2550 WAARLOOS;9Y;MICHEL GEYSEMANSSTRAAT 3;00000
35913;SAG CIUDAD VICTORIA;CIUDAD VICTORIA;8T;CARRETERA-MATAMOROS KM 3.474;A7080
35914;B&C BEVERAGE DISTRIBUTORS N.V.;ST MAARTEN;8E;MILLS BLDG. ROSES RD #1;\N
35920;BIBBY DISTRIBUTION LTD;BICESTER OXON OX26;1;CHARBRIDGE WAY E PERIMETER RD;4ST
35933;LUEN HENG F&B SDN BHD;KUALA LUMPUR MALAYSI;5Z;8 JALAN KILANG MIDAH;56000
35936;BRINDCO SALES LIMITED;NEW DELHI INDIA;5K;S-53 OKHLA INDUS AREA PHASE 11;11020
35938;QATAR DISTRIBUTION COMPANY;DOHA, QATAR;4I;HAMAD - QAHMD;\N
35943;WHITE STORES CO., W.L.L.;SAFAT KUWAIT;4F;STREET 13, PLOT NO. 91;13036
35944;OAKLAND ARMY BASE;MARSHALL ISLANDS;3M;C/O KWAJALEIN;00000
35953;KIRIN BREWERY COMPANY, LIMITED;TOKYO PORT, JAPAN;5I;4-10-2 NAKANO CENTRAL PARK STH;\N
35954;KIRIN BREWERY COMPANY, LIMITED;KOBE PORT JAPAN;5I;\N;\N
35955;KIRIN BREWERY COMPANY, LIMITED;TOKYO(YOKOHAMA PORT);5I;4-10-2 NAKANO, NAKANO-KU;JAPAN
35956;KIRIN BREWERY CO, LTD - JAPAN;YOKOHAMA PORT;5I;\N;\N
35960;TUBORG - FREDERICIA;FREDERICIA DENMARK;6H;VESTRE RINGVEJ 111;07000
35961;BREWERY EGILL SKALLAGRIMSSON;130 REYKJAVIK ICELAN;6N;GRJOTHALSI 7 - 11;\N
35966;COLOR LINE INDKOB & DISTRIBUTI;DENMARK;9Z;NIELS JUELSVEG 6,9850 HIRTSHAL;\N
35967;GEBR.SCHOEMAKER GMBH & CO;BREMEN-F.R.GERMANY;9Z;INGOLSTADTER STR 4 D-28219;\N
35968;S A DAMM;08025 BARCELONA;6X;CALLE ROSSELLO 515;SPAIN
35970;TACA;EL SALVADOR;8Q;AEROPUERTO INTERNACIONAL DE;\N
35971;AV LOPEZ PORTILLO SM 98;77537 CANCUN QUANTAN;8T;MANZANA 50 LOTE 01;A ROO
35976;MANUEL ACUNA 520, SUR;ACUNA, COAHUILA;8T;ZONA CENTRO, 26200 CIUDAD;\N
35978;WH CHIHUAHUA;CIUDAD JUAREZ;8T;AVENIDA TECNOLOGICO 7425KM;21503
35979;SAG SAN PABLO;TLALNEPANTLA;8T;AV. CULTURA ROMANA #1;\N
35980;SAG CIUDAD OBREGON;CIUDAD OBREGON;8T;CARRETERA INTERNACIONAL 2050;\N
35981;DIST. CHIHUAHUA;CHIHUAHUA;8T;AV.ZARAGOZA 3900.FRACCIONAMIEN;\N
35982;SAG ENSENADA;ENSENADA;8T;CARRETERA TRANSPENINSULAR 3824;22880
35987;CERVEZA CORONA DE GUADALAJARA;GUADALAJARA, JALISCO;8T;J RUIZ ALARCON 657 JARDINE BOS;44520
35988;SAG HERMOSILLO;HERMOSILLO;8T;BOULEVARD SOLIDARIDAD;83280
35990;SAG MATAMOROS;MATAMOROS;8T;CARRETERA A REYNOSA 55;21503
36331;MWR;PANAMA;MZ;\N;\N
36430;CONSOLIDATED CLUB THULE AB;MCGUIRE AFB NJ;9V;MATCO BUILDING 1702;08641
36713;NAF/MWR CLARK AFB;SUBIC, PHILIPPINES;3H;\N;\N
36742;KADENA OFFICERS OPEN MESS;KADENA, OKINAWA;M7;\N;\N
36745;CFAO PSC 480 CODE 45;FPO AP;M7;BLDG 3578, NAF KADENA;96370
36750;374 SPTG/SVFL;APO AP;M5;UNIT 5119;96328
36781;C P BUTLER C L SYS COM O;CAMP BUTLER, OKINAWA;M7;CAMP BUTLER;00000
36933;CDC WAKE ISLAND LAUNCH FACILIT;WAKE ISLAND;ML;BLDG 1402;96819
40400;DELTA SIERRA BEVERAGE LLC;STOCKTON CA;CA;3932 BUDWEISER CT;95215
40410;MORRIS DISTRIBUTING;PETALUMA CA;CA;454 PAYRAN STREET;94952
40429;KU SOJU INC;LAGUNA HILLS CA;CA;23601 RIDGE ROUTE DRIVE STE B;92653
40435;EL RAY DISTRIBUTING CO *;AMERICAN CANYON CA;CA;5555 HWY 29;94589
40437;MARKSTEIN BEV CO OF SACRAMENTO;FAIRFIELD CA;CA;2450 CORDELIA ROAD;94534
40439;PACIFIC BEVERAGE CO;SIMI VALLEY CA;CA;51 W EASY ST;93065
40451;DONAGHY SALES LLC;MODESTO CA;CA;3700 FINCH RD;95357
40455;DONAGHY SALES LLC;MODESTO CA;CA;736 MARIPOSA BLDG E;95357
40467;PACIFIC BEVERAGE CO;SANTA MARGARITA CA;CA;22255 EL CAMINO REAL (G STREET;93453
40484;SIERRA BEVERAGE COMPANY;SOULSBYVILLE CA;CA;20071 SOULSBYVILLE ROAD;95372
40493;EAGLE DISTRIBUTING CO;SANTA ROSA CA;CA;5463 SKYLANE BLVD;95403
40497;EL RAY DISTRIBUTING CO *;CLEARLAKE CA;CA;7140 HWY 53;95422
40500;A-BI C/O HYDRA WAREHOUSE;FORT COLLINS CO;CO;3620 WEICKER DRIVE;80524
40689;DICHELLO DISTRIBUTORS INC;ORANGE CT;CT;55 MARSH HILL RD;06477
40705;WIDMER BROTHERS BREWING-DOVER;DOVER DE;DE;1284 MC D DRIVE;19901
40800;ANHEUSER-BUSCH INC;WASHINGTON, DC (WSC);DC;2815 V STREET NE;20018
40900;NORTHERN FLORIDA WHSLR SUP CTR;LAKE CITY (WSC), FL;FL;467 SOUTHWEST RING COURT;32025
40901;GREAT BAY DISTRIBUTORS INC;ST PETERSBURG FL;FL;9701 28TH ST NORTH;33716
40902;GREAT EAGLE INC;LARGO FL;FL;2510 STARKEY ROAD;33771
40908;PEPIN DISTRIBUTING COMPANY;TAMPA FL;FL;4121 N 50TH ST;33610
40910;ISLAMORADA BEER COMPANY;FORT PIERCE FL;FL;3200 ST LUCIE BLVD;34946
40915;GREAT BAY DISTRIBUTORS INC;HOLIDAY FL;FL;3221 GRAND BLVD;34690
40919;BERNIE LITTLE DISTRIBUTORS INC;EATON PARK FL;FL;4105 MAINE AVENUE;33840
40920;BERNIE LITTLE DIST INC-SEBRING;SEBRING FL;FL;8049 ASSOCIATE BLVD;33876
40924;TRI-EAGLE SALES;OCALA FL;FL;1314 SW 17TH ST;34471
40925;PEACE RIVER DISTRIBUTING;PUNTA GORDA FL;FL;9400 PIPER ROAD;33982
40940;GOLD COAST EAGLE DIST LLLP;SARASOTA FL;FL;5394 COMMUNICATION PARKWAY;34240
40961;VETERANS ADMINISTRATION HOSP;TAMPA FL;FL;13000 NORTH 30TH ST;33612
40979;SOUTHERN EAGLE DIST INC;FORT PIERCE FL;FL;5300 GLADES CUT OFF ROAD;34981
40990;SEA WORLD OF FLORIDA INC;ORLANDO FL;FL;7007-B SEA WORLD DRIVE;32821
40993;BROWN DISTRIBUTING CO INC;WEST PALM BEACH FL;FL;1300 ALLENDALE ROAD;33405
40998;DAS FEST HAUS - BUSCH ENT CORP;TAMPA FL;FL;3000 AUGUST A BUSCH BLVD;33604
41005;PFLUG PACKAGING;KENNESAW GA;GA;2850 BARRETT LAKES;30144
41103;STEIN DISTRIBUTING CO INC;BOISE ID;ID;601 NORTH PHILLIPPI;83706
41200;LAKESHORE BEVERAGE (ARL HGHTS);ARLINGTON HEIGHTS IL;IL;1401 E ALGONQUIN RD;60005
41202;LAKESHORE BEVERAGE (HALSTED);CHICAGO IL;IL;4300 S HALSTED ST;60609
41231;G & M DISTRIBUTORS INC;DIXON IL;IL;1425 FRANKLIN GROVE RD;61021
41240;GOLDEN EAGLE DISTRIBUTING LLC;MARION IL;IL;2713 MERCHANT ST;62959
41272;RINELLA COMPANY INC;QUINCY IL;IL;2001 SEMINARY RD;62301
41273;LAMONICA BEVERAGES INC;LOVES PARK IL;IL;4060 ROCK VALLEY PKWY;61111
41380;AALCO DISTRIBUTING CO INC;FORT WAYNE IN;IN;4701 W WASHINGTON CENTER RD;46818
41395;DEKALB DISTRIBUTING CO INC;AVILLA IN;IN;201 NICHOLAS PLACE;46710
41668;GOLDEN EAGLE DISTRIBUTING INC;PADUCAH KY;KY;5235 CHARTER OAK DR;42001
41732;SCHILLING DISTRIBUTING CO, LLC;LAFAYETTE LA;LA;2901 MOSS ST;70501
41826;VALLEY BEVERAGE;LEWISTON ME;ME;2075 LISBON ROAD;04240
41865;NATIONAL DISTRIBUTORS INC;SOUTH PORTLAND ME;ME;116 WALLACE AVE;04106
41901;KATCEF BROTHERS INC;ANNAPOLIS MD;MD;2404 A AND EAGLE BLVD;21401
41902;CHESAPEAKE BEVERAGE;NOTTINGHAM MD;MD;10000 FRANKLIN SQUARE DRIVE;21236
41905;SENTMAN DISTRIBUTORS INC;ELKTON MD;MD;400 MALONEY RD;21921
41908;KELLY DISTRIBUTORS LLC;EASTON MD;MD;7916 INDUSTRIAL PARK RD;21601
41916;THE BEES DISTRIBUTING CO INC;FINKSBURG MD;MD;2920 DEDE ROAD;21048
41922;EASTERN SHORE DISTRIBUTING LTD;SALISBURY MD;MD;811 SNOW HILL RD;21804
42001;KLIN SPIRITS;TEWKSBURY MA;MA;558 CLARK ROAD;01876
42137;PISANI COMPANY;IRONWOOD MI;MI;1551 E COMMERCE ST;49938
42138;DANIEL L JACOB & CO INC;JACKSON MI;MI;2403 EAST HIGH ST;49203
42146;WEST SIDE BEER DISTRIBUTING;LANSING MI;MI;3901 S CREYTS RD;48917
42200;HYDRA WAREHOUSE FORT COLLINS;FORT COLLINS CO;CO;3620 WEICKER DR;80524
42233;COCA COLA BTLG CO INC;INTERNATIONAL FLS MN;MN;1300 INDUSTRIAL AVE;56649
42247;DICK DISTRIBUTING CO INC;GRAND RAPIDS MN;MN;1303 SEVENTH ST N E;55744
42248;SUNNY HILL DISTRIBUTORS INC;HIBBING MN;MN;4518 BURTON RD;55746
42411;N H SCHEPPERS DIST CO;COLUMBIA MO;MO;1306 HATHMAN PL;65201
42446;N H SCHEPPERS DIST CO;JEFFERSON CITY MO;MO;2300 SAINT MARYS BLVD;65109
42470;WIL FISCHER DIST POPLAR BLUFF;POPLAR BLUFF MO;MO;432 E OUTER RD;63901
42471;RIVER EAGLE DISTRIBUTING CO;CAPE GIRARDEAU MO;MO;2346 RUST AVE;63702
42482;COUNTY DISTRIBUTING CO INC;SEDALIA MO;MO;1800 EAGLEVIEW DR;65301
42483;BOB RALPH DIST CO INC;SIKESTON MO;MO;115 LARCEL DR;63801
42704;BLACH DISTRIBUTING CO;ELKO NV;NV;131 W MAIN ST;89801
42705;BLACH DISTRIBUTING CO;EAST ELY NV;NV;U S HWY 93;89301
42709;CAPITAL BEVERAGES INC;CARSON CITY NV;NV;2333 FAIRVIEW DRIVE;89701
42720;MORREY DISTRIBUTING CO;SPARKS NV;NV;1850 E LINCOLN WAY;89434
42723;VALLEY DISTRIBUTORS INC;FALLON NV;NV;880 EAST FRONT ST;89406
42725;L W PERALDO CO INC;WINNEMUCCA NV;NV;340 E NATIONAL AVE;89445
42800;CRAFT BREW ALLIANCE;PORTSMOUTH NH;NH;1 REDHOOK WAY;03801
42804;NEW HAMPSHIRE DISTRIBUTORS INC;BERLIN NH;NH;92 JERICHO ROAD;03570
42900;KUEHNE & NAGEL;CRANBURY NJ;NJ;324 HALF ACRE RD, SUITE B;08512
42907;RITCHIE & PAGE DIST CO INC;MANASQUAN NJ;NJ;2301 ATLANTIC AVE;08736
42917;HIGH GRADE BEVERAGES;RANDOLPH NJ;NJ;86 CANFIELD AVE;07869
42942;HIGH GRADE BEVERAGE CO;MONMOUTH JUNCTION NJ;NJ;891 OLD GEORGES ROAD;08852
43100;ANHEUSER-BUSCH INC;BRONX NY;NY;550 FOOD CENTER DR;10474
43105;ECW FOR LIC;ELIZABETH NJ;NY;1140 POLARIS STREET;07201
43121;CLARE ROSE INC;MELVILLE NY;NY;255 PINELAWN RD;11747
43122;UNION BEER DISTRIBUTORS;SECAUCUS NJ;NY;46 MEADOWLANDS PARKWAY;07094
43154;DANA DISTRIBUTORS INC;GOSHEN NY;NY;52 HATFIELD LN;10924
43163;D. BERTOLINE & SONS INC;PEEKSKILL NY;NY;7 JOHN WALSH BLVD;10566
43168;CLARE ROSE INC;EAST YAPHANK NY;NY;100 ROSE EXECUTIVE BLVD;11967
43190;R. IPPOLITO DISTRIBUTING LLC;STATEN ISLAND NY;NY;4865 ARTHUR KILL RD;10309
43200;EASTERN NC WSLR SUPP CTR;LUMBERTON (WSC) NC;NC;797 CATON ROAD;28358
43213;BEALER WHOLESALE INC;MONROE NC;NC;3509 OLD CHARLOTTE HWY;28110
43231;ADAMS BEVERAGES OF NC LLC;GOLDSBORO NC;NC;2026 US HIGHWAY 70 W;27530
43232;ADAMS BEVERAGES OF NC LLC;LUMBERTON NC;NC;797 CATON ROAD;28360
43233;CAROLINA EAGLE DIST INC;GREENVILLE NC;NC;1950 N GREENE ST;27834
43234;ADAMS BEVERAGES OF NC LLC;POLLOCKSVILLE NC;NC;160 HUGHES FARM ROAD;28573
43264;RA JEFFREYS DIST OF NEW BERN;GOLDSBORO NC;NC;2026 HIGHWAY 70 WEST;27530
43272;CAROLINA EAGLE DIST INC;ROCKY MOUNT NC;NC;3231 N WESLEYAN BLVD;27804
43293;HARRIS WHOLESALE INC WILSON;RALEIGH NC;NC;420 CIVIC BLVD;27610
43400;ANHEUSER-BUSCH INC;COLUMBUS OH;OH;800 SCHROCK ROAD;43229
43458;CLASSIC BRANDS ATHENS;ALBANY OH;OH;6441 WOODBROOK RD;45710
43612;STEIN DISTRIBUTING CO INC;ONTARIO OR;OR;371 SE 12TH AVE;97914
43700;ERIE PA. WHSLR SUPPORT CTR;ERIE (WSC), PA;PA;812 WEST 14TH STREET;16502
43701;PA LIQUOR CONTROL BOARD;GREENVILLE PA;PA;668 GRAVEL PIKE SUITE 500;18041
43720;RESORT BEVERAGE CO INC;TANNERSVILLE PA;PA;2903 RT 611;18372
43763;FALCONE BEVERAGE COMPANY INC;PITTSTON PA;PA;1000 S TOWNSHIP BLVD;18640
43782;EDWIN H KLECKNER INC;MONTANDON PA;PA;RAILROAD & CHILLISQUAQUE ST;17850
43925;SOUTHERN CROWN PARTNERS LLC;FLORENCE SC;SC;916 W DARLINGTON ST;29501
43926;BETTER BRANDS INC;MYRTLE BEACH SC;SC;908 JACKSON ST;29577
43975;SOUTHERN CROWN PARTNERS LLC;ORANGEBURG SC;SC;685 SPRINKLE AVE;29115
44100;PREMIER PACKAGING;MEMPHIS TN;TN;4013 PREMIER AVENUE;38118
44115;TARVER DISTRIBUTING CO INC;CHARLESTON TN;TN;RT 1 BOX 68 HWY 11;37310
44121;CLARK DISTRIBUTING CO INC;DYERSBURG TN;TN;1300 HWY 51 BYPASS SOUTH;38024
44139;CENTRAL DISTRIBUTORS INC;JACKSON TN;TN;361 HWY 45 BY-PASS;38301
44149;VOLUNTEER DISTRIBUTING CO INC;DRESDEN TN;TN;1 VOLUNTEER PL;38225
44173;CARDIN DISTRIBUTING CO INC;PULASKI TN;TN;1219 W COLLEGE ST;38478
44200;STARBUCKS COFFEE COMPANY;GRAND PRAIRIE TX;TX;730 EAST TRINITY BLVD;75050
44207;DEL PAPA DISTRIBUTING CO INC;BEAUMONT TX;TX;410 INTERSTATE 10 S;77707
44223;L & F DISTRIBUTORS LLC;EL PASO TX;TX;6949 MARKET STREET;79915
44266;TRI-CITY DISTRIBUTORS LP;NEW BRAUNFELS TX;TX;523 FM 306;78130
44276;SILVER EAGLE BEVERAGES, LLC;SAN ANTONIO TX;TX;4609 US 90 ACCESS;78237
44280;HILL COUNTRY BUDWEISER INC;INGRAM TX;TX;510 HIGHWAY 27 EAST;78025
44292;BUDCO OF DEL RIO;DEL RIO TX;TX;111 LOWE DRIVE;78840
44300;UTAH WHSLR SUPPORT CTR;SALT LAKE CITY (WSC);UT;5350 W AMELIA EARHART DRIVE;84122
44305;INTERMOUNTAIN NUTRITION;PAYSON UT;UT;1851 WEST UTAH AVE;84651
44600;ELYSIAN BREWERY;SEATTLE WA;WA;5510 AIRPORT WAY S;98108
44716;BEVERAGE DISTRIBUTORS INC;CLARKSBURG WV;WV;200 FERRY ST;26301
44723;ELKINS DISTRIBUTING CO INC;ELKINS WV;WV;1001 S DAVIS AVE;26241
44725;VALLEY DIST CO OF FAIRMONT INC;FAIRMONT WV;WV;12TH ST & MINOR AVE;26554
44756;MONA SUPPLY CO INC;MORGANTOWN WV;WV;3214 EARL L CORE RD;26508
44787;PRESTON SILVER EAGLE CO;KINGWOOD WV;WV;551 E MAIN ST;26537
44800;OCTOPI BREWING CO;WAUNAKEE WI;WI;1131 UNIEK DRIVE;56597
44856;BEECHWOOD SALES & SERVICE;NEW BERLIN WI;WI;5350 S EMMER DR;53151
44872;LARRY'S DISTRIBUTING CO INC;SHEBOYGAN WI;WI;3815 PLAYBIRD RD;53083
44882;SUPERIOR BEVERAGES LLP;SUPERIOR WI;WI;12 RANDY JOHNSON ST;54880
44888;RIVER CITY DISTRIBUTING CO INC;WATERTOWN WI;WI;1224 CLARK ST;53094
44900;WYOMING WSLR SUPPORT CENTER;CASPER (WSC) WY;WY;505 NORTH CENTER;82601
44916;WYOMING LIQUOR DIVISION;CHEYENNE WY;WY;6601 CAMPSTOOL RD;82002
44947;FREMONT DISTRIBUTING;RIVERTON WY;WY;425 N BROADWAY AVE;82501
45901;CERVEZAS MODELO EN BC (MXL);MEXICALI;8T;AV FCO I MADERO Y JUSTO;21503
45902;SAG APODACA;APODACA;8T;CARRETERA MIGUEL ALEMAN #840;21503
45903;DIST. NOGALES;NAGALES;8T;CALLE ALVARO OBREGON 2656;\N
45904;SAG NUEVO LAREDO;NUEVO LAREDO;8T;CARRETERA NACIONAL KM 9;88000
45905;DIST. PIEDRAS NEGRAS;PIEDRAS NEGRAS;8T;CARRETERA 57 Y AVIACION S/N;26070
45906;SAG CD. REYNOSA;REYNOSA, TAMAULIPAS;8T;CARRETERA MATAMOROS KM. 205+80;21503
45907;SAG SAN LUIS RIO COLORADO;S.LUIS RIO COLORADO;8T;CARRETERA A SONORITA KM 7.5;21503
45908;SAG TIJUANA;TIJUANA BAJA CALIFOR;8T;BLVD INSURGENTES 20002 AZTECA;22224
45909;DIST. ALLENDE;CIUDAD ALLENDE;8T;CALLE BENITO JUAREZ 1400;26748
45910;SAG NAVOJOA;NAVOJOA;8T;CARRETERA A HUATABAMPL KM 3.5;85800
45916;SAG LOS CABOS;LOS CABOS;8T;CARR. TRANSPENINSULAR KM 3.5;23410
45917;SAG GUAYMAS;GUAYMAS;8T;CARR INTERNATIONAL KM 1982;85420
45918;SAG VALLARTA;JALISCO;8T;AV PALMA REAL #105 C GPE VRIA;48317
45919;ALBERTA LIQUOR BOARD;ST ALBERT T8N3T5;8X;50 CORRIVEAU AVENUE;CANAD
45923;CERVEZA CORONA EN LEON SA DE C;LEON GUANAJUATO;8T;BLVD ADOLFO LOPEZ MATEOS 2737;37510
45924;LENG VA COMPANY;MACAU;5C;140 RUA 5 DE QUTUBRO;\N
45927;BACARDI DOMINICANA SA;ESQ CALLE CEREZA RES;8I;AV PROLONGACION 27 DE FEBRERO;\N
45928;MT GAY DISTILLERIES LTD;BRANDONS,SPR GDN HWY;CB;BRIDGETOWN EXMOUTH GAP;\N
45929;SAG CABORCA;CABORCA;8T;AV. QUIROZ Y MORA # 129 NORTE;83600
45930;CAYMAN DISTRIBUTORS LTD;10025 NW 166 WAY ST2;CB;MAK FREIGHT C/O THOMAS LINE;33178
45931;LABATT MISSISSAUGA WAREHOUSE;MISSISSAUGA ONTARIO;8X;445 EXPORT BLVD;00000
45932;BACARDI DOMINICANA SA;ESQ CALLE CEREZA RES;CB;AV PROLONGACION 27 DE FEBRERO;\N
45933;BOMPRECO SUPERMERCADOS;IPUTINGA - RECIFE RE;9C;AV CAXANGA 3841;50670
45934;GITTENS;ST GEORGES, GRENEDA;CB;HALIFAX ST;\N
45936;CARIBBEAN PRODUCERS;FREEPORT JAMAICA;CB;1 GUINEP WAY;\N
45937;BROWAR ZYWIEC;ZYWIEC;6U;UL. BROWARNA 88;34300
45939;LHA FOOD & BEV PTE LTD;SINGAPORE 409579;5S;BLOCK 1008 #01-11 EUNOS AVE 7;\N
45941;A H RIISE SHIP CHANDLING;VANCOUVER BC;CB;1352 VERNON DRIVE;00000
45942;ANTILLEAN LIQUORS;PHILPSBRG ST MAARTEN;CB;W.G. BUNCAMPER RD;\N
45943;CARIBBEAN BOTTLERS LIMITED;TUNAPUNA TRINIDAD WI;9N;CHURCHILL ROOSEVELT HWY;\N
45944;WEST INDIES CORP;ST THOMAS USVI;CB;12-14 CONTANT;00802
45947;HARTS INTERNATIONAL RETAILERS;PO BOX 932D24 AJMAN;5G;OFFICE D37 AJMAN FREE ZONE;UAE
45948;ROADTOWN WHOLESALE;ROADTOWN BVI;CB;PASEA ESTATE;\N
45949;SUTL LAO CORPORATION LTD;VIENTIANE LOA PDR;5L;106 THONG KHANKHAM ROAD;99999
45950;ANGOSTURA LTD;LAVENTILLE, TRINIDAD;CB;EASTERN MAIN RD & TRINITY AVE;\N
45951;RINGNES SUPPLY COMPANY AS;HAGAN NORWAY;6T;BRYGGERIVEIEN 2;01481
45952;DISCOUNT LIQUOR LTD;PROVIDENCIALES,;CB;LEEWARD HIGHWAY MAIN OFFICE;\N
45953;WMS SUPERMERCADOS DO BRASIL LT;BRAZIL;9C;PORTO ALEGRE-CNPJ:93209765;\N
45954;PLAYA LIQUORS;ARUBA DC;CB;#5 ENGELANDSTRAAT;\N
45955;CARLSBERG SUPPLY SYSTEM;KERAVA FINLAND;6J;SINEBRYCHOFFINAUKIO 1;04250
45956;BACARDI & COMPANY LIMITED;NASSAU BAHAMAS;CB;1000 BACARDI RD;\N
45958;BRYDEN & SPROTT LIMITED;KINGSTOWN ST VINCENT;CB;0;\N
45959;HEINEKEN CANARIAS;LAS PALMAS CANARIA;7N;FRANCISCO GOURIE 12;35002
45961;B&B DISTRIBUTION LIMITED;BRIDGETOWN BARBARDOS;CB;NEWTON CHRIST CHURCH;\N
45963;LES BRASSEURS GMT INC;MONTREAL QUEBEC H2J;8X;5585 RUE DE LA ROCHE;3K3
45964;ALMACENES EXITO S.A.;ANTIOQUIA COLOMBIA;9E;CARRERA 48 NO 32 B SUR 139;\N
45966;CERVEZA CORONA EN AGUASCALIENT;AGUASCALIENTES;8T;BOULEVARD JOSE MARIA CHAVEZ;20290
45967;PROMOTORA COMERCIAL DEL BAJIO;CELAYA GTO;8T;AV MEXICO-JAPON # 100;38010
45968;CARRETERA MORELIA;BUENOS ARIES CP;8T;SALAMANCA NO 9300;58880
45969;LAS CERVEZAS MODELO DEL SUREST;MERIDA YUC;8T;CALLE 14 # 70 INTERIOR 1;97158
45970;LAS CERVEZAS MODELO EN ZACATEC;ZACATECAS ZAC;8T;CARRETERA A GUADALAJARA;98170
45971;LAS CERVEZAS MODELO EN VERACRU;VERACRUZ VER;8T;AV PASEO EJERCITO MEXICO;94298
45972;LAS CERVEZAS MODELO DEL NOREST;CIUDAD ALTAMIRA;8T;LIBRIMIENTO PONIENTE DE TAMPIC;89600
45973;CARRETERA A MEXICO Y ANILLO PE;SAN LUIS POTOSI SLP;8T;ZONA INDUSTRIAL;78395
45974;LAS CERVEZAS MODELO EN ELL PAC;MAZATLAN;8T;82165 BLVD LUIS DONALDO;82129
45976;TELFORD INTERNATIONAL CO LTD;YUEN LONG HONG KONG;5H;62 FUK HI STREET;\N
45977;A-B INBEV CHINA SALES CO LTD;WUHAN CHINA;5E;EINDUANKOU HAN YANG;\N
45978;CERVECERIA PANAMA S A;CALLE SANTA ROSA;8V;PARQUE INDUS SAN CRISTOBAL;\N
45979;GRACEWAY TRADING LTD;TURKS&CAICOS ISLANDS;8L;LEEWARD HIGHWAY PROVIDENCIALES;\N
45980;SAG CULIACAN;CULIACUN;8T;CALZ. AEROPUERTO KM. 7.5;80140
45981;SAG GUAMUCHIL;GUAMUCHOL;8T;CARR. INTERNACIONAL KM. 1524;81400
45982;CERVEZAS MODELO EN EL PACIFICO;GUASAVE, SIN.;8T;CARR. INTERNACIONAL KM 153.5;81000
45983;DIST. LOS MOCHIS;LOS MOCHIS;8T;PROL. BLVD. ROSALES 3045 NTE.;81210
45985;IMPULSORA MERCANTIL DE SALTILL;SALTILLO COAHUILA;8T;CARR SALTILLO-MONTERREY 6.115;25206
45986;MERCANTIL DE REYNOSA SA DE CV;COL.VILLA DEL MAR;8T;CALLE PUERTO DE CHETUMAL #175;88300
45987;COMERCIAL GUAJARDO DE MUZQUIZ;MUZQUIZ, COAH.;8T;PRESIDENTE JUAREZ NORTE 1404;26340
45988;IMPULSORA MERCANTIL DE SALTILL;SALTILLO;8T;CARR. DURANGO-TORREON KM 8.5;34208
45989;CERVEZAS MODELO EN MORELOS;CUERNAVACA, MOR.;8T;MADERO ESQ AUTO MEX-ACAPULCO;62370
45991;DIST. MODELO DE MONCLOVA S.A.;MONCLOVA, COAH.;8T;BLVD. H.R. PAPE 310;25710
45992;DIST. TORREON;TORREON;8T;CARRETERA TORREON-MATA;27000
45993;DE KIKVORSCH B.V.;DEEST THE NETHERLAND;6S;MUNNIKHOFSESTRAAT 21 6653AB;\N
45994;NANLIEN INTERNATIONAL CORP;E.RD TAIPEI TAIWAN R;5W;12F 560 SEC 4 CHUNG HSIAO;00105
45998;ABU DHABI MARITIME &MERCANTILE;ABU DHABI U.A.E.;2E;\N;00000
45999;SAG ECATEPEC;ECATEPEC;8T;AV. PORVENIR (R-1) NO. 82;55330
46710;CAMP ZAMA PKG. BEV. BRANCH;APO SAN FRANCISCO, C;M5;17TH AREA SUPPORT GROUP;96343
46718;M C A F EXCHANGE;IWAKUNI JAPAN;M5;\N;\N
50333;COCO DISTRIBUTING CO;HELENA AR;AR;1219 MARTIN LUTHER KING JR DR;72342
50334;ARKANSAS BEVERAGE SALES INC;VAN BUREN AR;AR;2520 A CO-OP DRIVE;72956
50363;C & C DISTRIBUTORS INC;NEWPORT AR;AR;101 SECOND ST;72112
50397;ARKANSAS DISTRIBUTING CO LLC;WEST MEMPHIS AR;AR;800 E BARTON AVE;72301
50400;WRDS - FULLERTON;FULLERTON CA;CA;1424 S. RAYMOND AVE;92831
50404;NOR-CAL BEVERAGE CO INC;W SACRAMENTO CA;CA;1955 CEBRIAN ST;95691
50405;NOR-CAL BEVERAGE CO INC;LOOMIS CA;CA;3171 SWETZER RD;95650
50406;BIAGI BROTHERS BURGUNDY PL;ONTARIO CA;CA;2001 BURGUNDY PLACE;91761
50407;R & S BEVERAGE COMPANY;BISHOP CA;CA;647 N MAIN ST;93514
50410;ADVANCE BEVERAGE CO INC;BAKERSFIELD CA;CA;5200 DISTRICT BLVD;93313
50426;GILLESPIE DISTRIBUTING CO;BISHOP CA;CA;486 LINE STREET;93514
50430;CLAYPOOL DISTRIBUTING;IMPERIAL CA;CA;102 CLAYPOOL DRIVE;92251
50436;SOUTH BAY BEVERAGE, INC.;SAN JOSE CA;CA;630 QUINN AVENUE;95112
50478;BLACH DISTRIBUTING LLC;SUSANVILLE CA;CA;474-340 COMMERCIAL WAY;96130
50486;EAGLE DISTRIBUTING CO;UKIAH CA;CA;975 MAZZONI ST;95482
50501;AB SALES OF SOUTHERN COLORADO;COLORADO SPRINGS CO;CO;4330 MARK DABLING BLVD;80907
50507;CENTRAL DISTRIBUTING CO;CLIFTON CO;CO;3244 F 1/2 RD;81520
50508;CURIOUS CORK IMPORTS, LLC;DENVER CO;CO;210 UNIVERSITY BLVD SUITE 200;80206
50512;COLORADO EAGLE LLC;PUEBLO CO;CO;130 GREENHORN DR;81004
50520;COLORADO EAGLE LLC;ALAMOSA CO;CO;5858 BUDWEISER DR;81101
50673;LEVINE DISTRIBUTING CO INC;NORWICH CT;CT;15 STOTT AVE;06360
50900;ANHEUSER-BUSCH, INC.;ORLANDO (WSC) FL;FL;10928 FLORIDA CROWN DRIVE;32824
50908;PEPIN DISTRIBUTING COMPANY;TAMPA FL;FL;4121 N 50TH ST;33610
51000;DMI;CARTERSVILLE GA;GA;46 KENT DRIVE;30120
51005;GATEWAY;CARTERSVILLE GA;GA;50 KENT DRIVE;30120
51140;WATKINS DIST, SALES & SERVICE;IDAHO FALLS ID;ID;5999 SOUTH ANDRUS DR;83402
51163;SOUTHERN IDAHO DISTRIBUTING;POCATELLO ID;ID;555 SOUTH 1ST AVE;83201
51177;SOUTHERN IDAHO DISTRIBUTING CO;SALMON ID;ID;618 N ST CHARLES;83467
51178;MASON DISTRIBUTING CO INC;SODA SPRINGS ID;ID;650 EAST 660 NORTH STREET;83276
51188;WATKINS DIST, SALES & SERVICE;IDAHO FALLS ID;ID;5999 SOUTH DOUG ANDRUS DRIVE;83402
51200;OZBURN-HESSEY LOGISTICS;EDWARDSVILLE IL;IL;4015 LAKEVIEW CORPORATE DR;62025
51227;EARL GAUDIO & SON INC;TILTON IL;IL;1803 GEORGETOWN RD;61833
51229;SKEFF DISTRIBUTING CO INC;DECATUR IL;IL;3585 ELA INDUSTRIAL DR;62521
51245;GOLDEN EAGLE ILLINOIS LLC;JACKSONVILLE IL;IL;449 S SANDY ST;62650
51264;RONCHETTI DISTRIBUTING CO;MATTOON IL;IL;2621 LAKELAND BOULEVARD;61938
51265;RONCHETTI DIST CO;NOKOMIS IL;IL;497 E BERTOLINO AVE;62075
51311;BEST BEERS, INC;BLOOMINGTON IN;IN;1100 S STRONG DR;47403
51317;BARTHOLOMEW COUNTY BEV CO INC;COLUMBUS IN;IN;840 DEPOT ST-COMMERCE PARK;47201
51338;BOONE BEVERAGE INC;LEBANON IN;IN;1350 W MAIN ST;46052
51341;ZINK DISTRIBUTING CO LLC;INDIANAPOLIS IN;IN;3150 SHELBY ST;46227
51344;GREENFIELD BEVERAGE CO INC;GREENFIELD IN;IN;1763 E MAIN ST;46140
51363;JAY COUNTY BEVERAGE;PORTLAND IN;IN;1008 N MORTON ST;47371
51397;TERRANCE A SMITH DISTR CO INC;ANDERSON IN;IN;2215 N MADISON AVE;46011
51600;VERST GROUP LOGISTICS;HEBRON KY;KY;2200 GATEWAY BLVD;41048
51733;SOUTHWEST BEVERAGE CO INC;LAKE CHARLES LA;LA;3860 BROAD STREET;70615
51866;MAINE DISTRIBUTORS;CARIBOU ME;ME;59 YORK STREET;04736
52001;PARALLEL PRODUCTS;NEW BEDFORD MA;MA;100 DUCHAINE BLVD;02745
52132;PETERLIN BROS CO INC;CALUMET MI;MI;55980 US HIGHWAY 41;49913
52160;PIKE DISTRIBUTORS INC;NEWBERRY MI;MI;401 EAST JOHN ST;49868
52162;FOUR SEASONS BEER DISTRIBUTORS;IRON MOUNTAIN MI;MI;462 EAST BREITUNG AVE;49802
52171;GRIFFIN BEVERAGE COMPANY;MARQUETTE MI;MI;400 RIVER PARK CIR;49855
52203;C&L DISTRIBUTING INC.;BAXTER MN;MN;13394 DOGWOOD DR;56425
52205;SUPERIOR BEVERAGES LLP;SUPERIOR WI;MN;12 RANDY JOHNSON ST;54880
52209;H BOYD NELSON INC;ALEXANDRIA MN;MN;3800 MINNESOTA ST;56308
52211;MADISON BOTTLING CO;MADISON MN;MN;2369 HWY 40 E;56256
52218;KUETHER DISTRIBUTING CO;FRIDLEY MN;MN;6982 HWY 65 NE;55432
52219;TOW DISTRIBUTING CORPORATION;MANKATO MN;MN;3100 3RD AVE;56001
52223;MC DONALD DIST CO;RUSH CITY MN;MN;1255 S FRANDSEN AVE;55069
52226;CAPITOL BEV SALES LTD PTNRSHIP;FRIDLEY MN;MN;6982 HIGHWAY 65 NE;55432
52227;CAPITOL CITY DIST CO INC;ST PAUL MN;MN;295 STATE ST;55107
52228;SOUTHSIDE DISTRIBUTORS INC;BLOOMINGTON MN;MN;1800 WEST 94TH ST;55431
52237;CAPITOL BEVERAGE SALES LP;ROGERS MN;MN;20240 SOUTH DIAMOND LAKE RD;55374
52242;SUPERIOR BEVERAGES LLP;SUPERIOR WI "RAIL";MN;SHIP TO 2 BUD ST-INDUSTRIAL PK;54880
52250;C&L DISTRIBUTING;SAUK RAPIDS MN;MN;1020 INDUSTRIAL DR S;56379
52310;SOUTHERN BEVERAGE DIST LLC;BATESVILLE MS;MS;401 INDUSTRIAL DR;38606
52311;A&B DISTRIBUTING CO INC;OLIVE BRANCH MS;MS;10777 HIGH POINT RD;38654
52331;DELTA DISTRIBUTING COMPANY;GREENWOOD MS;MS;1401 SYCAMORE STREET;38930
52400;ANHEUSER-BUSCH INC;ST LOUIS MO;MO;2814 S SECOND ST;63118
52402;LUXCO SPIRITED BRANDS;ST LOUIS MO;MO;5050 KEMPER AVENUE;63139
52410;BRADLEY DISTRIBUTING CO INC;KENNETT MO;MO;2500 INDEPENDENCE AVE;63857
53105;KOMBREWCHA (BP);PATCHOGUE NY;NY;225 W MAIN ST;11772
53164;DUTCHESS BEER DIST INC;KINGSTON NY;NY;36 KIEFFER LN;12401
53166;DUTCHESS BEER DIST INC;POUGHKEEPSIE NY;NY;5 LAUREL ST;12601
53200;APPALACHIAN MOUNTAIN BREWERY;BOONE NC;NC;289 DANIEL BOONE DR.;28607
53221;HARRIS INCORPORATED;CHAPEL HILL NC;NC;308 HIGHWAY 54 BY-PASS;27510
53234;R H BARRINGER DIST CO INC;GREENSBORO NC;NC;1620 FAIRFAX RD;27407
53235;R A JEFFREYS DIST CO LLC;NEW BERN NC;NC;1702 RED ROBIN LANE;28562
53296;R H BARRINGER DIST CO INC;WINSTON-SALEM NC;NC;1015 ZIGLAR RD;27105
53400;COLUMBUS DC;OBETZ OH;OH;2820 GLOBAL DRIVE;43125
53409;MUXIE DISTRIBUTING COMPANY;BELLAIRE OH;OH;5120 GUERNSEY ST;43906
53475;CHOICE BRANDS OF OHIO INC;MINGO JUNCTION OH;OH;2680 COMMERCIAL AVE;43938
53600;OREGON TRANSFER CO (CBA);PORTLAND OR;OR;6229 N MARINE DR;97203
53700;ARCHWAY;EAGLEVILLE PA;PA;2525 MONROE BLVD STE A;19403
53736;NORTHEAST EAGLE DISTRIBUTORS;PITTSTON PA;PA;1000 S TOWNSHIP BLVD;18640
53855;MCLAUGHLIN & MORAN INC;CRANSTON RI;RI;40 SLATER RD;02920
53929;K W ASSOCIATES LLC;PIEDMONT SC;SC;2101 HIGHWAY 86;29673
53978;BUDWEISER OF SPARTANBURG INC;SPARTANBURG SC;SC;6645 POTTERY RD;29303
54100;EASTERN TENN WHSLR SUPPORT CTR;JOHNSON CITY(WSC) TN;TN;310 LAFE COX DRIVE;37604
54121;CLARK DISTRIBUTING CO INC;DYERSBURG TN;TN;1300 HWY 51 BYPASS SOUTH;38024
54139;CENTRAL DISTRIBUTORS INC;JACKSON TN;TN;1876 LAGER LANE;38301
54149;VOLUNTEER DISTRIBUTING CO INC;DRESDEN TN;TN;1 VOLUNTEER PL;38225
54153;EAGLE DISTR. OF MEMPHIS LLC;MEMPHIS TN;TN;45 E H CRUMP BLVD WEST;38106
54200;JASA PACKAGING SOLUTIONS LLC;EAGLE PASS TX;TX;3524 US HIGHWAY 57 NORTH;78852
54205;L & F DISTRIBUTORS LLC;BEEVILLE (ALICE) TX;TX;2600 S 181 HWY;78102
54209;L & F DISTRIBUTORS LLC;BEEVILLE TX;TX;2600 S 181 HWY;78102
54215;L & F DISTRIBUTORS LLC;CORPUS CHRISTI TX;TX;8761 STATE HIGHWAY 44;78406
54225;A-B HOSPITALITY HOUSE;SAN ANTONIO(BRWY) TX;TX;2595 N ELLISON DRIVE;78251
54277;TRI-CITY DISTRIBUTORS INC;FLORESVILLE TX;TX;517 10TH ST;78114
54294;DEL PAPA DISTRIBUTING CO INC;VICTORIA TX;TX;3907 E RIO GRANDE;77901
54400;ANHEUSER-BUSCH WILLISTON;WILLISTON VT;VT;687 MARSHALL AVE, SUITE 150;05495
54500;DEVILS BACKBONE BREW OUTPOST;LEXINGTON VA;VA;50 N WIND LANE;24450
54600;ELYSIAN BREWERY - CAPITOL HILL;SEATTLE WA;WA;1221 E PIKE STREET;98122
54727;WALDORF DISTRIBUTING CO INC;BEECH BOTTOM WV;WV;375 RIVER ROAD;26030
54761;J C MENSORE DISTRIBUTOR INC;NEW MARTINSVILLE WV;WV;134 N BRIDGE ST;26155
54792;CARENBAUER DISTRIBUTING CORP;WHEELING WV;WV;1900 JACOB ST;26003
54832;S & S DISTRIBUTING INC;MARSHFIELD WI;WI;10610 S WASHINGTON AVE;54449
54846;BILL'S DISTRIBUTING LTD;MENOMONIE WI;WI;5900 PACKER DR NE;54751
54858;FOUR SEASONS BEER DISTR;NIAGARA WI;WI;695 COUNTY ROAD N;54151
54871;DEAN DISTRIBUTING INC;RHINELANDER WI;WI;1500 CHIPPEWA DR;54501
54920;OSPREY BEVERAGES LLC;JACKSON WY;WY;4255 S US HIGHWAY 89;83001
55900;CIVILIAN EXPORT-WMS DUMMY;ZZ.DUMMY STATE CUST;5E;SALES FORECASTING;00000
55905;BON LAVORO D.O.O.;BEOGRAD YUGOSLAVIA;7C;GENERAL ZDANOVA 19;11000
55909;CORSENDONK;2630 OUD TURNHOUT;6D;STEENWEG OP MOL 118;99999
55910;ORIENTAL BREWERY CO LTD;SEOUL 100-730 KOREA;5T;18-12 ULCHI-RO 6KA CHUNG-KU;99999
55911;ETS JACQUS NOUY BP2051-JARRY;BAIE MAHAULT GUADELO;7H;BLD MARQUISAT DE HOUELBOURG;99999
55912;FARSONS BEVERAGE IMPORTS CO;MARSA MALTA;7D;MDINA ROAD MRIEHEL BKR 3000;HMR17
55913;BRASSERIES KRONENBOURG;STRASBOURG CEDEX 02;6K;68 RTE D'OBERHAUSBERGEN;67037
55914;GUINESS UDV IRELAND;DUBLIN IRELAND;6O;ST JAMES GATE;99999
55915;BOURCHANIN;CASABLANCA MOROCCO;1E;72 BOULEVARD LBN TACHFINE;99999
55917;SOC. CENTRAL DE CEREJAS;VIALONGA 2626-244;6V;ESTRADA DA ALFARROBEIRA;99999
55918;MAXXIUM TURKEY;MASLAK 80670;4L;ATATURK OTO SANAYI SITES 78K:3;99999
55919;TAHITI FOOD & BEVERAGE SARL;FAA'A TAHITI;3P;98702 FAA'A CENTRE;99999
55920;ECONET AG NEUGUTSTRASSE 54;CH-8600 DUBENDORF;7A;POSTFACT 599;99999
55923;DVC - PLUS D.O.O.;1000 LJUBLJANA;1C;LESKOSKOVA 2;99999
55925;BROUWERIJ CORSENDONK NV;TURNHOUT BELGIUM;6D;SLACHTHUISSTRAAT 27 B-2300;\N
55927;DIAGEO IRELAND;DUBLIN IRELAND;6O;ST JAMES GATE, DUBLIN 8;99999
55929;BEBIDAS DEL PARAGUAY SA;SAN ANTONIO PARAGUAY;9K;RUTA ACCESO SUR KM 32;00000
55931;HEINEKEN INT'L DE COLOMBIA SA;BOGOTA COLOMBIA;9E;TRANSV. 18 # 96-41 OF. 203;\N
55932;ORIENTIAL BREWERY;SEOUL KOREA;5T;8F, YEONGDONG-DAERO;06164
55933;DKSH HONG KONG LIMITED;KWAI CHUNG HONG KONG;5H;18 CONTAINER PORT, UNIT 403;\N
55934;BEBIDAS DEL PARAGUAY SA;SAN ANTONIO PARAGUAY;9K;ACCESO SUR KM 32;00000
55935;CARLSBERG ELBO LOGISTICS;FREDERICIA DENMARK;6H;EUROPAVEJ 18 TAULOV 7000;00000
55937;TELFORD INTERNATIONAL CO.;YEUN LONG HONG KONG;5C;62 FUK HI STREET;\N
55938;COMPANIA CERVECERA DEL TROPICO;TUXTEPEC, OAXACA;8T;BLVD. ANTONIO FERNANDEZ RODRIG;68365
55939;LAS CERVEZAS MODELO DEL BAJIO;QUERETARO, QUERETARO;8T;CARRETERA QUERETARO-SAN LUIS;76230
55942;INBEV BREWERY;TORONTO ONTARIO;8X;207 QUEENS QUAY WEST STE 209;00000
55943;LAS CERVEZAS MODELO DEL ESTADO;METEPEC, MEXICO;8T;VIALIDAD METEPEC-ZACANGO NO. 2;52140
55944;JA SA DE CV;INDUSTRIAL QUINTANA;8T;AUTOPISTA MEXICO QUERETARO KM;MX
55945;ZIMAG LOGISTICS MONTERREY;SANTA CATARINA,NUEVO;8T;AV. ZEUS NO. 1111 NAVE 9;LEON
55946;ZIMAG LOGISTICS GUADALAJARA;ZAPOPAN, JALISCO;8T;CARRETERA NOGALES KM 12.5;45010
55947;ZIMAG LOGISTICS TIJUANA;TIJUANA, B.C.N.;8T;BLVD. INSURGENTES NO. 16695-4;97288
55949;BUDEJOVICKY BUDVAR NP;CESKE BUDEJOVICE;6G;KAROLINY SVETLE 4;37021
55953;ALM QUEENSLAND;BRISBANE AUSTRALIA;3X;111-137 MAGNESIUM DRIVE;00000
55955;ALM VICTORIA;MELBOURNE AUSTRALIA;3X;75 FITZGERALD ROAD;00000
55957;LION NATHAN -LINFOX HENDRA WHS;HENDRA AUSTRALIA;3X;SHED 4 404 NUDGEE ROAD;\N
55961;LION NATHAN-SWAN BREWING CO;CANNING BALE AUSTRAL;3X;25 CAILE ROAD;00000
55963;LION NATHAN-S.A. BREWING CO;THEBARTON AUSTRALIA;3X;107 PORT ROAD;00000
55965;HOTEL LIQUOR WHOLESALERS PTY L;AUSTRALIA WA 6105;3X;11-15 MACKAY STREET, KEWDALE;00000
55967;CERVECERIA MODELO;CIUDAD DE MEXICO;8T;LAGO ALBERTO #156 COL. ANAHUAC;\N
55968;SAG AGUA PRIETA;AGUA PRIETA, SONORA;8T;CALLE 16 AVENIDA 6 #1590;84200
55969;CERVECERIA MODELO DE GUADALAJA;GUADALARA JALISCO;8T;AVENIDA MARIANO OTERO 663;\N
55970;KARL K KARLSSON LTD.;ICELAND 104;6N;SKUTUVOGI 5, 104 REYKJAVIK;00000
55971;COMPANIA CERVECERA DEL TROPICO;S.JUAN BAUTISTA;8T;BLVD.ANTON.FERNANDEZ GONZALEZ;\N
55972;TAN CHAU BINH VINA CO LTD;HOCHIMINCITY VIETNAM;5Y;NO 01 TRUONG DINH HOI STREET;00000
55973;CERVECERIA DEL PACIFICO;MAZATLAN SINALOA;8T;CALZADA GABRIEL LEYVA Y MELCHO;\N
55974;OLIVERIO CABRERA OCHOA;LETICIA COLUMBIA;9E;CALLE 8 NO. 10 - 97;00000
55975;CERVECERIA MODELO DE TORREON;TORREON COAHUILA;8T;37 300 NUEVO TORREON;\N
55976;JOHN KING POLSKA SP Z O.O.;POLAND;6U;05-840 BRWINOW (NEAR WARSAW);00000
55977;COMPANIA CERVECERA DE ZACATECA;CALERA D.VICTOR;8T;BLVD.ANTON.FERNANDEZ RODRIGUEZ;\N
55979;SAG LA PAZ;LA PAZ;8T;CARRETERA NORTE KM 4.5;\N
55981;HOTEL LIQ. WLSRS.(QLD)PTY.LTD;BRISBANE AUSTRALIA;3X;1 FOX ROAD, ACACIA RIDGE;00000
55983;SAMUEL SMITH & SON;BRISBANE AUSTRALIA;3X;120 FACTORY ROAD, OXLEY;00000
55984;CROWN BEERS INTL LTD;HYDERABAD INDIA 50;5K;#8-2-309/8/648 ROAD #14;00034
55985;LION NATHAN-BEVCHAIN PTY LTD;LAVERTON NORTH AUSTR;3X;2-10 INTERCHANGE DRIVE;00000
55986;DIST. PUERTO PENASCO;PUERTO PENASCO;8T;JOSEFA ORTIZ DE DOMINGUEZ 149;\N
55987;LION NATHAN-TOOHEYS AUBURN;LIDCOMBE AUSTRALIA;3X;29 NYRANG STREET;00000
55988;THE ACES MART;YAP, FM;3Z;P O BOX 604;96943
55989;LIQUORLAND - REGENTS PARK;SYDNEY AUSTRALIA;3X;BLOCK G, 391 PARK ROAD;00000
55990;SAG LINCOLN;P IND EL BAJIO TECAT;8T;CARRETERA TIJUANA-TECATE KM140;21503
55991;WOOLWORTHS - MOREBANK LIQUOR;SYDNEY AUSTRALIA;3X;7-21 CENTURY AVENUE, MOREBANK;00000
55992;SAV-WAY MART;YAP, FM;3Z;P O BOX 243;96943
55993;SAMUEL SMITH & SON;MELBOURNE AUSTRALIA;3X;109 HYDE STREET, FOOTSCRAY;00000
55994;YAP COOPERATIVE;YAP, FM;3Z;P O BOX 159;96943
55995;LIQUORLAND - SCORESBY;MELBOURNE AUSTRALIA;3X;15 DALMORE DRIVE;00000
55996;MAJI'S STORE;MAJURO, MH;3Z;P O BOX 1342;96960
55997;SAFEWAY - CLAYTON;MELBOURNE AUSTRALIA;3X;1508 CENTRE ROAD, CLAYTON;00000
55998;FLAME TREE;MAJURO MH;3Z;P O BOX 14;96960
55999;SAMUEL SMITH & SON;PERTH AUSTRALIA;3X;114 RADIUM STREET, WELSHPOOL;00000
56702;ARMY & AIR FORCE EXCH;JAPAN;M5;\N;\N
56703;ARMY & AIR FORCE EXCH;KOREA;M6;XYZ;99999
56704;ARMY & AIR FORCE EXCH;OKINAWA;M7;\N;\N
56742;KADENA OFFICERS OPEN MESS;KADENA OKINAWA;M7;\N;\N
56745;CONS PKGE STOR-COMFLEACTS;NAHA OKINAWA;M7;\N;\N
56781;C P BUTLER C L SYS COM O;BUTLER OKINAWA;M7;\N;\N
60315;ARKANSAS BEVERAGE SALES, INC.;CAMDEN AR;AR;416 WASHINGTON ST NE;71701
60320;HEPCO INC;EL DORADO AR;AR;630 E FAULKNER ST;71730
60357;M K DISTRIBUTORS INC;MCGEHEE AR;AR;#1 AIRPORT ROAD SOUTH;71654
60400;ANHEUSER-BUSCH INC;RIVERSIDE CA;CA;1400 MARLBOROUGH AVE;92507
60424;BUENO BEVERAGE COMPANY;VISALIA CA;CA;2122 N PLAZA DR;93291
60426;DONAGHY SALES LLC;FRESNO CA;CA;4455 E CHURCH;93725
60435;FLAVOURS INC;CORONA CA;CA;575 ALCOA CIRCLE;92688
60456;SIERRA BEVERAGE COMPANY;MERCED CA;CA;2651 COOPER AVE;95348
60464;GOLD CITIES BEVERAGE CORP;GRASS VALLEY CA;CA;125 CLYDESDALE COURT;95945
60466;KIRIN BREWERY OF AMERICA LLC;TORRANCE CA;CA;21241 SOUTH WESTERN AVE STE110;90501
60500;ANHEUSER-BUSCH INC;LOVELAND (WSC) CO;CO;3800 CLYDESDALE PARKWAY;80538
60503;B & K DISTRIBUTING INC;STEAMBOAT SPRINGS CO;CO;1140 13TH ST;80487
60506;QUALITY BRANDS OF THE ROCKIES;GLENWOOD SPRINGS CO;CO;4919 HIGHWAY 82;81601
60518;AMERICAN EAGLE DISTRIBUTING;LOVELAND CO;CO;3800 CLYDESDALE PKWY;80538
60521;AB SALES OF SOUTHERN COLORADO;LITTLETON CO;CO;11100 BRADFORD RD;80127
60900;WYNWOOD BREWERY CBA;MIAMI FL;FL;565 NW 24TH STREET;33127
61000;WORLD DISTRIBUTION SERVICES;POOLER GA;GA;100 MORGAN LAKES INDUST BLVD;31322
61003;ALBANY BEVERAGE CO;ALBANY GA;GA;1208 MOULTRIE RD;31705
61005;BEVERAGE HOUSE, INC.;CARTERSVILLE GA;GA;400 HIGH POINT ROAD, SUITE 100;30120
61014;EAGLE ROCK DIST CO LLC-DALTON;NORCROSS GA;GA;6205-B BEST FRIEND RD;30071
61025;SOUTHERN CROWN PARTNERS LLC;FITZGERALD GA;GA;243 OCILLA HWY;31750
61105;10 BARREL BREWERY - BOISE 1;BOISE ID;ID;830 W BANNOCK ST;83702
61292;GAGNE DIST CO INC;TAYLORVILLE IL;IL;1617 W SPRESSER ST;62568
61313;MIAMI BEVERAGE INC;PERU IN;IN;725 N CLAY ST;46970
61335;LITTLE BEVERAGE CO INC;ATTICA IN;IN;1111 E MAIN ST;47918
61346;MID-AMERICA BEVERAGE INC;KOKOMO IN;IN;2755 COMMERCE DR.;46902
61377;TIPPECANOE BEVERAGES INC;WINAMAC IN;IN;100 MICHIGAN;46996
61407;FAHR BEVERAGE INC WEST UNION;WEST UNION IA;IA;101 INDUSTRIAL PKWY S;52175
61413;7G DISTRIBUTING LLC;CEDAR RAPIDS IA;IA;9925 6TH ST SW;52404
61491;FAHR BEVERAGE INC WATERLOO;WATERLOO IA;IA;1369 MARTIN RD;50701
61720;MARSALA BEVERAGE IN FERRIDAY;FERRIDAY LA;LA;6647 HIGHWAY 84;71334
61738;SOUTHERN EAGLE SALES & SERVICE;METAIRIE LA;LA;5300 BLAIR DR;70003
61754;MARSALA BEVERAGE;MONROE LA;LA;825 STONE AVE;71201
61903;GUY DISTRIBUTING CO INC;LEONARDTOWN MD;MD;25785 POINT LOOKOUT ROAD;20650
61904;WANTZ DISTRIBUTORS INC.;FROSTBURG MD;MD;75 SOUTH WATER STREET;21532
61913;MONTGOMERY CNTY MD DPT LIQ CON;GAITHERSBURG MD;MD;201 EDISON PARK DR;20878
61914;BOB HALL LLC;UPPER MARLBORO MD;MD;5600 CRAIN HWY;20772
61915;WANTZ DISTRIBUTORS INC;HAGERSTOWN MD;MD;11743 HOPEWELL ROAD;21740
62035;QUALITY BEVERAGE LP TAUNTON;TAUNTON MA;MA;525 MYLES STANDISH BLVD;02780
62102;HURON DISTRIBUTORS INC;ALPENA MI;MI;509 CAVANAUGH ST;49707
62103;SMITH DISTRIBUTING CO;BAD AXE MI;MI;1195 E HURON AVE;48413
62155;FABIANO BROTHERS INC;BAY CITY MI;MI;1885 BEVANDA CT;48706
62160;PIKE DISTRIBUTORS INC;GLADSTONE MI;MI;6958 US 2 & 41 & M-35;49837
62172;FABIANO BROTHERS INC;SAGINAW MI;MI;1721 BAGLEY ST;48601
62191;GRIFFIN BEVERAGE COMPANY;WEST BRANCH MI;MI;1901 DAM ROAD;48661
62200;HIBALL - COLD SPRING;COLD SPRING MN;MN;107 11TH STREET NE;56320
62220;COLLEGE CITY BEVERAGE INC;DUNDAS MN;MN;700 RAILWAY ST S;55019
62241;SCHOTT DIST CO INC;ROCHESTER MN;MN;6735 HIGHWAY 14 E;55904
62263;SCHOTT DISTRIBUTING CO INC;GOODVIEW MN;MN;5245 W 6TH ST # 5255;55987
62329;MITCHELL DELTA DISTRIBUTING;LELAND MS;MS;1200 HIGHWAY 82 E;38756
62400;WESTERN MO WSLR SUPPORT CTR;SEDALIA (WSC), MO;MO;1800 EAGLE VIEW DRIVE;65301
62630;EAGLE DISTR OF GRAND ISLAND;GRAND ISLAND NE;NE;4221 JUERGEN RD;68801
62663;QUALITY BRANDS OF NORTH PLATTE;NORTH PLATTE NE;NE;720 LAKE DR;69101
62800;CBA PORTSMOUTH;PORTSMOUTH NH;NH;1 REDHOOK WAY;03801
63105;BLUE POINT WAREHOUSE;HOLBROOK NY;NY;91-4 COLIN DRIVE;11741
63124;LAKE BEVERAGE CORPORATION;WEST HENRIETTA NY;NY;900 JOHN ST;14586
63145;WEST BEER DISTRIBUTORS INC;LAKEVILLE NY;NY;5813 STONE HILL ROAD;14480
63165;PLATTSBURGH DIST CO INC;PLATTSBURGH NY;NY;217 SHARRON AVE;12901
63200;WICKED WEED FUNKATORIUM BRWY;ASHEVILLE NC;NC;147 COXE AVE;28801
63205;WICKED WEED BREWPUB BREWERY;ASHEVILLE NC;NC;91 BILTMORE AVE;28801
63220;WICKED WEED PRODUCTION BREWERY;CANDLER NC;NC;145 JACOB HOLM WAY;28715
63221;HARRIS BEVERAGES, LLC;HENDERSON NC;NC;146 WARRENTON RD;27537
63225;HARRIS WHOLESALE INC;FAYETTEVILLE NC;NC;5510 CLIFFDALE ROAD;28314
63230;WICKED WEED FUNK HOUSE;ARDEN NC;NC;95 OLD SHOALS ROAD;28704
63234;R H BARRINGER DIST CO INC;ELON NC;NC;803 WEST HAGGARD AVE;27244
63236;HARRIS BEVERAGES, LLC;DURHAM NC;NC;3505 HILLSBOROUGH ROAD;27705
63266;HARRIS WHOLESALE INC ABERDEEN;RALEIGH NC;NC;420 CIVIC BOULEVARD;27610
63269;R H BARRINGER DIST CO INC;RALEIGH NC;NC;420 CIVIC BLVD;27610
63275;HARRIS WHOLESALE INC CARY;RALEIGH NC;NC;420 CIVIC BLVD;27610
63400;PLATFORM BEER CO;CLEVELAND OH;OH;3506 VEGA AVE;44113
63440;ANHEUSER-BUSCH SALES OF LIMA;VERSAILLES OH;OH;834 JACKSON ST;45380
63463;HEIDELBERG DISTRIBUTING COLUMB;COLUMBUS OH;OH;3801 PARKWEST DR;43228
63600;10 BARREL BREWERY;BEND OR;OR;62950 NE 18TH STREET;97701
63605;10 BARREL PUB - BEND 1;BEND OR;OR;1135 NW GALVESTON;97701
63618;WESTERN BEVERAGE LLC;EUGENE OR;OR;1050 TERRY STREET;97402
63658;WESTERN BEVERAGE LLC;MEDFORD OR;OR;910 MASON WAY;97501
63690;WESTERN BEVERAGE LLC;SALEM OR;OR;300 LANCASTER DR NE;97301
63700;STARBUCKS COFFEE COMPANY;YORK PA;PA;3000 ESPRESSO WAY;17406
64100;BLUES CITY BREWERY 1;MEMPHIS TN;TN;5151 E RAINES ROAD;38118
64110;BLUES CITY BREWERY 1 (SPIKED);MEMPHIS TN;TN;5151 E RAINES ROAD;38118
64113;TRISTAR BEVERAGE LLC;SODDY DAISY TN;TN;200 SHEARER ST;37379
64115;TARVER DISTRIBUTING CO INC;CHARLESTON TN;TN;8360 HIWASSEE ST.;37310
64200;ANHEUSER-BUSCH INC;HOUSTON TX;TX;8688 MARKET ST;77029
64210;JACK HILLIARD DIST CO INC;BRYAN TX;TX;1000 INDEPENDENCE AVE;77803
64221;BEN E KEITH COMPANY;DALLAS TX;TX;1805 RECORD CROSSING RD;75235
64225;BEN E KEITH COMPANY;FORT WORTH TX;TX;7001 WILL ROGERS BLVD;76140
64226;BEN E KEITH COMPANY;TERRELL TX;TX;101 METRO DRIVE;75160
64230;BEN E KEITH COMPANY;COMMERCE TX;TX;2248 LIVE OAK ST;75428
64242;BEN E KEITH COMPANY;ABILENE TX;TX;2141 COTTONWOOD ST;79601
64247;BEN E KEITH COMPANY;DENTON TX;TX;2801 N I-35;76207
64259;BEN E KEITH COMPANY;PALESTINE TX;TX;2019 WEST OAK ST. (HWY 79);75801
64270;HILL COUNTRY BUDWEISER INC HON;HONDO TX;TX;255 HWY 173 N;78861
64287;JACK HILLIARD DIST CO INC;TEMPLE TX;TX;217 N 12TH ST;76501
64295;BEN E KEITH COMPANY;WACO TX;TX;320 S UNIVERSITY PARKS DR;76701
64406;THE FARRELL DIST CORP;RUTLAND VT;VT;200 FARRELL RD;05701
64407;FARRELL DISTRIBUTING CORP.;SOUTH BURLINGTON VT;VT;5 HOLMES RD;05403
64408;G. HOUSEN;RUTLAND (GH) VT;VT;155 SEWARD RD;05701
64410;THE FARRELL DIST CORP;MONTPELIER VT;VT;GALLISON HILL ROAD;05602
64500;DEVILS BACKBONE BREW BASECAMP;ROSELAND VA;VA;200 MOSBYS RUN;22967
64502;VIRGINIA EAGLE DIST CO LLC;SPRINGFIELD VA;VA;6839 INDUSTRIAL RD;22151
64524;VIRGINIA EAGLE DIST CO LLC;WINCHESTER VA;VA;3425 VALLEY PIKE;22602
64597;VIRGINIA EAGLE DIST CO LLC;FREDERICKSBURG VA;VA;224 INDUSTRIAL CT;22408
64598;J F FICK INC;FREDERICKSBURG VA;VA;224 INDUSTRIAL CT;22408
64600;ELYSIAN BREWERY - TANGLETOWN;SEATTLE WA;WA;2106 N 55TH ST;98103
64757;JEFFERSON DISTRIBUTING CO INC;MARTINSBURG WV;WV;799 MID ATLANTIC PKWY;25404
64767;NORTHERN EAGLE INC;ROMNEY WV;WV;333 JERSEY MOUNTAIN ROAD;26757
64825;METAL CONTAINER CORPORATION;FT ATKINSON WI;WI;105 EAST BLACKHAWK DR;53538
64889;FABIANO BROTHERS-WISCONSIN LLC;SCHOFIELD WI;WI;7205 ZINSER ST;54476
65901;LIQUORLAND - CANNING VALE;PERTH AUSTRALIA;3X;BRAMBLES DIST., CANNING VALE;00000
65903;WOOLWORTHS - PERTH;PERTH AUSTRALIA;3X;20-60 COLQUHOUN ROAD;00000
65905;CARULLA VIVERO S.A.;BOGOTA D.C. COLOMBIA;9E;CARRERA 68D NO. 21-35;00000
65907;MEBEV COMPANY LTD;SARBA JOUNIEH,LEBANO;4G;ST. JOHN STREET-FARAH BLDG.;00000
65909;KUEHNE + NAGEL;MANGERE AUCKLAND;3F;129 PAVILION DRIVE;00000
65915;PREMIER WINES AND SPIRITS INC;MANILA, PHILLIPINES;3H;900 N ROMUALDEZ ST ERMITA PACO;00000
65917;SOUTHERN INDEPENDENT LIQUOR;VICTORIA AUSTRALIA;3X;98-126 SOUTH PARK DRIVE;03175
65925;KUEHNE-NAGEL CHRISTCHURCH;CHRISTCHURCH AIRPORT;3F;5 PERIMETER RD;00000
65927;HOME GARDEN;MAJURO, MH;3Z;P O BOX 120;96960
65931;ACE COMMERCIAL;POHNPEI, FM;3Z;P O BOX 38;96941
65933;CITCO;POHNPEI FM;3Z;P O BOX 1921;96941
65935;CAPITAL;CLAYTON AUSTRALIA;3X;1400 CENTRE RD;00000
65937;NMK PREMIUM GLOBAL BRANDS LTD;JOHANNESBURG S.AFRIC;1N;93 GIBBS ROAD;00000
65941;CERVECERIA PARAGUAYA S.A.;YPANE CENTRAL 2660;9K;RUTA VILLETA KM 30;00000
65943;WISYNCO GROUP LIMITED;SPANISH TOWN JAMAICA;8K;WHITE MARL IND COMPLEX #378;00000
65944;FAIRN & SWANSON C/O FTZ #12;MCALLEN TEXAS;TX;6401 SOUTH 33RD STREET;78503
65945;CASSTOWN COMPANY, LTD.;KHOROO MONGOLIA;5M;ULAANBAATAR BAYANGOL DIST 19;00000
65947;CIAMESA S.A.;SAN JOSE COSTA RICA;8P;CONTIGUO A CLINICA SOLON NUNEZ;00000
65950;CERVECERIA NACIONAL DOMINICANA;SANTO DOMINGO DR;8I;AUTOPISTA 30 DE MAYO, KM 6 1/2;00000
65951;BULOS ZUMOT & CO;AMMAN JORDAN 11115;4E;129 ARAR STREET;00000
65952;ATLANTIC TRADING EST;BEIRUT LEBANON;5N;CHAMOUN ST HORCHTABET SINELFIN;00000
65953;WORLDNET LOGISTICS-PRT ELIZABE;PORT ELIZABETH S AFR;1N;HARBOUR VIEW, OAKWORTH RD;00000
65954;WORLDNET LOGISTICS-DURBAN;DURBAN SO AFR 4051;1N;74 PRINCE MHLANGANA RD RIV BUS;00000
65955;LABATT BREWERIES OF CANADA;MISSISSAUGA ONTARIO;8X;445 EXPORT BLVD;00000
65956;WORLDNET LOGISTICS-CAPE TOWN;CAPE TOWN S AFR 7525;1N;107 MANHATTAN RD AIRPORT INDST;00000
65957;WORLDNET LOGISTICS-JOHANNESBRG;EDENVALE SO AFR 1609;1N;UNIT 3, 3 DRAKENSBERG DR;00000
65958;AB ME GROUP OY LTD;TURKU FINLAND;D3;VITKALANKATU 1, 20200 TURKU;00000
65959;COMPANIA CERVECERA AMBEV ECUAD;GUAYAQUIL GUAYAS ECU;9F;KM 14, 5 VIA A DAULE;00000
65960;SCHOEMAKER-CARNIVAL;BREMEN-F.R.GERMANY;9Y;INGOLSTADTER STR 4 D-28219;\N
65961;CERVECERIA PARAGUAYA S A;YPANE CENTRAL;9K;RUTA VILLETA KM 30;02660
65962;SCHOEMAKER-ROYAL CARIBBEAN;BREMEN-F.R.GERMANY;9Y;INGOLSTADTER STR 4 D-28219;\N
65963;KUSTERS TRADING COMPANY;WILLEMSTAD CURACAO;9Q;KAMINDA ANDREW J.E. KUSTER#3;00000
65964;SCHOEMAKER-PRINCESS;BREMEN-F.R.GERMANY;9Y;INGOLSTADTER STR 4 D-28219;\N
65965;DISTRIBUIDORA LA FLORIDA;HEREDIA COSTA RICA;8P;250 S DE CERVECERIA COSTA RICA;40803
65966;SCHOEMAKER-CELEBRITY;BREMEN-F.R.GERMANY;9Y;INGOLSTADTER STR 4 D-28219;\N
65967;ASEAN BEVERAGE DISTRIBUTION;HCMC, VIETNAM;5Y;STE1329 LVL13 KUMHO ASIANA PLZ;00000
65968;SCHOEMAKER-COSTA;BREMEN-F.R.GERMANY;9Y;INGOLSTADTER STR 4 D-28219;\N
65969;BOURCHANIN & CIE;CASASBLANCA MOROCCO;1E;72 BOULEVARD IBN TACHFINE;20310
65970;SCHOEMAKER-HOLLAND AMERICA;BREMEN-F.R.GERMANY;9Y;INGOLSTADTER STR 4 D-28219;\N
65971;COMPANIA CERVECERA AMBEV PERU;HUACHIPA LIMA PERU;9L;AV LOS LAURELES S/N ESQ TOKIO;00000
65972;SCHOEMAKER-DISNEY;BREMEN-F.R.GERMANY;9Y;INGOLSTADTER STR 4 D-28219;\N
65974;SCHOEMAKER-NORWEGIAN;BREMEN-F.R.GERMANY;9Y;INGOLSTADTER STR 4 D-28219;\N
65975;AMBEV COLUMBIA SAS;CARTAGENA COLUMBIA;9E;CONTECAR COD 2268;\N
65976;BARLAN BEVERAGES GROUP SP;WARSZAWA POLAND;6U;PL 03 886 WARSZAWA UL MIESKA I;00000
65977;M/S ABINBEV INDIAPVT. LTD.;NEW DEHLI INDIA;5K;F-2/7 OKHLA INDUST PHASE I;00000
65978;SCHOEMAKER-RADISSON;BREMEN-F.R.GERMANY;9Y;INGOLSTADTER STR 4 D-28219;\N
65979;MACINTYRE SCOTT & CO LTD;S. HAMPTON UK S040;D1;SALISBURY ROAD TOTTON;2RW
65980;SCHOEMAKER-CUNARD;BREMEN-F.R.GERMANY;9Y;INGOLSTADTER STR 4 D-28219;\N
65981;LAYAM SAKAL LTD.;TEL AVIV ISRAEL;D2;32 HABARZEL ST;61580
65982;SCHOEMAKER-SEABOURNE;BREMEN-F.R.GERMANY;9Y;INGOLSTADTER STR 4 D-28219;\N
65983;CERVECERIA CHILE S A;PORT IQUIQUE;CI;RUTA 5 NORTE KM1357 BODEGA25A;00000
65984;SCHOEMAKER-CRYSTAL;BREMEN-F.R.GERMANY;9Y;INGOLSTADTER STR 4 D-28219;\N
65985;AB INBEV SA/NV INTL BUSINESS;3000 LEUVEN;6D;BROUWERIJPLEIN 1;\N
65986;SCHOEMAKER-P&O;BREMEN-F.R.GERMANY;9Y;INGOLSTADTER STR 4 D-28219;\N
65987;CERVECERIA CHILE S A;PORT SAN VICENTE;CI;GRAN BRETANA 4991;00000
65988;SCHOEMAKER-MSC;BREMEN-F.R.GERMANY;9Y;INGOLSTADTER STR 4 D-28219;\N
65989;ALTIPAL S.A.;BOGOTA DC COLOMBIA;9E;CR 69B #19 A47;00000
65990;SCHOEMAKER-AIDA;BREMEN-F.R.GERMANY;9Y;INGOLSTADTER STR 4 D-28219;\N
65992;SCHOEMAKER-OTHER CRUISE;BREMEN-F.R.GERMANY;9Y;INGOLSTADTER STR 4 D-28219;\N
65993;COMP DE BEBIDAS AMERICAS-AMBEV;JACAREI 12315-310;9C;ESTRADA DO JAGUARI, KM 12;00000
65994;SCHOEMAKER-OTHERSHIPCHANDLERS;BREMEN-F.R.GERMANY;9Y;INGOLSTADTER STR 4 D-28219;\N
65995;AMBEV S/A FILIAL JACAREI;JACAREI SP 123153;9C;ESTRADA MUNICIPAL BIAGINO;00000
65996;DUTY FREE PHILIPPINES CORP;PARANAQUE CITY 1700;3H;KAINGIN RD, MULTINATIONAL VLLG;00000
65997;CERVECERIA BOLIVIANA NACIONAL;LA PAZ BOLIVIA;9B;AV MONTES #400;00000
65998;CERVECERIA CHILE S A;QUILICURA CHILE;CI;AVE PRESDT FREI MONTALVA 9600;00000
70400;ANHEUSER-BUSCH SALES OF LA;SYLMAR CA;CA;15420 COBALT ST;91342
70401;CATALINA BEVERAGE CO INC;CARSON (AVALON) CA;CA;367 WEST VICTORIA;90248
70405;WALNUT WAREHOUSE FOR SYLMAR;CHINO CA;CA;3525 WALNUT AVE;91710
70410;ANHEUSER-BUSCH INC;OAKLAND CA;CA;8380 PARDEE DRIVE;94621
70427;TRIANGLE DIST CO INC;SANTA FE SPRINGS CA;CA;12065 PIKE ST;90670
70433;A-B SALES OF ANTELOPE VALLEY;LANCASTER CA;CA;43851 DIVISION ST;93535
70436;ACE BEVERAGE CO;LOS ANGELES CA;CA;401 S ANDERSON ST;90033
70441;A-B SALES OF POMONA;POMONA CA;CA;2800 S RESERVOIR ST;91766
70446;SOMERSET DISTRIBUTORS LLC;CARSON CA;CA;20499 REEVES AVE;90810
70450;WESTSIDE DISTRIBUTORS;SOUTH GATE CA;CA;2405 SOUTHERN AVE;90280
70463;STRAUB DISTRIBUTING CO LTD;IRVINE CA;CA;3 HOLLAND;92618
70470;STRAUB DISTRIBUTING CO LTD;ANAHEIM CA;CA;4633 E LA PALMA AVE;92807
70472;STRAUB DISTRIBUTING CO INC;GARDEN GROVE CA;CA;11552 MONARCH;92641
70500;COLORADO DISTRIBUTION CENTER;AURORA, CO;CO;19755 EAST 35TH DRIVE;80011
70502;ANHEUSER-BUSCH GIFT SHOP;FORT COLLINS CO;CO;2351 BUSCH DRIVE;80524
70510;PARALLEL PRODUCTS - GREELEY;GREELEY CO;CO;123 9TH AVE;80631
70600;TWO ROADS BREWING CO (BLUE PT);STRATFORD CT;CT;1700 STRATFORD AVE;06615
70900;ANHEUSER-BUSCH INC;HILLSBORO (TAMPA) FL;FL;3000 BUSCH BLVD;33612
70911;SUNCOAST BEVERAGE SALES LLLP;FORT MYERS FL;FL;2996 HANSON ST;33916
70912;COASTAL BEVERAGE LTD;NAPLES FL;FL;4747 PROGRESS AVE;34104
70918;NORTH FLORIDA SALES;JACKSONVILLE FL;FL;3601 REGENT BLVD;32224
70923;NORTH FLORIDA SALES;LAKE CITY FL;FL;467 SW RING CT;32025
71005;ARCHWAY MARKETING SERVICE;NORCROSS GA;GA;6154 ATLANTIC BLVD;30071
71008;LEON FARMER & COMPANY;ATHENS GA;GA;100 RAIL RIDGE RD;30607
71027;LEON FARMER & COMPANY;GAINESVILLE GA;GA;2851 WHITE SULPHUR RD;30501
71200;IMS/SCHWARZ;MORTON GROVE IL;IL;8338 AUSTIN AVE;60053
71274;STERN BEVERAGE INC;MILAN IL;IL;961 TECH DR;61264
71308;NELSON BEVERAGE;WARSAW IN;IN;255 W BELL DR;46582
71378;UNITED BEV CO OF SO BEND INC;SOUTH BEND IN;IN;840 UNITED DRIVE;46601
71424;DOLL DISTRIBUTING LLC;COUNCIL BLUFFS IA;IA;3501 23RD AVE;51501
71429;7G DISTRIBUTING LLC;DUBUQUE IA;IA;5035 CHAVENELLE ROAD;52002
71430;7G DISTRIBUTING LLC;DAVENPORT IA;IA;3200 RESEARCH PARKWAY;52806
71702;CHAMPAGNE BEVERAGE CO INC;MADISONVILLE LA;LA;1 BUD PL;70447
71741;BUQUET DISTRIBUTING CO INC;HOUMA LA;LA;100 EAGLE'S NEST COURT;70360
72046;D J REARDON CO INC;TEWKSBURY MA;MA;558 CLARK ROAD;01876
72071;L KNIFE & SON INC;KINGSTON MA;MA;35 ELDER AVE;02364
72076;SEABOARD PRODUCTS COMPANY;DANVERS MA;MA;17 COLLINS ST;01923
72118;HURON DISTRIBUTORS INC;INDIAN RIVER MI;MI;5555 M-68;49749
72173;GRIFFIN BEVERAGE COMPANY;SAINT IGNACE MI;MI;W1271 OLD PORTAGE TRAIL;49781
72175;MARCHETTI DISTRIBUTING CO INC;SAULT STE MARIE MI;MI;700 EMELINE ST;49783
72177;H COX & SON INC;TRAVERSE CITY MI;MI;1402 SAWYER RD;49685
72201;KRIEGER BEVERAGE COMPANY;ALBERT LEA MN;MN;2620 Y H HANSON AVE;56007
72400;REPACK SITE 3;GRANITE CITY IL;IL;21 COMMERCE CENTER DRIVE;62040
72508;INTERMOUNTAIN DISTRIBUTING CO;BILLINGS MT;MT;1010 INTERMOUNTAIN ST;59101
72551;CARDINAL DISTRIBUTING;BOZEMAN MT;MT;269 JACKRABBIT LN;59718
72626;EAGLE DISTRIBUTING INC;FREMONT NE;NE;1100 SOUTH BUD BLVD;68025
72648;QUALITY BRANDS OF LINCOLN;LINCOLN NE;NE;5840 N 70TH ST;68507
72651;JERRY W WURTELE DIST CO;NEBRASKA CITY NE;NE;6142 HIGHWAY 75;68410
72668;QUALITY BRANDS OF OMAHA;OMAHA NE;NE;13255 CENTECH RD;68138
72857;BELLAVANCE BEV CO LLC;HOOKSETT NH;NH;1000 QUALITY DRIVE;03106
72868;BELLAVANCE BEV CO LLC;NASHUA NH;NH;120 NORTHWEST BLVD;03061
72900;ROLLING ROCK;NEWARK NJ;NJ;200 U S HIGHWAY 1;07101
73100;KINGSTON NY SUPPORT CENTER;KINGSTON NY;NY;36 KEIFER LANE;12401
73103;OWASCO BEVERAGE INC;AUBURN NY;NY;1 EAGLE DR;13021
73105;KM DAVIES (BLUE POINT DC);WILLIAMSON NY;NY;6509 LAKE AVE;14589
73175;TRI-VALLEY BEVERAGE INC;WESTMORELAND NY;NY;ROUTE 233 RD#1;13490
73222;CITY BEVERAGE COMPANY INC;ELIZABETH CITY NC;NC;1471 WEEKSVILLE RD;27909
73291;ADAMS BEVERAGES OF NC LLC;WILMINGTON NC;NC;805 N 23RD ST;28405
73297;ADAMS BEVERAGES OF NC LLC;LUMBERTON NC;NC;797 CATON ROAD;28360
73305;MCQUADE DISTRIBUTING CO INC;BISMARCK ND;ND;1150 INDUSTRIAL DR;58501
73314;BRAUN DISTRIBUTING;DICKINSON ND;ND;153 26TH ST W;58601
73360;MAGIC CITY BEVERAGE CO INC;MINOT ND;ND;3025 BURDICK EXPY E;58701
73394;DELANEY DISTRIBUTORS INC;WILLISTON ND;ND;510 WEST FIRST STREET;58801
73400;WINE DIRECT GLENWILLOW;GLENWILLOW OH;OH;7900 COCHRAN RD;44139
73507;ALBERT BROTHERS OF ALTUS INC;ALTUS OK;OK;808 WEST CYPRESS STREET;73521
73548;PREMIUM BEERS OF OKLAHOMA LLC;LAWTON OK;OK;5301 SW 11TH ST;73501
73604;HIGH DESERT BEVERAGE DIST;BEND OR;OR;20735 HIGH DESERT LANE;97701
73605;10 BARREL BREWERY - PORTLAND 1;PORTLAND OR;OR;1411 NW FLANDERS ST;97209
73608;CLATSOP DISTRIBUTING CO;WARRENTON OR;OR;1375 S.E. 12TH PLACE;97146
73664;WESTERN BEVERAGE LLC;PORTLAND (AB) OR;OR;18300 NE PORTAL WAY;97230
73669;MALETIS BEVERAGE;PORTLAND (MALETIS)OR;OR;7000 N CUTTER CIR;97217
73700;ALLEN DISTRIBUTION;MECHANICSBURG PA;PA;150 ALLEN DISTRIBUTION DR;17055
74100;MEMPHIS TN REPACK CTR;MEMPHIS TN;TN;5151 E RAINES ROAD;38118
74142;HOLSTON DISTRIBUTING CO;JOHNSON CITY TN;TN;310 LAFE COX DR;37604
74200;HOUSTON CROSS DOCK;BAYTOWN TX;TX;1919 S FM 565;77523
74298;STANDARD SALES CO LP-WICHITA F;WICHITA FALLS TX;TX;3811 TARRY ST;76308
74505;VIRGINIA BEVERAGE COMPANY LLC;BRISTOL VA;VA;306 WALLING RD;24201
74517;WENDELL DISTRIBUTING CO INC;CAPE CHARLES VA;VA;650 MADISON AVE;23310
74561;HOFFMAN BEVERAGE CO;CHESAPEAKE VA;VA;4105 SOUTH MILITARY HWY;23321
74562;HOFFMAN BEVERAGE CO;CHESAPEAKE VA;VA;4105 SOUTH MILITARY HWY;23321
74563;M PRICE DISTRIBUTING CO;HAMPTON VA;VA;ONE BUDWEISER ST;23661
74600;ELYSIAN BREWERY-ELYSIAN FIELDS;SEATTLE WA;WA;542 1ST AVE S;98104
74608;CLATSOP DIST CO WASHINGTON;CHINOOK WA;WA;887 SR 101;98614
74625;ELYSIAN BREWERY-ELYSIAN BAR;SEATTLE WA;WA;1516 2ND AVE;98101
74632;MALETIS BEVERAGE;VANCOUVER WA;WA;600 SE ASSEMBLY AVE;98661
74640;MALETIS BEVERAGE;PORTLAND (MALETIS)OR;WA;7000 N CUTTER CIRCLE;97217
74700;WEST VIRGINIA WSLR SUPP CTR;MORGANTOWN, WV;WV;3214 EARL L. CORE ROAD;26508
74907;TANAGER BEVERAGES LLC;CODY WY;WY;22 ROAD 2 AB;82414
74986;BIG HORN BEVERAGE CO INC;SHERIDAN WY;WY;479 FORT RD;82801
75900;ROYAL GROLSCH NV;BROUWERSLANN 1;6S;7500 AB ENSCHEDE;00000
75901;DELTA ALCOHOL DISTRIBUTORS;MARISAN TURKEY;4C;3618 N LONG 33 53 E;00000
75903;TOP LINE SRL;ROME ITALY;D4;VIALE GORIZIA 24D;00198
75907;INSULAR CANARIAS DE BEBIDASSAU;LAS PALMAS SPAIN;7N;C PESCADOR 17;00000
75909;BREWBERRY CO LTD;N KLONG TOEY WATTANA;5X;17 SUKHUMVIT SOI1, SUKMUMVIT;10110
75913;SAG NUEVO LEON;GUADALUPE;8T;CARRETERA REYNOSA 6011;67190
75915;HORSINVEST HOLDING CO LTD;KOWLONG HONG KONG;5H;STE 3009 30/F,TOWER 1;\N
75916;EHMEJ COMPANY EXP & IMP GEN TR;DHOUK IRAQ;4G;CIGARETTES STREET;00000
75917;SOUTH PACIFIC DISTRIBUTORS INC;TAFUNA AMERICA SAMOA;3Z;P O BOX 1344;96799
75918;INTERNATIONAL BEVERAGE DIST;HO CHI MINH VIETNAM;5Y;21 PHUNG KHAC KHOAN DIST 1;00000
75919;INBEV FRANCE;NORD FRANCE 59777;6K;IMMEUBLE CRYSTAL 38 VAUBAN;00000
75920;GOSLING'S LIMITED;HAMILTON BERMUDA;8W;#9 DUNDONALD STREET;HM 10
75921;CERVECERIA NACIONAL DOMINICANA;SANTO DOMINGO;8I;AUTOPISTA 30 DE MAYO KM 6 1/2;\N
75922;R CHOITHRAM & SONS;FREETOWN SIERRALEONE;1L;5 RAWDON STREET;00000
75923;COMET WAREHOUSING (LABATT);BURNABY BC V5J 5L1;8X;7595 LOWLAND DR;00000
75924;Y & D ENTERPRISES 1986 LTD;RICOMME ISRAEL;4D;20, ELIYAHU EITAN;75703
75927;CONSOLIDATED FASTFRATE -LABATT;CALGARY AL T2C 4Y6;8X;11440 54TH ST SE;00000
75928;COMERCIALIZADORA INTERAMERICAN;SAN SALVADOR ELSALVA;8Q;CALLE CERRO VERDE PONIETE;00000
75929;AXIOM WAREHOUSING (LABATT);BRAMPTON ON L6W1W3;8X;154 ORENDA RD;00000
75930;LEANEZ INTERNATIONAL BV;WILLEMSTAD CURACAO;9Q;AJ LEANEZ STREET 15;\N
75931;ACK WHOLESALE;PORT AU PRINCE HAITI;8J;BLVD 15 OCTOBRE, RUE ROUMAIN;00000
75933;CRAFT BEER DIST OF PUERTO RICO;SAN JUAN PUERTO RICO;PR;C728 MARIO JULIA INDUST PARK;00920
75936;INSULAR CANARIAS DE BEBIDAS SA;EL CHORRILLO SPAIN;7N;C LA BATATA 37;00000
75937;GOGI INC;MONROVIA LIBERIA;0X;FREEWAY SOMALIA DRIVE;00000
75938;SASCO IMPORT & EXPORT;BANJUL GAMBIA;0Q;P O BOX 1224 52 KAIRABA AVE;00000
75939;ETS. KHAZAAL;CONAKRY GUINEA;0S;B P 1940;00000
75941;ETS. SO. DIS. PAM.;ABIDJAN20 IVORYCOAST;0U;01 BP 3747;00000
75942;LABATT MISSISSAUGA WAREHOUSE;MISSISSAUGA ONTARIO;8X;445 EXPORT BLVD;00000
75943;COLUMBIA BREWERY CRESTON;CRESTON BC CANADA;8X;1220 ERIKSON STREET;00000
75945;LABATT BREWERIES LONDON;LONDON ONTARIO;8X;150 SIMCOE STREET;00000
75947;S.T.E. NEPCO SARL;CONTONOU BENIN;0C;BP 4376;00000
75948;ECUATO GUINEA TRADING CO;MALABO EQU. GUINEA;0N;BP 930;00000
75949;ETS. AKZ;LOME TOGO;1S;BP 12650;00000
75950;COMPANIA CERVECERA DEL TROPICO;TUXTEPEC OAXACA MEX;8T;BLVD ANTONINO FERNANDEZ NO 1;68365
75951;VALLE HERMOSO;VALLE HERMOSO MEXICO;8T;BRECHA 120KM 78.500 COLONIA;87500
75952;FAITH MAU;REPUBLIC OF NAURU;3Z;UABOE DISTRICT;00000
75958;LUEN HENG F&B SDN BHD;KUALA LUMPUR MALAYSI;5Z;8 JALAN KILANG MIDAH;56000
75971;INT'L BEV DIST CO LTD;HO CHI MINH VIETNAM;5Y;21 PHUNG KHAC KHOAN ST DIST 1;00000
75972;KFF FOOD & BEVERAGE SAL;BEIRUT LEBANON;4G;FATTAL BUILDING DANNY CHAMMOUN;00000
75973;SADA EL LAYL LLC;BAGHDAD IRAQ;4C;HAI AL NITHAN QTR 103 ZOUKAK30;00000
75974;CARIBBEAN BEER & SPIRITS LTD;TURKS & CAICOS BWI;8L;BLDG 1 AIRPORT RD PROVIDENCIAL;00000
75976;SODISPO;PAPEETE TAHITI;3P;21 PAPEAVA NO 3 & 4;98715
75977;HOLIDAY MARINE SERVICES LLC;SHARJAH UAE;5G;P O BOX 27202;00000
75978;R L SEALE & CO. LTD;ST PHILIP BARBADOS;8C;FOURSQUARE COMPLEX;00000
75979;COMET GHANA LTD;CANTONMENTS ACCRA;0R;BEHIND FIORE HGHT AIRTEL OFF;00000
75981;DBG (PTY) LTD;MIDRAND SOUTH AFRICA;1N;724 SIXTEENTH RD RANDJESPARK;00000
75983;ST. VINCENT BREWERY LIMITED;ST VINCENT;8M;CAMPDEN PARK INDUSTRIAL ESTATE;00000
75985;CECIL MACDONALD & CO. LTD;CRAWLEY ENG RH110PW;9Y;1 LOWFIELD WAY LOWFIELD HEATH;00000
75986;INDUSTRIAS DEL ATLANTICO S.A.;TECULUTAN ZACAPA GUA;8R;KM 122 RUTA AL ATLANTICO ZONA;00000
75987;LABATT BREWERIES OF CANADA;BRAMPTON ON L6W4T8;8X;69 FIRST GULF BOULEVARD;00000
75988;HEINEKEN INTERNATIONAL;BERLIN GERMANY 10559;9Y;ALT MOABIT 101B;00000
75989;BREWER'S DISTRIBUTOR LTD;REGINA, SKSWN S4N;8X;400 DEWDNEY AVE EAST;4G2
75990;LION NATHAN LIMITED;AUCKLAND NEW ZEALAND;3F;368 KHYBER PASS ROAD NEWMARKET;00000
75991;BREWER'S DISTRIBUTOR LTD;SASKATOON SKSWN S7J;8X;2630 JASPER AVENUE;2K2
75992;BREWERS DISTRIBUTOR LTD;WPG MB R3T 1N5;8X;UNIT 300 1370 SONY PLACE;00000
75993;ALCOOL NEW BRUNSWICK LIQUOR;FREDERICTON NB E3B;8X;170 CHEMIN WILSEY PO BOX20787;5B8
75994;NSLC DISTIRBUTION WHS;HALIFAX NS B3S 1A3;8X;93 CHAIN LAKE DR. BAYERS LAKE;00000
75995;MERIDIAN DUTY FREE S.P.A.;ROME ITALY 00148;9Y;VIA PORTUENSE 1555 ISLMOD40/41;00148
75997;HOWARD TENENS LTD;GLOUSTER UK GL13;2I;BURMA ROAD SHARPNESS BERKELEY;9UQ
75999;LABATT BREWERIES OF CANADA;PORT COQUILAM BC V3C;8X;1711 KINGSWAY AVENUE;0B6
76000;TIGER EXPORT PRIVATE LIMITED;SINGAPORE 119958;6S;# 21-00 ALEXANDRA POINT;00000
80155;D/B/A ROYAL BEVERAGE CO;LANETT AL;AL;2017 VETERANS MEMORIAL PKWY;36863
80400;ANHEUSER-BUSCH INC;VAN NUYS CA;CA;8250 WOODLEY AVE;91406
80408;STASH DISTRIBUTING INC;CHICO CA;CA;2138 FAIR ST;95928
80410;MONTCLAIR DC;MONTCLAIR CA;CA;4545 BROOKS STREET;91763
80413;PATTON DISTRIBUTING CO INC;WEED CA;CA;200 ALAMO STREET;96094
80417;NORTH COAST MERCANTILE CO INC;EUREKA CA;CA;1115 W DEL NORTE ST;95501
80420;LQD - CNP PACKAGING;LATHROP CA;CA;1250 E. LATHROP ROAD;95330
80449;A-B INC CRESCENT CITY;MEDFORD OR;CA;910 MASON WAY;97501
80453;BLACH BEVERAGE LLC;REDDING CA;CA;1530 BELTLINE RD;96003
80462;O'NEILL DISTRIBUTING CO;ALTURAS CA;CA;545 NORTH COURT;96101
80465;ANHEUSER-BUSCH SALES OF LA;CARSON CA;CA;20499 S REEVES AVE;90810
80470;WALNUT WAREHOUSE FOR CARSON;CHINO CA;CA;3525 WALNUT AVE;91710
80498;SUPERIOR PRODUCTS CO-VALLEY;WILLOWS CA;CA;110 COUNTY ROAD 53;95988
81004;ATLANTA BEVERAGE CO;ATLANTA GA;GA;5000 FULTON INDUSTRIAL BLVD SW;30336
81018;EAGLE ROCK DIST CO LLC-STN MTN;NORCROSS GA;GA;6205-B BEST FRIEND RD;30071
81019;ATLANTA BEVERAGE CO GGP;MARIETTA GA;GA;1250 ATLANTA INDUSTRIAL DRIVE;30066
81029;LASETER DISTRIBUTING CO INC;GRIFFIN GEORGIA;GA;300 W BROAD ST;30223
81049;LAGRANGE GROCERY CO;LAGRANGE GA;GA;143 BUSCH DR;30240
81070;EAGLE ROCK NORTH DIST. CO, LLC;ROME GA;GA;333 OLD LINDALE ROAD;30161
81210;ATLAS IMPORTS LLC;CHICAGO IL;IL;351 W. HUBBARD ST., STE 602;60654
81236;G & M DISTRIBUTORS INC;GALESBURG IL;IL;200 N LINWOOD RD;61401
81271;GRAY WHOLESALE INC;LAWRENCEVILLE IL;IL;1419 12TH ST;62439
81309;CRAIG DISTRIBUTING CO INC;AURORA IN;IN;7675 KERRISAND DR;47001
81394;DEVER DISTRIBUTING CO INC;TERRE HAUTE IN;IN;925 NORTH FRUITRIDGE AVE;47803
81406;GOLDEN EAGLE DIST-BURLINGTON;BURLINGTON IA;IA;1820 CHARLES ST;52601
81431;DOLL DISTRIBUTING LLC;DES MOINES IA;IA;1901 DE WOLF ST;50316
81444;DOLL DISTRIBUTING LLC;GRINNELL IA;IA;1810 WEST STREET SOUTH;50112
81529;WESTERN BEVERAGE INC;DODGE CITY KS;KS;301 E WYATT EARP BLVD;67801
81535;WESTERN BEVERAGE INC;HAYS KS;KS;2100 EAST HWY 40;67601
81560;PESTINGER DISTRIBUTING CO INC;COLBY KS;KS;2106 E HIGHWAY 24;67701
81561;PESTINGER BEVERAGE CO. INC.;COLBY KS;KS;2106 EAST HIGHWAY 24;67701
81617;CHAS. SELIGMAN DIST CO INC;WALTON KY;KY;10885 CLYDESDALE CT;41094
81755;EAGLE DIST OF SHREVEPORT INC;NATCHITOCHES LA;LA;720 6TH ST;71457
81774;EAGLE DIST OF SHREVEPORT INC;SHREVEPORT LA;LA;900 W 62ND ST;71106
82066;GIRARDI DISTRIBUTORS LLC;PITTSFIELD MA;MA;40 DOWNING INDUSTRIAL PARK;01201
82079;QUALITY BEVERAGE LP CHICOPEE;CHICOPEE MA;MA;880 BURNETT RD;01020
82204;ANDERSON BEVERAGES INC;CROOKSTON MN;MN;500 MARIN AVE;56716
82210;D-S BEVERAGES INC;MOORHEAD MN;MN;201 17TH STREET NORTH;56560
82212;BIG NORTH DIST CO INC;BEMIDJI MN;MN;1180 ADAMS AVE NW;56601
82214;NORTHWEST BEVERAGE CO INC;THIEF RIVER FALLS MN;MN;1320 GREENWOOD ST W;56701
82231;DAKOTA SALES CO INC;GRAND FORKS ND;MN;1916 DEMERS AVENUE;58201
82400;ANHEUSER-BUSCH INC;ST LOUIS MO;MO;2600 SYDNEY BLDG-211;63118
82401;ANHEUSER-BUSCH ARSENAL;ST LOUIS MO;MO;1200 ARSENAL ST;63118
82402;ANHEUSER-BUSCH CORP DOCK;ST LOUIS MO;MO;ONE BUSCH PLACE;63118
82509;ZIP INC;BUTTE MT;MT;3941 WYNNE AVENUE;59701
82543;FLATHEAD BEVERAGE CO;KALISPELL MT;MT;1390 US HIGHWAY 2 W;59901
82554;M & C BEVERAGE INC;MILES CITY MT;MT;419 N 9TH ST;59301
82557;ZIP INC;MISSOULA MT;MT;1301 SCOTT ST;59802
82625;H & H DISTRIBUTING OF FAIRBURY;FAIRBURY NE;NE;3020 INDUSTRIAL AVE;68352
83100;HIGH FALLS OPERATING CO, LLC;ROCHESTER NY;NY;445 ST PAUL STREET;14605
83105;BLUE POINT BREWING CO., INC.;PATCHOGUE NY;NY;225 W MAIN ST;11772
83110;HIGH FALLS OPERATING (SPIKED);ROCHESTER NY;NY;445 ST PAUL STREET;14605
83115;FROG ALLEY BREWING CO;SCHENECTADY NY;NY;108 STATE STREET;12305
83120;PARALLEL PRODUCTS BRONX NY;BRONX NY;NY;900 138 ST;10454
83130;EAGLE BEVERAGE CO INC;OSWEGO NY;NY;1043 COUNTY ROAD 25;13126
83135;KOBU BEVERAGES;PATCHOGUE NY;NY;225 W MAIN STREET;11772
83150;A & M BEVERAGES INC;MALONE NY;NY;386 EAST MAIN STREET;12953
83151;A CAPPIONE INC;MASSENA NY;NY;52-54 LIBERTY AVENUE;13662
83167;EAGLE BEVERAGE COMPANY, INC.;OSWEGO NY;NY;1043 COUNTY ROAD 25;13126
83222;CITY BEVERAGE CO INC;MANTEO NC;NC;1115 DRIFTWOOD DRIVE;27954
83302;H. BOYD NELSON INC - WAHPETON;ALEXANDRIA MN;ND;3800 MINNESOTA ST;56308
83313;JEROME WHOLESALE INC;DEVILS LAKE ND;ND;1315 2ND AVE NE;58301
83320;D-S BEVERAGES INC;MOORHEAD MN;ND;201 17TH ST N;56560
83331;DAKOTA SALES CO INC;GRAND FORKS ND;ND;1916 DEMERS AVE;58201
83389;VALLEY SALES CO INC;JAMESTOWN ND;ND;1218 8TH ST SE;58401
83406;OHIO EAGLE DISTRIBUTING LLC;BATAVIA OH;OH;1155 OLD STATE ROUTE 74;45103
83414;HEIDELBERG DISTRIBUTING CO;CINCINNATI OH;OH;1518 DALTON AVE;45214
83516;ED F DAVIS INC;DURANT OK;OK;2659 WESTSIDE DR;74701
83700;CBC LATROBE ACQUISITION, LLC;LATROBE PA;PA;100 33RD STREET;15650
84062;NORTHWEST BEVERAGE INC;MOBRIDGE SD;SD;28731 US HIGHWAY 12;57601
84146;EAGLE DISTRIBUTING CO INC;KNOXVILLE TN;TN;2920 CORAM ST NE;37917
84147;EAGLE DISTRIBUTING CO INC;LENOIR CITY TN;TN;2304 INDUSTRIAL PARK DR;37771
84245;R & K DISTRIBUTORS INC;LONGVIEW TX;TX;1302 E WHALEY ST;75601
84253;BROWN DISTRIBUTING COMPANY LTD;LA GRANGE TX;TX;204 WEST FANNIN;78945
84257;R & K DISTRIBUTORS INC;NACOGDOCHES TX;TX;6821 NORTH ST;75965
84512;VIRGINIA EAGLE DIST CO LLC;CHARLOTTESVILLE VA;VA;669 GOLD EAGLE DR;22903
84513;J W SIEG AND CO INC;ELKWOOD VA;VA;ROUTE 29 & 676;22718
84549;PECHT DISTRIBUTORS INC;LAWRENCEVILLE VA;VA;514 NEW ST;23868
84552;AL PUGH DIST CO INC;WARSAW VA;VA;13548 HISTORY LAND HWY;22572
84565;LEE DISTRIBUTING COMPANY INC;PRINCE GEORGE VA;VA;1990 E WHITEHILL RD;23875
84569;BROWN DISTRIBUTING CO INC;RICHMOND VA;VA;7986 VILLA PARK DR;23228
84600;STARBUCKS COFFEE COMPANY;AUBURN WA;WA;2202 PERIMETER ROAD;98001
84603;SOUND BEVERAGE DIST INC;BELLINGHAM WA;WA;3901 SOUND WAY;98226
84610;KING BEVERAGE INC;CENTRALIA WA;WA;606 REYNOLDS AVENUE, SUITE # 2;98531
84614;CROWN DISTRIBUTING LLC;ARLINGTON WA;WA;17117 59TH AVE NE;98223
84627;OLYMPIC EAGLE DISTRIBUTING;PUYALLUP WA;WA;1101 N LEVEE RD;98371
84675;ANHEUSER-BUSCH SALES OF WA INC;RENTON WA;WA;3215 LIND AVE SW;98057
85914;SAVERO TRADING LTD;NICOSIA, CYPRUS;6F;15 ATHINAS STROVOLOS;99999
85917;MLG WAREHOUSE;LERMA;8T;CALLE S/N 105,B10,LA BOMBA;52000
85921;CEDIS SODISA TIJUANA;P IND EL BAJIO TECAT;8T;CARRETERA TIJUANA-TECATE KM140;21503
85922;GLOBAL BONDED PURCHASE;NETHERLANDS;9Y;SNELLIUSSTRAAT 12 3316 GV DORD;\N
85924;SHANGHAI FOODSTUF IMP&EXP CORP;PEOPLE'S REPUBLIC OF;5E;26 ZHONGSHAN RD E 1 SHANGHAI;99999
85938;AMVYX S.A.;16452 ARGYROUPOLIS,;6L;6,CONSTANTINOPOLEOS STREET;\N
85960;PROD. ALIM. Y LICORES C. LTDA.;GUAYAQUIL ECUADOR;9F;CASILLA 5459 (KM 7 1/2 DAULE);\N
85996;SAQ C/O INTRAMODAL;POINTE-CLAIRE QC H9R;8X;2200 CHEMIN DE SERVICE SUD;1B1
85999;CONNECT LOGISTICS;ST ALBERTA T8N3T5;8X;50 CORRIVEAU AVENUE;00000
90331;BELLE POINT BEVERAGES INC;FORT SMITH AR;AR;1 BELLEPOINT PL;72901
90410;GOLDEN ROAD BREWERY SAN FERNAN;LOS ANGELES CA;CA;5420 W SAN FERNANDO RD;90039
90412;GOLDEN ROAD BREWERY ANAHEIM;ANAHEIM CA;CA;2220 EAST ORANGEWOOD AVE;92806
90414;GOLDEN ROAD TAP ROOM GRAND CEN;LOS ANGELES CA;CA;317 SOUTH BROADWAY;90013
90418;CUTWATER SPIRITS;SAN DIEGO CA;CA;9750 DISTRIBUTION AVE;92121
90419;ONEILL VINTERS & DISTILLERS;PARLIER CA;CA;8418 S LAC JAC AVENUE;93648
90420;VARNI BROTHERS;MODESTO CA;CA;402 HOSMER AVE;95351
90421;YANDELL TRUCKAWAY;BENICIA CA;CA;360 INDUSTRIAL CT SUITE A;94510
90422;WINE DIRECT SANTA MARIA;SANTA MARIA CA;CA;1427 FAIRWAY DR;93445
90425;SEA WORLD SAN DIEGO EMPL BEER;SAN DIEGO CA;CA;500 SEA WORLD DRIVE;92109
90440;NOR-CAL BEVERAGE CO INC;DIAMOND SPRINGS CA;CA;6230 ENTERPRISE DR;95619
90479;V SANTONI & CO;WOODLAND CA;CA;550 SANTA ANITA DR;95776
90489;MARKSTEIN BEV CO OF SACRAMENTO;SACRAMENTO CA;CA;60 MAIN AVE;95838
90491;NOR-CAL BEVERAGE CO INC;SOUTH LAKE TAHOE CA;CA;1044 INDUSTRIAL AVE;96150
90913;BURKHARDT SALES AND SERVICE;GAINESVILLE FL;FL;6125 NW 18TH DR;32653
90927;BURKHARDT SALES AND SERVICE;ST AUGUSTINE FL;FL;3935 INMAN RD;32084
91006;A B BEVERAGE CO INC;EVANS GA;GA;699 COMMERCE CT;30809
91009;SOUTHERN EAGLE DISTRIBUTING;BRUNSWICK GA;GA;2129 LINE ST;31520
91029;ATLANTA BEVERAGE CO-GRIFFIN;GRIFFIN GA;GA;1599 KELL LANE;30224
91094;SOUTHERN CROWN PARTNERS LLC;BLACKSHEAR GA;GA;6200 BOWEN RD;31516
91110;CENTENNIAL DISTRIBUTING;HAYDEN ID;ID;701 W BUCKLES AVE;83835
91149;KING BEVERAGE INC;LEWISTON ID;ID;2004 4TH AVE N;83501
91409;IKE AUEN DISTRIBUTING CO INC;CARROLL IA;IA;102 N GRANT RD;51401
91437;HUMES DISTRIBUTING INC;FORT DODGE IA;IA;400 NORTH 5TH ST;50501
91513;PESTINGER DISTRIBUTING CO INC;BELOIT KS;KS;3039 US HWY 24;67420
91541;FLINT HILLS BEVERAGE LLC;MANHATTAN KS;KS;5900 CORPORATE DR;66503
91575;PESTINGER DISTRIBUTING CO INC;SALINA KS;KS;1825 BAILEY RD;67401
91630;PERRY DISTRIBUTORS INC;HAZARD KY;KY;309 BIRCH ST;41701
91646;KENTUCKY EAGLE INC;LEXINGTON KY;KY;2440 INNOVATION DR.;40511
92015;GIRARDI DISTRIBUTORS LLC;ATHOL MA;MA;5 RAILROAD PL;01331
92043;KLAUSEN-GESTBY CO INC;SOUTH BOSTON MA;MA;22 ELKINS STREET;02127
92098;QUALITY BEVERAGE LP AUBURN;AUBURN MA;MA;12 ST MARK ST;01501
92128;WEST SIDE BEER DIST (NON-ALC);GRAND RAPIDS MI;MI;5400 PATTERSON AVE SE;49512
92198;WEST SIDE BEER DIST (NON-ALC);GRAND RAPIDS MI;MI;5400 PATTERSON AVE SE;49512
92199;WEST SIDE BEER DIST (NON-ALC);GRAND RAPIDS MI;MI;5400 PATTERSON AVE SE;49512
92400;GRANT'S FARM;ST LOUIS MO;MO;10501 GRAVOIS;63123
92401;ST LOUIS TOUR CENTER;ST LOUIS MO;MO;1127 PESTALOZZI;63118
92402;CORPORATE THEATRE;ST LOUIS MO;MO;ONE BUSCH PLACE;63118
92403;ST LOUIS SPIRIT AIRPORT;ST LOUIS MO;MO;18130 EDISON AVE;63005
92404;PRODUCT TECHNOLOGY GROUP;ST LOUIS MO;MO;1200 ARSENAL;63118
92406;BLC - DRAUGHT;ST LOUIS MO;MO;1127 PESTALOZZI;63118
92407;BLC - NEW HIRE;ST LOUIS MO;MO;1127 PESTALOZZI;63118
92408;BLC - SLB RETIREES;ST LOUIS MO;MO;1127 PESTALOZZI;63118
92409;BLC - BSN;ST LOUIS MO;MO;1127 PESTALOZZI;63118
92410;BLC - WSLR RETREAT;ST LOUIS MO;MO;1127 PESTALOZZI;63118
92411;EXECUTIVE DINING 202-7;ST LOUIS MO;MO;ONE BUSCH PLACE;63118
92500;A-B INC % MCDONALD N AMERICAN;BILLINGS MT;MT;1400 MONAD RD;59104
92510;EAGLE BEVERAGE;HELENA MT;MT;2525 AIRPORT RD;59601
92513;TRIANGLE DISTRIBUTORS INC;CONRAD MT;MT;513 SOUTH FRONT STREET;59425
92520;NEMONT BEVERAGE CORPORATION;GLASGOW MT;MT;174 MONTANA HWY 24 NORTH;59230
92531;SHELBY DISTRS. DBA EAGLE BEV.;GREAT FALLS MT;MT;601 RIVER DRIVE SOUTH;59405
92552;INTERMOUNTAIN DISTRIBUTING CO;LEWISTOWN MT;MT;403 S DAWES ST;59457
92569;EAGLE BEVERAGE;GREAT FALLS MT;MT;1011 BROADWATER DR;59405
92574;HAVRE DISTRIBUTORS INC;HAVRE MT;MT;935 1ST ST;59501
92900;ANHEUSER-BUSCH INC;NEWARK NJ;NJ;200 U S HIGHWAY 1;07101
92905;EAST COAST WAREHOUSE & DIST;JERSEY CITY NJ;NJ;202 INDUSTRIAL DR;07305
92910;EAST COAST WAREHOUSE;ELIZABETH NJ;NJ;1150 POLARIS STREET;07201
93108;CAROUSEL BEVERAGE;BROOKLYN NY;NY;436 3RD AVENUE;11215
93405;OHIO PRODUCTS DIST CO;ASHTABULA OH;OH;516 W 30TH ST;44004
93411;ANHEUSER-BUSCH SALES OF CANTON;CANTON OH;OH;1611 MARIETTA AVE SE;44707
93421;THE HOUSE OF LAROSE;BRECKSVILLE OH;OH;6745 SOUTHPOINTE PKWY;44141
93457;MANSFIELD DISTRIBUTING CO;MANSFIELD OH;OH;1245 W LONGVIEW AVE;44906
93459;OHIO EAGLE DISTRIBUTING LLC;WEST CHESTER OH;OH;9300 ALLEN ROAD;45069
93462;THE MAPLE CITY ICE CO;NORWALK OH;OH;371 CLEVELAND RD;44857
93500;ANHEUSER-BUSCH SALES OF OK;TULSA OK;OK;2929 N FLORENCE AVE;74110
93567;ANHEUSER-BUSCH SALES OF OK;PERRY OK;OK;3210 W FIR ST;73077
93600;ANHEUSER-BUSCH INC;PORTLAND OR;OR;18300 NE PORTAL WAY;97230
93605;ALPINE DC;MILWAUKIE OR;OR;2400 SE MAILWELL DR;97222
93701;(NA) SHEETZ INC;CLAYSBURG PA;PA;242 SHEETZ WAY;16625
93703;FURRER BEVERAGE CO;ALTOONA PA;PA;132 STROEHMAN RD;16602
93705;PHILADELPHIA DISTILLING;PHILADELPHIA PA;PA;12285 MCNULTY ROAD;19154
93752;W R HICKEY BEER DISTR INC;STATE COLLEGE PA;PA;1321 E COLLEGE AVE;16801
93901;A B BEVERAGE CO INC;AIKEN SC;SC;1983 RICHLAND AVE E;29801
94073;QUALITY BRANDS OF BLACK HILLS;RAPID CITY SD;SD;1717 MARLIN DR;57701
94101;L&H DISTRIBUTING CO INC;TULLAHOMA TN;TN;1309 N WASHINGTON ST.;37388
94102;THE HAND FAMILY BEV CO LLC;MEMPHIS TN;TN;45 E H CRUMP BLVD WEST;38106
94103;HAND FAMILY WINE & SPIRITS LLC;CLARKSVILLE TN;TN;2069 WILMA RUDOLPH BLVD;37040
94104;HAND FAMILY WINE & SPIRITS LLC;SODDY DAISY TN;TN;200 SHEARER STREET;37379
94106;EAGLE DISTRIBUTING CO INC;KNOXVILLE TN;TN;310 RADFORD PLACE;37917
94107;HOLSTON BEVERAGES LLC;KNOXVILLE TN;TN;2920 CORAM ST NE;37917
94108;AJAX TURNER BEVERAGES, LLC;LA VERGNE TN;TN;4010 CENTREPOINTE WAY;37086
94120;CHEROKEE DISTRIBUTING CO;CHATTANOOGA TN;TN;1305 BROAD STREET;37402
94211;MIKE HOPKINS DIST CO INC;BRENHAM TX;TX;1751 HIGHWAY 290 W;77833
94213;WISMER DISTRIBUTING CO;MONT BELVIEU TX;TX;13827 I-10 EAST;77523
94216;SILVER EAGLE DIST HOUSTON LLC;CONROE TX;TX;2617 INDUSTRIAL LN;77301
94218;SILVER EAGLE DIST HOUSTON LLC;PASADENA TX;TX;3505 PASADENA FREEWAY;77503
94220;DEL PAPA DISTRIBUTING CO INC;EL CAMPO TX;TX;701 WEST JACKSON;77437
94224;SILVER EAGLE DIST HOUSTON LLC;ROSENBERG TX;TX;6902 INDUSTRIAL PKWY;77471
94225;SEA WORLD SAN ANTONIO EMP BEER;SAN ANTONIO TX;TX;10500 SEA WORLD DRIVE;78251
94231;DEL PAPA DISTRIBUTING CO INC;TEXAS CITY TX;TX;1301 CENTURY BOULEVARD;77591
94233;L & F DISTRIBUTORS LLC;MCALLEN TX;TX;3900 N MCCOLL RD;78501
94239;L & F DISTRIBUTORS LLC;HARLINGEN TX;TX;3502 SPUR 54;78552
94240;SILVER EAGLE DIST HOUSTON LLC;HOUSTON TX;TX;7777 WASHINGTON AVE;77007
94262;SILVER EAGLE DIST HOUSTON LLC;HOUSTON (CYPRESS) TX;TX;8660 N ELDRIDGE PKWY;77041
94282;BEN E KEITH -MOBILITY (AUSTIN);AUSTIN TX;TX;4101 MCKINNEY FALLS PKWY;78744
94284;BEN E KEITH -MOBILITY (HOUSTN);HOUSTON TX;TX;6720 COMMERCE CREEK DR;77040
94285;STEVENSON BEER DIST CO LTD;TRINITY TX;TX;201 EAST MADISON ST;75862
94286;BEN E KEITH -MOBILITY (ELPASO);EL PASO TX;TX;915 LOMA VERDE DR;79936
94292;L & F DIST -MOBILITY (ALBUQ);ALBUQUERQUE NM;NM;2500 SOLANO DR NE;87110
94294;L & F DIST -MOBILITY (AUSTIN);BUDA TX;TX;777 W GOFORTH;78610
94296;L & F DIST -MOBILITY (HOUSTON);HOUSTON TX;TX;305 GARDEN OAKS;77018
94297;KENNEDY DISTRIBUTING CO;YOAKUM TX;TX;1 INDUSTRIAL LOOP;77995
94298;L & F DIST -MOBILITY (DALLAS);FARMERS BRANCH, TX;TX;13755 DIPLOMAT DR #100;75234
94522;DANVILLE DISTRIBUTING COMPANY;DANVILLE VA;VA;WEST MAIN & GATEWOOD;24541
94551;VIRGINIA EAGLE DIST CO LLC;LYNCHBURG VA;VA;100 LICHFORD LN # 104;24502
94568;VIRGINIA EAGLE DIST CO LLC;PULASKI VA;VA;2100 MONTE VISTA DR EXT;24301
94572;P A SHORT DISTRIBUTING CO;HOLLINS VA;VA;440 INDUSTRIAL DR;24019
94577;VIRGINIA EAGLE DIST CO LLC;VERONA VA;VA;827 LEE HWY;24482
94588;BUSCH GARDENS OKTOBERFEST;WILLIAMSBURG VA;VA;ONE BUSCH GARDENS BLVD;23187
94589;BUSCH GARDENS FRENCH VILLAGE;WILLIAMSBURG VA;VA;ONE BUSCH GARDENS BLVD;23187
94592;BUSCH GARDEN ITALIAN PAVILLION;WILLIAMSBURG VA;VA;ONE BUSCH GARDENS BLVD;23187
94593;BUSCH GARDENS IRELAND;WILLIAMSBURG VA;VA;ONE BUSCH GARDENS BLVD;23187
94595;BUSCH GARDENS ENGLAND;WILLIAMSBURG VA;VA;ONE BUSCH GARDENS BLVD;23187
94596;BUSCH GARDENS GERMANY;WILLIAMSBURG VA;VA;ONE BUSCH GARDENS BLVD;23187
94600;HIBALL - J LIEB FOODS;KENNEWICK WA;WA;10 E BRUNEAU AVE;99336
94681;TRIPP DISTRIBUTING INC;COLVILLE WA;WA;331 LOUIS PERRAS RD;99114
94682;KING BEVERAGE INC;SPOKANE WA;WA;6715 E MISSION AVE;99212
95912;A-BET (SUCCURSALE FRANCE);4EME ETAGE 75008 PARIS FRANCE;6K;112-114 BD HAUSSMANN;\N
95932;ANHEUSER-BUSCH EUROPEAN TRADE;08037 BARCELONA;7B;CORCEGA 381, 4;\N
95941;CERVECERIA HONDURENA S A;SAN PEDRO HONDURAS;8S;SALIDA CARRETERA PUERTO CORTES;00000
95962;CARLSBERG SWEDEN A/S;STOCKHOLM SWEDEN;6Z;BRYGGERIVAGEN 10;16186
95964;MYANMAR HOTELS & TOURISM SERV;YANGON MYANMAR;5D;NO 77-91 SULE PAGODA ROAD;\N
95973;BUDWEISER WUHAN INTERNATIONAL;WUHAN CHINA;5E;QINDUANKOU HANYANG;\N
95984;TELFORD INTERNATIONAL CO LTD;YUEN LONG HONG KONG;5H;62 FUK HI STREET;\N
95986;CIA. INDUSTRIAL CERVECERA S.A;BUENOS AIRES ARGENTI;9A;DIOGENES TABORDA 1533 CAPITAL;\N
95987;CIA INDUSTRIAL CERVECERA S.A;BUENOS A. ARGENTINA;9A;EDISON 2659-MARTINEZ-CP1640;\N
95989;VANG KEI HONG LTD;PONTE NO 27 MACAU;5H;AV DE DEMETRIO CINATI 1-AND;99999
95995;NANLIEN INTERNATIONAL CORP;\N;5W;KAOHSIUNG TAIWAN;\N
95998;PORT OF VALPARAISO/SAN ANTONIO;CHILE;9D;% CIA CERVECERIAS UNIDAS SA;\N
